name,uid,resource_type,water_fountain,bottle_filler,jug_filler,dog_fountain,latitude,longitude,address,city,state,zip_code,park,access,public_access_hours_open,public_access_hours_close,public_access_days,notes,data_source,point,supervisor_district,analysis_neighborhood,data_as_of,data_loaded_at,Neighborhoods,Current Police Districts,Current Supervisor Districts,Analysis Neighborhoods,Recreation and Parks Properties
Drinking Fountain/Cooler,2906746747408755699,drinking_water,1,1,0,0,37.74195621,-122.46517039000001,,San Francisco,CA,,West Portal Playground,publicly_accessible,08:00:00,20:00:00,Daily,,rec,POINT (-122.46517039 37.741956211),7,West of Twin Peaks,2024/07/23 12:28:50 PM,2024/10/10 10:40:59 AM,46,10,8,41,223
Herz Playground Clubhouse,7366075405665591286,restroom,0,0,0,0,37.71394326427549,-122.41637790217736,1701 Visitacion Ave,San Francisco,CA,94134,Herz Playground,publicly_accessible,08:00:00,20:00:00,Daily,,rec,POINT (-122.416377902 37.713943264),10,McLaren Park,2024/08/13 04:58:33 PM,2024/10/10 10:40:59 AM,73,9,9,19,15
Moscone Rec Center,4678029647536132904,restroom,0,0,0,0,37.801484546132755,-122.43318577042552,1800 Chestnut St,San Francisco,CA,94123,Moscone Rec Center,publicly_accessible,08:00:00,20:00:00,Daily,,rec,POINT (-122.43318577 37.801484546),2,Marina,2024/08/13 05:16:30 PM,2024/10/10 10:40:59 AM,17,4,6,13,135
Mendell Plaza,1583894823483341905,drinking_water,0,1,1,0,37.734648,-122.390524,1425 Mendell St,San Francisco,CA,94124,,publicly_accessible,,,Daily,,puc,POINT (-122.390524 37.734648),10,Bayview Hunters Point,2024/06/27 01:43:12 PM,2024/10/10 10:40:59 AM,86,2,9,1,
Golden Gate Park - Section 6 - Drinking Fountain/Cooler,2279428380184152431,drinking_water,1,1,0,0,37.766804140000005,-122.50818661,Golden Gate Park,San Francisco,CA,94132,Golden Gate Park - Section 6,publicly_accessible,08:00:00,20:00:00,Daily,,rec,POINT (-122.508186612 37.766804143),4,Golden Gate Park,2024/07/23 12:28:50 PM,2024/10/10 10:40:59 AM,9,8,4,12,234
Alta Plaza Park - Drinking Fountain/Cooler,3702859510335813216,drinking_water,1,0,0,0,37.79123999,-122.43819734,2501 Jackson St,San Francisco,CA,94115,Alta Plaza Park,publicly_accessible,08:00:00,20:00:00,Daily,,rec,POINT (-122.438197344 37.791239987),2,Pacific Heights,2024/07/23 12:28:50 PM,2024/10/10 10:40:59 AM,102,4,6,30,149
Hilltop Park,5266853380894405697,drinking_water,0,1,1,0,37.73328,-122.38366,45 Progress St,San Francisco,CA,94124,,publicly_accessible,,,Daily,,puc,POINT (-122.38366 37.73328),10,Bayview Hunters Point,2024/06/27 01:43:12 PM,2024/10/10 10:40:59 AM,86,2,9,1,
Golden Gate Park - Section 5 - Drinking Fountain/Cooler,9080728227449818557,drinking_water,1,0,0,0,37.77055697,-122.48014119,Golden Gate Park,San Francisco,CA,94122,Golden Gate Park - Section 5,publicly_accessible,08:00:00,20:00:00,Daily,,rec,POINT (-122.480141186 37.770556975),1,Golden Gate Park,2024/07/23 12:28:50 PM,2024/10/10 10:40:59 AM,9,8,4,12,232
Garfield Path Drinking Fountain,2067076247063779095,drinking_water,1,1,0,0,37.75012374000001,-122.41247426000001,,San Francisco,CA,,Garfield Square,publicly_accessible,08:00:00,20:00:00,Daily,,rec,POINT (-122.412474261 37.750123743),9,Mission,2024/07/23 12:28:50 PM,2024/10/10 10:40:59 AM,53,3,2,20,165
Main Library,1845349341306362846,drinking_water,1,0,0,0,37.779081776000055,-122.41615205,100 Larkin St,San Francisco,CA,94102,,limited_access,,,Daily,"opening_hours = [""Sunday:12:00-18:00"",""Monday:09:00-18:00"",""Tuesday:09:00-20:00"",""Wednesday:09:00-20:00"",""Thursday:09:00-20:00"",""Friday:12:00-18:00"",""Saturday:10:00-18:00"",""Total Weekly Hours:62""]",library,POINT (-122.41615205 37.779081776),5,Tenderloin,2024/10/10 10:24:00 AM,2024/10/10 10:40:59 AM,21,5,10,36,
Outer Sunset Pit Stop - Judah and La Playa streets (Rec Park),6773564667651549547,restroom,0,0,0,0,37.7603081,-122.5091618,Judah and La Playa streets (Rec Park),San Francisco,CA,,,publicly_accessible,,,,,pit_stop,POINT (-122.5091618 37.7603081),4,Sunset/Parkside,2024/10/10 10:39:51 AM,2024/10/10 10:40:59 AM,39,10,7,35,
Duboce Park - Drinking Fountain/Cooler,8941845549837929355,drinking_water,1,1,0,0,37.769413269999994,-122.43349092000001,50 Scott St,San Francisco,CA,94117,Duboce Park,publicly_accessible,08:00:00,20:00:00,Daily,,rec,POINT (-122.433490923 37.769413267),8,Haight Ashbury,2024/07/23 12:28:50 PM,2024/10/10 10:40:59 AM,28,7,5,3,159
Golden Gate Park - Section 4 - Drinking Fountain/Cooler,3269707223120980721,drinking_water,1,0,0,0,37.77201682,-122.47114772,501 Stanyan St,San Francisco,CA,94118,Golden Gate Park - Section 4,publicly_accessible,08:00:00,20:00:00,Daily,,rec,POINT (-122.471147723 37.772016818),1,Golden Gate Park,2024/07/23 12:28:50 PM,2024/10/10 10:40:59 AM,9,8,4,12,232
Golden Gate Park - Section 1 - Drinking Fountain/Cooler,5639541939548623490,drinking_water,1,0,0,0,37.76699113,-122.45332948,501 Stanyan St,San Francisco,CA,94117,Golden Gate Park - Section 1,limited_access,08:00:00,20:00:00,Daily,,rec,POINT (-122.453329484 37.766991134),5,Golden Gate Park,2024/07/23 12:28:50 PM,2024/10/10 10:40:59 AM,9,7,11,12,229
Portsmouth Square - Drinking Fountain/Cooler,4984182183816938138,drinking_water,1,0,0,0,37.79508448,-122.40538466,745 Kearny St,San Francisco,CA,94108,Portsmouth Square,publicly_accessible,08:00:00,20:00:00,Daily,,rec,POINT (-122.40538466 37.795084477),3,Chinatown,2024/07/23 12:28:50 PM,2024/10/10 10:40:59 AM,104,6,3,6,127
Restrooms,9096184556236417838,restroom,0,0,0,0,37.751489051685674,-122.43921687699716,780 Douglass St,San Francisco,CA,94114,Noe Valley Courts,publicly_accessible,08:00:00,20:00:00,Daily,,rec,POINT (-122.439216877 37.751489052),8,Noe Valley,2024/08/13 04:58:33 PM,2024/10/10 10:40:59 AM,51,3,5,22,132
Marina Green East Restroom,2159070112314827563,restroom,0,0,0,0,37.80648339185096,-122.43453399335982,1 Marina Green Dr,San Francisco,CA,94123,Yacht Harbor and Marina Green,publicly_accessible,08:00:00,20:00:00,Daily,,rec,POINT (-122.434533993 37.806483392),2,Marina,2024/08/13 04:58:33 PM,2024/10/10 10:40:59 AM,17,4,6,13,90
Corona Heights Park - Drinking Fountain/Cooler,832500137318315438,drinking_water,1,0,0,0,37.76530769,-122.44027742,122 States St,San Francisco,CA,94114,Corona Heights Park,publicly_accessible,08:00:00,20:00:00,Daily,,rec,POINT (-122.44027742 37.765307694),8,Castro/Upper Market,2024/07/23 12:28:50 PM,2024/10/10 10:40:59 AM,113,7,5,5,202
Drinking fountain,4236494391971030314,drinking_water,1,1,0,0,37.770929679999995,-122.47696559,,San Francisco,CA,,Golden Gate Park - Section 4,publicly_accessible,08:00:00,20:00:00,Daily,,rec,POINT (-122.476965586 37.770929679),7,Golden Gate Park,2024/09/11 02:38:36 PM,2024/10/10 10:40:59 AM,9,8,4,12,232
South Beach Harbor,5535662967239792186,drinking_water,1,1,0,1,37.7803467,-122.3877,Pier 40A The Embarcadero,San Francisco,CA,94107,,publicly_accessible,,,Daily,Outside of playground,port,POINT (-122.3877 37.7803467),6,Mission Bay,2024/10/04 01:51:23 PM,2024/10/10 10:40:59 AM,31,1,10,4,
Midtown Terrace Clubhouse,2914129059992107756,restroom,0,0,0,0,37.75167265818647,-122.45588190223849,210 Olympia Way,San Francisco,CA,94131,Midtown Terrace Playground,publicly_accessible,08:00:00,20:00:00,Daily,,rec,POINT (-122.455881902 37.751672658),7,Twin Peaks,2024/08/13 04:58:33 PM,2024/10/10 10:40:59 AM,48,7,8,38,61
Midtown Terrace Playground - Drinking Fountain/Cooler,1362769676768370106,drinking_water,1,0,0,0,37.75167229,-122.45583377999999,210 Olympia Way,San Francisco,CA,94131,Midtown Terrace Playground,publicly_accessible,08:00:00,20:00:00,Daily,,rec,POINT (-122.455833784 37.751672289),7,Twin Peaks,2024/07/23 12:28:50 PM,2024/10/10 10:40:59 AM,48,7,8,38,61
Victoria Manalo Draves Park - Drinking Fountain/Cooler,5703939655902583772,drinking_water,1,0,0,0,37.77712696,-122.40618904,55 Sherman St,San Francisco,CA,94103,Victoria Manalo Draves Park,publicly_accessible,08:00:00,20:00:00,Daily,,rec,POINT (-122.406189044 37.777126965),6,South of Market,2024/07/23 12:28:50 PM,2024/10/10 10:40:59 AM,32,1,10,34,98
Visitacion Valley Clubhouse,8478441797534942604,restroom,0,0,0,0,37.71274482391884,-122.40868229341584,251 Leland Ave,San Francisco,CA,94134,Yik Oi Huang Peace & Friendship Park Picnic Area,publicly_accessible,08:00:00,20:00:00,Daily,,rec,POINT (-122.408682293 37.712744824),10,Visitacion Valley,2024/08/13 04:58:33 PM,2024/10/10 10:40:59 AM,75,9,9,40,97
Kezar Turf Drinking fountain,5634927668403505525,drinking_water,1,1,0,0,37.767234820000006,-122.45515061,,San Francisco,CA,,Golden Gate Park - Section 1,publicly_accessible,08:00:00,20:00:00,Daily,,rec,POINT (-122.455150612 37.767234818),5,Golden Gate Park,2024/07/23 12:28:50 PM,2024/10/10 10:40:59 AM,9,7,11,12,229
West Sunset Playground - Drinking Fountain/Cooler,6764740627358824885,drinking_water,1,0,0,0,37.7508196,-122.49832208,3223 Ortega St,San Francisco,CA,94116,West Sunset Playground,publicly_accessible,08:00:00,20:00:00,Daily,,rec,POINT (-122.49832208 37.750819597),4,Sunset/Parkside,2024/07/23 12:28:50 PM,2024/10/10 10:40:59 AM,39,10,7,35,93
McCoppin Square Clubhouse,341541798497557024,restroom,0,0,0,0,37.743551594363424,-122.48070841032101,2354 24th Ave,San Francisco,CA,94116,McCoppin Square,publicly_accessible,08:00:00,20:00:00,Daily,,rec,POINT (-122.48070841 37.743551594),4,Sunset/Parkside,2024/08/13 04:58:33 PM,2024/10/10 10:40:59 AM,40,10,7,35,139
Mission Bay Library,8224817024566265679,drinking_water,1,0,0,0,37.775369728000044,-122.39309738399999,960 04th St,San Francisco,CA,94158,,limited_access,,,Daily,"opening_hours = [""Sunday:13:00-17:00"",""Monday:10:00-18:00"",""Tuesday:10:00-18:00"",""Wednesday:11:00-20:00"",""Thursday:10:00-18:00"",""Friday:13:00-18:00"",""Saturday:10:00-18:00"",""Total Weekly Hours:50""]",library,POINT (-122.393097384 37.775369728),6,Mission Bay,2024/10/10 10:24:00 AM,2024/10/10 10:40:59 AM,34,1,10,4,
Mission Rec Center,7286495612961491893,restroom,0,0,0,0,37.758220490065916,-122.4127976783385,2450 Harrison St,San Francisco,CA,94110,Mission Rec Center,publicly_accessible,08:00:00,20:00:00,Daily,,rec,POINT (-122.412797678 37.75822049),9,Mission,2024/08/13 05:16:30 PM,2024/10/10 10:40:59 AM,53,3,2,20,215
Hayes Valley Playground - Drinking Fountain/Cooler,2542937055757276401,drinking_water,1,0,0,0,37.77606955,-122.42741294000001,689 Hayes St,San Francisco,CA,94102,Hayes Valley Playground,publicly_accessible,08:00:00,20:00:00,Daily,,rec,POINT (-122.427412942 37.776069548),5,Hayes Valley,2024/07/23 12:28:50 PM,2024/10/10 10:40:59 AM,22,4,11,9,174
Jackson Clubhouse,5798803553978306037,restroom,0,0,0,0,37.76388493563468,-122.39892775694433,1645 17th St,San Francisco,CA,94107,Jackson Playground,publicly_accessible,08:00:00,20:00:00,Daily,,rec,POINT (-122.398927757 37.763884936),10,Potrero Hill,2024/08/13 04:58:33 PM,2024/10/10 10:40:59 AM,54,1,9,26,179
Parque Ninos Unidos Clubhouse,423313379263490907,restroom,0,0,0,0,37.754352377295625,-122.41391608902443,3070 23rd St,San Francisco,CA,94110,Parque Ninos Unidos,publicly_accessible,08:00:00,20:00:00,Daily,,rec,POINT (-122.413916089 37.754352377),9,Mission,2024/08/13 04:58:33 PM,2024/10/10 10:40:59 AM,53,3,2,20,
Civic Center Pit Stop - Grove and Larkin streets (JCDecaux),400838196920771509,restroom,0,0,0,0,37.7787317,-122.4169278,Grove and Larkin streets (JCDecaux),San Francisco,CA,,,publicly_accessible,,,,,pit_stop,POINT (-122.4169278 37.7787317),5,Tenderloin,2024/10/10 10:39:51 AM,2024/10/10 10:40:59 AM,21,4,10,36,
Gleneagles Golf Course Clubhouse,6584855746954938973,restroom,0,0,0,0,37.71599531472845,-122.42456403444783,,San Francisco,CA,94134,John McLaren Park,publicly_accessible,08:00:00,20:00:00,Daily,,rec,POINT (-122.424564034 37.715995315),10,McLaren Park,2024/08/21 02:15:01 PM,2024/10/10 10:40:59 AM,73,9,9,19,7
SoMa Pit Stop - Victoria Manalo Draves Park (Rec Park),3769861877417491906,restroom,0,0,0,0,37.7767602,-122.4060242,Victoria Manalo Draves Park (Rec Park),San Francisco,CA,,Victoria Manalo Draves Park,limited_access,,,,,pit_stop,POINT (-122.4060242 37.7767602),6,South of Market,2024/10/10 10:39:51 AM,2024/10/10 10:40:59 AM,32,1,10,34,98
Crocker Amazon Playground - Drinking Fountain/Cooler,8984256812290899820,drinking_water,1,1,0,0,37.712722639999996,-122.42731925,799 Moscow St,San Francisco,CA,94134,Crocker Amazon Playground,publicly_accessible,08:00:00,20:00:00,Daily,,rec,POINT (-122.427319247 37.712722638),11,Excelsior,2024/07/23 12:28:50 PM,2024/10/10 10:40:59 AM,58,9,1,7,158
Alice Chalmers Playground - Alice Chalmers Path Drinking Fountain,1941840163441050760,drinking_water,1,1,0,0,37.70959876,-122.44705579000001,670 Brunswick St,San Francisco,CA,94112,Alice Chalmers Playground,publicly_accessible,08:00:00,20:00:00,Daily,,rec,POINT (-122.44705579 37.709598762),11,Excelsior,2024/10/01 05:13:37 PM,2024/10/10 10:40:59 AM,58,9,1,7,68
Cayuga Clubhouse,3958142903091328013,restroom,0,0,0,0,37.71434069987213,-122.44983895970809,301 Naglee Ave,San Francisco,CA,94112,Cayuga Playground,publicly_accessible,08:00:00,20:00:00,Daily,,rec,POINT (-122.44983896 37.7143407),11,Outer Mission,2024/08/13 04:58:33 PM,2024/10/10 10:40:59 AM,66,9,1,28,205
Ingleside Branch,4343473954297379462,drinking_water,1,0,0,0,37.72405708700006,-122.45626482999995,1298 Ocean Ave,San Francisco,CA,94112,Ingleside Branch Library,limited_access,,,Daily,"opening_hours = [""Sunday:13:00-17:00"",""Monday:10:00-18:00"",""Tuesday:10:00-18:00"",""Wednesday:10:00-20:00"",""Thursday:12:00-19:00"",""Friday:13:00-18:00"",""Saturday:10:00-18:00"",""Total Weekly Hours:50""]",library,POINT (-122.45626483 37.724057087),7,West of Twin Peaks,2024/10/10 10:24:00 AM,2024/10/10 10:40:59 AM,71,9,8,41,
Beach Chalet,755820951004372731,restroom,0,0,0,0,37.76959000789354,-122.51011435778473,501 Stanyan St,San Francisco,CA,94121,Golden Gate Park - Section 6,limited_access,08:00:00,20:00:00,Daily,,rec,POINT (-122.510114358 37.769590008),4,Golden Gate Park,2024/08/21 02:15:01 PM,2024/10/10 10:40:59 AM,9,8,4,12,234
Francisco Path Drinking Fountain,2300123082387260656,drinking_water,1,0,0,0,37.80361475,-122.42127042,,San Francisco,CA,,Francisco Park,publicly_accessible,08:00:00,20:00:00,Daily,,rec,POINT (-122.42127042 37.803614755),2,Russian Hill,2024/07/23 12:28:50 PM,2024/10/10 10:40:59 AM,107,6,6,32,193
Washington Square Restrooms,6250308910410204931,restroom,0,0,0,0,37.801064242552535,-122.41063428491249,600 Columbus Ave,San Francisco,CA,94133,Washington Square,publicly_accessible,08:00:00,20:00:00,Daily,,rec,POINT (-122.410634285 37.801064243),3,North Beach,2024/08/13 04:58:33 PM,2024/10/10 10:40:59 AM,106,6,3,23,94
Robin Williams Meadow Restroom,1139175886771992270,restroom,0,0,0,0,37.76820061034034,-122.45894632494796,501 Stanyan St,San Francisco,CA,94122,Golden Gate Park - Section 7,publicly_accessible,08:00:00,20:00:00,Daily,,rec,POINT (-122.458946325 37.76820061),7,Golden Gate Park,2024/08/21 02:15:01 PM,2024/10/10 10:40:59 AM,9,7,11,12,228
Beach Chalet Soccer South Path,5949666139755127776,drinking_water,1,0,0,0,37.76609576,-122.50844352,,San Francisco,CA,,Golden Gate Park - Section 6,publicly_accessible,08:00:00,20:00:00,Daily,,rec,POINT (-122.508443516 37.766095758),4,Golden Gate Park,2024/07/23 12:28:50 PM,2024/10/10 10:40:59 AM,9,8,4,12,234
Restrooms,7629794751538283355,restroom,0,0,0,0,37.79171974893089,-122.40509211818922,633 California St,San Francisco,CA,94108,St. Mary's Square,publicly_accessible,08:00:00,20:00:00,Daily,,rec,POINT (-122.405092118 37.791719749),3,Financial District/South Beach,2024/08/13 04:58:33 PM,2024/10/10 10:40:59 AM,104,6,3,8,108
Stanyan Kiosk,7899757755738897929,restroom,0,0,0,0,37.769905471421275,-122.45428183846612,501 Stanyan St,San Francisco,CA,94117,Golden Gate Park - Section 1,limited_access,08:00:00,20:00:00,Daily,,rec,POINT (-122.454281838 37.769905471),5,Golden Gate Park,2024/08/21 02:15:01 PM,2024/10/10 10:40:59 AM,9,7,11,12,229
Bernal Heights Path Drinking Fountain,8198355778702993225,drinking_water,1,1,0,0,37.741981700000004,-122.41632774,,San Francisco,CA,,,publicly_accessible,08:00:00,20:00:00,Daily,,rec,POINT (-122.416327735 37.7419817),9,Bernal Heights,2024/07/23 12:28:50 PM,2024/10/10 10:40:59 AM,83,9,2,2,
McLaren Bike Muni Restroom,6153008481896635412,restroom,0,0,0,0,37.71408971379147,-122.42331647505156,,San Francisco,CA,94134,John McLaren Park,publicly_accessible,08:00:00,20:00:00,Daily,,rec,POINT (-122.423316475 37.714089714),10,McLaren Park,2024/08/21 02:15:01 PM,2024/10/10 10:40:59 AM,73,9,9,19,
"Mid-Market Pit Stop - Market Street, between Hyde and 7th streets",5961780263829161949,restroom,0,0,0,0,37.7797652,-122.4136255,"Market Street, between Hyde and 7th streets",San Francisco,CA,,,publicly_accessible,,,,,pit_stop,POINT (-122.4136255 37.7797652),5,Tenderloin,2024/10/10 10:39:51 AM,2024/10/10 10:40:59 AM,21,5,10,36,
Tenderloin Pit Stop - 701 Ellis St. (at Larkin),6956680928895690187,restroom,0,0,0,0,37.7842471,-122.4177342,701 Ellis St. (at Larkin),San Francisco,CA,,,publicly_accessible,,,,,pit_stop,POINT (-122.4177342 37.7842471),5,Tenderloin,2024/10/10 10:39:51 AM,2024/10/10 10:40:59 AM,20,5,10,36,
Mission Clubhouse,490680770581918428,restroom,0,0,0,0,37.75940474502767,-122.42242458308023,3555 19th St,San Francisco,CA,94110,Mission Playground,publicly_accessible,08:00:00,20:00:00,Daily,,rec,POINT (-122.422424583 37.759404745),9,Mission,2024/08/13 04:58:33 PM,2024/10/10 10:40:59 AM,37,3,5,20,214
India Basin Park,6500487953611878416,drinking_water,1,1,0,1,37.735292,-122.376172,"San Francisco Bay Trail, India Basin",San Francisco,CA,94124,,publicly_accessible,,,Daily,,port,POINT (-122.376172 37.735292),10,Bayview Hunters Point,2024/10/04 01:51:23 PM,2024/10/10 10:40:59 AM,76,2,9,1,
Kezar Turf Drinking fountain,5820177870304763291,drinking_water,1,0,0,0,37.76616713,-122.45630314,,San Francisco,CA,,Golden Gate Park - Section 1,publicly_accessible,08:00:00,20:00:00,Daily,,rec,POINT (-122.456303136 37.766167127),5,Golden Gate Park,2024/07/23 12:28:50 PM,2024/10/10 10:40:59 AM,9,7,11,12,229
Pier 40,4462729660452543366,restroom,0,0,0,0,37.811076,-122.410559,2 Beach st,San Francisco,CA,94133,,publicly_accessible,07:00:00,22:00:00,Daily,Level 1 by Players Sports Grill & Arcade,port,POINT (-122.410559 37.811076),3,North Beach,2024/10/04 01:51:23 PM,2024/10/10 10:40:59 AM,99,6,3,23,
Douglass Dog Play Area Drinking Fountain,207857814651967646,drinking_water,1,0,0,0,37.746956389999994,-122.43891312000001,,San Francisco,CA,,Douglass Playground,publicly_accessible,08:00:00,20:00:00,Daily,,rec,POINT (-122.438913123 37.746956392),8,Noe Valley,2024/07/23 12:28:50 PM,2024/10/10 10:40:59 AM,57,3,5,22,206
Restroom,5493916297522311485,restroom,0,0,0,0,37.77677036001743,-122.406057796802,55 Sherman St,San Francisco,CA,94103,Victoria Manalo Draves Park,publicly_accessible,08:00:00,20:00:00,Daily,,rec,POINT (-122.406057797 37.77677036),6,South of Market,2024/08/13 04:58:33 PM,2024/10/10 10:40:59 AM,32,1,10,34,98
Joe DiMaggio Clubhouse/Pool,3522461969507678659,restroom,0,0,0,0,37.8027666216579,-122.41217825887537,651 Lombard Street,San Francisco,CA,94133,Joe DiMaggio Playground,publicly_accessible,08:00:00,20:00:00,Daily,,rec,POINT (-122.412178259 37.802766622),3,North Beach,2024/08/13 04:58:33 PM,2024/10/10 10:40:59 AM,106,6,3,23,195
Japanese Tea Garden Female Restroom,1976174855844772049,restroom,0,0,0,0,37.770480053368324,-122.46945822510776,501 Stanyan St,San Francisco,CA,94118,Golden Gate Park - Section 2,publicly_accessible,08:00:00,20:00:00,Daily,,rec,POINT (-122.469458225 37.770480053),7,Golden Gate Park,2024/08/21 02:15:01 PM,2024/10/10 10:40:59 AM,9,8,4,12,235
Drinking Fountain/Cooler,2181557672935071184,drinking_water,1,1,0,0,37.7853789,-122.41809576,,San Francisco,CA,,Sgt. John Macaulay Park,publicly_accessible,08:00:00,20:00:00,Daily,,rec,POINT (-122.418095763 37.785378904),5,Tenderloin,2024/07/23 12:28:50 PM,2024/10/10 10:40:59 AM,20,5,10,36,113
Bike Park Bottle Filling station,2473605560043874638,drinking_water,1,1,0,0,37.71402182,-122.42315072000001,,San Francisco,CA,,John McLaren Park,publicly_accessible,08:00:00,20:00:00,Daily,,rec,POINT (-122.423150721 37.714021818),10,McLaren Park,2024/07/23 12:28:50 PM,2024/10/10 10:40:59 AM,73,9,9,19,
Sunnyside Playground - Drinking Fountain/Cooler,8708239296404196705,drinking_water,1,0,0,0,37.73385632,-122.44819921999999,233 Melrose Avenue,San Francisco,CA,94127,Sunnyside Playground,publicly_accessible,08:00:00,20:00:00,Daily,,rec,POINT (-122.448199217 37.733856318),7,West of Twin Peaks,2024/07/23 12:28:50 PM,2024/10/10 10:40:59 AM,95,9,8,41,222
Garfield Children's Play Area Path,3998837800270607760,drinking_water,1,0,0,0,37.76460911,-122.40948568,,San Francisco,CA,,Franklin Square,publicly_accessible,08:00:00,20:00:00,Daily,,rec,POINT (-122.409485685 37.764609108),9,Mission,2024/07/23 12:28:50 PM,2024/10/10 10:40:59 AM,53,3,9,20,164
3rd and Clement,2353041988599802789,drinking_water,0,1,0,0,37.783196,-122.461368,208 Clement,San Francisco,CA,94118,,publicly_accessible,,,Daily,,puc,POINT (-122.461368 37.783196),1,Inner Richmond,2024/06/27 01:43:12 PM,2024/10/10 10:40:59 AM,5,8,4,11,
Guy Place Mini Park - Drinking Fountain/Cooler,5875877012001183846,drinking_water,1,0,0,0,37.78659459,-122.39431447,4 Guy Pl,San Francisco,CA,94105,Guy Place Mini Park,publicly_accessible,08:00:00,20:00:00,Daily,,rec,POINT (-122.394314468 37.786594589),6,Financial District/South Beach,2024/07/23 12:28:50 PM,2024/10/10 10:40:59 AM,30,1,10,8,192
Raymond Kimball Playground - Drinking Fountain/Cooler,1198985592842897228,drinking_water,1,1,0,0,37.78248803,-122.4355881,1901 Geary Blvd,San Francisco,CA,94115,Raymond Kimball Playground,publicly_accessible,08:00:00,20:00:00,Daily,,rec,POINT (-122.435588101 37.782488028),5,Western Addition,2024/07/23 12:28:50 PM,2024/10/10 10:40:59 AM,97,4,11,39,123
Haight Pit Stop - Buena Vista Avenue East & Haight Street,6328566929400096264,restroom,0,0,0,0,37.7708518,-122.4403874,Buena Vista Avenue East & Haight Street,San Francisco,CA,,,publicly_accessible,,,,,pit_stop,POINT (-122.4403874 37.7708518),5,Haight Ashbury,2024/10/10 10:39:51 AM,2024/10/10 10:40:59 AM,112,7,11,3,
Portsmouth Square Clubhouse,5076840125778629956,restroom,0,0,0,0,37.79502053126163,-122.40533899196147,745 Kearny St,San Francisco,CA,94108,Portsmouth Square,publicly_accessible,08:00:00,20:00:00,Daily,,rec,POINT (-122.405338992 37.795020531),3,Chinatown,2024/08/13 04:58:33 PM,2024/10/10 10:40:59 AM,104,6,3,6,127
Betty Ann Ong Chinese Rec Center - Drinking Fountain/Cooler,7607359615276799515,drinking_water,1,0,0,0,37.794290800000006,-122.41169429000001,1101 Washington St,San Francisco,CA,94108,Betty Ann Ong Chinese Rec Center,publicly_accessible,08:00:00,20:00:00,Daily,,rec,POINT (-122.411694294 37.794290801),3,Nob Hill,2024/07/23 12:28:50 PM,2024/10/10 10:40:59 AM,16,6,3,21,155
Excelsior Branch Library,1134166097749066913,drinking_water,1,0,0,0,37.72713052100005,-122.43331540999998,4400 Mission St,San Francisco,CA,94112,,limited_access,,,Daily,"opening_hours = [""Sunday:13:00-17:00"",""Monday:13:00-18:00"",""Tuesday:10:00-20:00"",""Wednesday:10:00-20:00"",""Thursday:10:00-18:00"",""Friday:13:00-18:00"",""Saturday:10:00-18:00"",""Total Weekly Hours:50""]",library,POINT (-122.43331541 37.727130521),11,Outer Mission,2024/10/10 10:24:00 AM,2024/10/10 10:40:59 AM,94,9,1,28,
Restrooms,1702410236468952087,restroom,0,0,0,0,37.73620116438634,-122.4782232264926,2899 19th Ave,San Francisco,CA,94132,Sigmund Stern Recreation Grove,publicly_accessible,08:00:00,20:00:00,Daily,,rec,POINT (-122.478223226 37.736201164),4,Sunset/Parkside,2024/08/13 04:58:33 PM,2024/10/10 10:40:59 AM,40,10,7,35,112
Gene Friend Rec Center,3955966375932038830,restroom,0,0,0,0,37.77878684551738,-122.40633918397188,270 6th St,San Francisco,CA,94103,Eugene Friend Rec Center,publicly_accessible,08:00:00,20:00:00,Daily,,rec,POINT (-122.406339184 37.778786846),6,South of Market,2024/08/13 05:16:30 PM,2024/10/10 10:40:59 AM,32,1,10,34,166
Harvey Milk Recreational Arts Bldg,3179317602354845196,restroom,0,0,0,0,37.769579237561544,-122.43457746937769,50 Scott St,San Francisco,CA,94117,Duboce Park,publicly_accessible,08:00:00,20:00:00,Daily,,rec,POINT (-122.434577469 37.769579238),8,Haight Ashbury,2024/08/13 05:11:19 PM,2024/10/10 10:40:59 AM,28,7,5,3,159
Restroom,7640662122747861266,restroom,0,0,0,0,37.746283168602446,-122.43968177852058,1098 Douglass St,San Francisco,CA,94131,Douglass Playground,publicly_accessible,08:00:00,20:00:00,Daily,,rec,POINT (-122.439681779 37.746283169),8,Noe Valley,2024/08/13 04:58:33 PM,2024/10/10 10:40:59 AM,57,3,5,22,206
Martin Luther King Jr Pool,8462497620449821810,restroom,0,0,0,0,37.72539339194417,-122.39337823570945,5701 3rd St,San Francisco,CA,94124,Bayview K.C. Jones Playground,publicly_accessible,08:00:00,20:00:00,Daily,,rec,POINT (-122.393378236 37.725393392),10,Bayview Hunters Point,2024/08/20 06:25:03 PM,2024/10/10 10:40:59 AM,86,2,9,1,77
Restrooms,6586654064421355590,restroom,0,0,0,0,37.80129138272988,-122.41678430772167,1055 Greenwich St,San Francisco,CA,94133,Michelangelo Playground,publicly_accessible,08:00:00,20:00:00,Daily,,rec,POINT (-122.416784308 37.801291383),3,Russian Hill,2024/08/13 04:58:33 PM,2024/10/10 10:40:59 AM,107,6,6,32,137
Angelo J. Rossi Playground - Drinking Fountain/Cooler,1506469300865846451,drinking_water,1,0,0,0,37.777996890000004,-122.45769443,600 Arguello Blvd,San Francisco,CA,94118,Angelo J. Rossi Playground,publicly_accessible,08:00:00,20:00:00,Daily,,rec,POINT (-122.457694432 37.777996888),1,Lone Mountain/USF,2024/07/23 12:28:50 PM,2024/10/10 10:40:59 AM,12,8,4,18,204
Kezar Pavilion,4761528511872076776,restroom,0,0,0,0,37.76745061878301,-122.45405121776848,501 Stanyan St,San Francisco,CA,94117,Golden Gate Park - Section 1,publicly_accessible,08:00:00,20:00:00,Daily,,rec,POINT (-122.454051218 37.767450619),5,Golden Gate Park,2024/08/21 02:15:01 PM,2024/10/10 10:40:59 AM,9,7,11,12,229
Miraloma Playground Clubhouse,7139414283949802640,restroom,0,0,0,0,37.739129517709415,-122.44952483192755,25 Omar Way,San Francisco,CA,94127,Miraloma Playground,publicly_accessible,08:00:00,20:00:00,Daily,,rec,POINT (-122.449524832 37.739129518),7,West of Twin Peaks,2024/08/13 04:58:33 PM,2024/10/10 10:40:59 AM,72,9,8,41,136
Golden Gate Valley Branch Library,6026358941900616187,drinking_water,1,0,0,0,37.796788830000025,-122.429023471,1801 Green St,San Francisco,CA,94123,,limited_access,,,Daily,"opening_hours = [""Sunday:13:00-17:00"",""Monday:10:00-18:00"",""Tuesday:10:00-18:00"",""Wednesday:12:00-20:00"",""Thursday:12:00-20:00"",""Friday:13:00-18:00"",""Saturday:10:00-18:00"",""Total Weekly Hours:49""]",library,POINT (-122.429023471 37.79678883),2,Marina,2024/10/10 10:24:00 AM,2024/10/10 10:40:59 AM,102,4,6,13,
Sunnyside Playground Clubhouse,9055670515573099311,restroom,0,0,0,0,37.73377719959593,-122.44773858945291,233 Melrose Avenue,San Francisco,CA,94127,Sunnyside Playground,publicly_accessible,08:00:00,20:00:00,Daily,,rec,POINT (-122.447738589 37.7337772),7,West of Twin Peaks,2024/08/13 04:58:33 PM,2024/10/10 10:40:59 AM,95,9,8,41,222
Cottage Row Mini Park - Drinking Fountain/Cooler,4156230811836863111,drinking_water,1,0,0,0,37.78641126,-122.43227246,,San Francisco,CA,94115,Cottage Row Mini Park,publicly_accessible,08:00:00,20:00:00,Daily,,rec,POINT (-122.432272462 37.786411264),5,Pacific Heights,2024/07/23 12:28:50 PM,2024/10/10 10:40:59 AM,101,4,11,30,157
Sunset Branch Library,4394614105614042565,drinking_water,1,0,0,0,37.76334875500004,-122.47631075399994,1305 18th Ave,San Francisco,CA,94122,,limited_access,,,Daily,"opening_hours = [""Sunday:13:00-17:00"",""Monday:10:00-18:00"",""Tuesday:10:00-20:00"",""Wednesday:10:00-20:00"",""Thursday:10:00-20:00"",""Friday:13:00-18:00"",""Saturday:10:00-18:00"",""Total Weekly Hours:55""]",library,POINT (-122.476310754 37.763348755),7,Inner Sunset,2024/10/10 10:24:00 AM,2024/10/10 10:40:59 AM,109,10,7,14,
Mission Pit Stop - 3100 26th Street,8331964738456881686,restroom,0,0,0,0,37.749447,-122.4116183,3100 26th Street,San Francisco,CA,,,publicly_accessible,,,,,pit_stop,POINT (-122.4116183 37.749447),9,Mission,2024/10/10 10:39:51 AM,2024/10/10 10:40:59 AM,53,3,2,20,
In Chan KaJaal Path Drinking fountain,1639983664002212285,drinking_water,1,0,0,0,37.7640845,-122.41599351999999,,San Francisco,CA,,In Chan Kaajal Park,publicly_accessible,08:00:00,20:00:00,Daily,,rec,POINT (-122.415993525 37.764084497),9,Mission,2024/07/23 12:28:50 PM,2024/10/10 10:40:59 AM,53,3,2,20,203
Lower Great Highway Taraval Restrooms,271232090700619754,restroom,0,0,0,0,37.741426624578615,-122.50707979596514,,San Francisco,CA,94132,Lower Great Highway,publicly_accessible,08:00:00,20:00:00,Daily,,rec,POINT (-122.507079796 37.741426625),4,Sunset/Parkside,2024/08/21 02:15:01 PM,2024/10/10 10:40:59 AM,39,10,7,35,20
Telegraph Hill - Pioneer Park - Drinking Fountain/Cooler,2755329227337768798,drinking_water,1,0,0,0,37.80227023,-122.4059445,1 Telegraph Hill Blvd,San Francisco,CA,94133,Telegraph Hill - Pioneer Park,publicly_accessible,08:00:00,20:00:00,Daily,,rec,POINT (-122.405944498 37.802270225),3,North Beach,2024/07/23 12:28:50 PM,2024/10/10 10:40:59 AM,18,6,3,23,227
Mission Dolores South Restrooms,6914552669529225689,restroom,0,0,0,0,37.75856332910622,-122.42641901416427,646 Dolores St,San Francisco,CA,94114,Mission Dolores Park,publicly_accessible,08:00:00,20:00:00,Daily,,rec,POINT (-122.426419014 37.758563329),8,Castro/Upper Market,2024/08/13 04:58:33 PM,2024/10/10 10:40:59 AM,37,3,5,5,213
Lafayette Park - Drinking Fountain/Cooler,9114764941840782925,drinking_water,1,0,0,0,37.79131419,-122.42861962,2101 Washington St,San Francisco,CA,94109,Lafayette Park,publicly_accessible,08:00:00,20:00:00,Daily,,rec,POINT (-122.428619617 37.791314191),2,Pacific Heights,2024/07/23 12:28:50 PM,2024/10/10 10:40:59 AM,102,4,6,30,212
Upper Noe Rec Center - Drinking Fountain/Cooler,5398316039961782918,drinking_water,1,0,0,0,37.74272962,-122.42702129000001,295 Day St,San Francisco,CA,94131,Upper Noe Rec Center,publicly_accessible,08:00:00,20:00:00,Daily,,rec,POINT (-122.427021289 37.742729619),8,Noe Valley,2024/07/23 12:28:50 PM,2024/10/10 10:40:59 AM,84,9,5,22,100
Mission Pit Stop - Julian Avenue & 15th Street,3416910908677214350,restroom,0,0,0,0,37.7665961,-122.4210799,Julian Avenue & 15th Street,San Francisco,CA,,,publicly_accessible,,,,,pit_stop,POINT (-122.4210799 37.7665961),9,Mission,2024/10/10 10:39:51 AM,2024/10/10 10:40:59 AM,53,3,2,20,
Louis Sutter Clubhouse,5639449430404933875,restroom,0,0,0,0,37.722389879019694,-122.41438687566155,599 Yale St,San Francisco,CA,94134,Louis Sutter Playground,publicly_accessible,08:00:00,20:00:00,Daily,,rec,POINT (-122.414386876 37.722389879),9,McLaren Park,2024/08/13 04:58:33 PM,2024/10/10 10:40:59 AM,73,2,2,19,10
Palega Playground - Drinking Fountain/Cooler,2092795445162135838,drinking_water,1,0,0,0,37.72928418,-122.40970258,500 Felton St,San Francisco,CA,94134,Palega Playground,publicly_accessible,08:00:00,20:00:00,Daily,,rec,POINT (-122.409702576 37.729284176),9,Portola,2024/07/23 12:28:50 PM,2024/10/10 10:40:59 AM,91,2,2,25,130
Tennis Center Bottle filling station,4860500797477902307,drinking_water,1,1,0,0,37.77022025,-122.45937144,,San Francisco,CA,,Golden Gate Park - Section 7,publicly_accessible,08:00:00,20:00:00,Daily,,rec,POINT (-122.459371443 37.770220251),7,Golden Gate Park,2024/07/23 12:28:50 PM,2024/10/10 10:40:59 AM,9,7,11,12,228
Parque Ninos Unidos - Drinking Fountain/Cooler,2160527675920625495,drinking_water,1,0,0,0,37.75439025,-122.41381917999999,3070 23rd St,San Francisco,CA,94110,Parque Ninos Unidos,limited_access,08:00:00,20:00:00,Daily,,rec,POINT (-122.413819177 37.754390249),9,Mission,2024/07/23 12:28:50 PM,2024/10/10 10:40:59 AM,53,3,2,20,129
Drinking Fountain/Cooler,9088182886381459811,drinking_water,1,0,0,0,37.76084189,-122.4275699,,San Francisco,CA,,Mission Dolores Park,publicly_accessible,08:00:00,20:00:00,Daily,,rec,POINT (-122.427569899 37.760841888),8,Castro/Upper Market,2024/07/23 12:28:50 PM,2024/10/10 10:40:59 AM,37,3,5,5,213
Drinking Fountain,3815081950366659407,drinking_water,1,0,0,0,37.74789866,-122.49752444,,San Francisco,CA,,West Sunset Playground,publicly_accessible,08:00:00,20:00:00,Daily,,rec,POINT (-122.49752444 37.747898656),4,Sunset/Parkside,2024/07/23 12:28:50 PM,2024/10/10 10:40:59 AM,39,10,7,35,93
Horseshoe Pits Restroom,659192472714749454,restroom,0,0,0,0,37.77375254047893,-122.45599542644344,501 Stanyan St,San Francisco,CA,94117,Golden Gate Park - Section 1,publicly_accessible,08:00:00,20:00:00,Daily,,rec,POINT (-122.455995426 37.77375254),1,Golden Gate Park,2024/08/21 02:15:01 PM,2024/10/10 10:40:59 AM,9,7,4,12,229
Sunset Rec Center - Drinking Fountain/Cooler,7470257632226086502,drinking_water,1,0,0,0,37.757126910000004,-122.48691579000001,2201 Lawton St,San Francisco,CA,94122,Sunset Rec Center,publicly_accessible,08:00:00,20:00:00,Daily,,rec,POINT (-122.486915795 37.757126913),4,Sunset/Parkside,2024/07/23 12:28:50 PM,2024/10/10 10:40:59 AM,39,10,7,35,105
Mothers Meadow Drinking fountain,6677586241877824613,drinking_water,1,1,0,0,37.766347870000004,-122.47663376,,San Francisco,CA,,Golden Gate Park - Section 4,publicly_accessible,08:00:00,20:00:00,Daily,,rec,POINT (-122.476633761 37.766347866),7,Golden Gate Park,2024/07/23 12:28:50 PM,2024/10/10 10:40:59 AM,9,8,4,12,232
Drinking Fountain/Cooler,3012718546509811385,drinking_water,1,1,0,0,37.72220333,-122.41308386,,San Francisco,CA,,Louis Sutter Playground,publicly_accessible,08:00:00,20:00:00,Daily,,rec,POINT (-122.41308386 37.722203325),9,McLaren Park,2024/07/23 12:28:50 PM,2024/10/10 10:40:59 AM,73,2,2,19,10
Lower Polk - Myrtle and Larkin streets (JCDecaux),7671891056194831451,restroom,0,0,0,0,37.7855716,-122.4180901,Myrtle and Larkin streets (JCDecaux),San Francisco,CA,,Sgt. John Macaulay Park,publicly_accessible,,,,,pit_stop,POINT (-122.4180901 37.7855716),5,Tenderloin,2024/10/10 10:39:51 AM,2024/10/10 10:40:59 AM,20,5,10,36,113
Alta Plaza Park - Drinking Fountain/Cooler,8567801137821416588,drinking_water,1,0,0,0,37.79118298,-122.43717434,2501 Jackson St,San Francisco,CA,94115,Alta Plaza Park,publicly_accessible,08:00:00,20:00:00,Daily,,rec,POINT (-122.437174342 37.791182982),2,Pacific Heights,2024/07/23 12:28:50 PM,2024/10/10 10:40:59 AM,102,4,6,30,149
Kezar Stadium,3662962683842392263,restroom,0,0,0,0,37.76671178167006,-122.45600547963194,501 Stanyan St,San Francisco,CA,94117,Golden Gate Park - Section 1,publicly_accessible,08:00:00,20:00:00,Daily,,rec,POINT (-122.45600548 37.766711782),5,Golden Gate Park,2024/08/21 02:15:01 PM,2024/10/10 10:40:59 AM,9,7,11,12,229
Restrooms,650686414796429012,restroom,0,0,0,0,37.76376981288262,-122.43858249636831,122 States St,San Francisco,CA,94114,States Street Playground,publicly_accessible,08:00:00,20:00:00,Daily,,rec,POINT (-122.438582496 37.763769813),8,Castro/Upper Market,2024/08/13 04:58:33 PM,2024/10/10 10:40:59 AM,113,7,5,5,107
Rossi Pool,4992873192328291991,restroom,0,0,0,0,37.77906456359353,-122.45837511234984,600 Arguello Blvd,San Francisco,CA,94118,Angelo J. Rossi Playground,publicly_accessible,08:00:00,20:00:00,Daily,,rec,POINT (-122.458375112 37.779064564),1,Lone Mountain/USF,2024/08/13 04:58:33 PM,2024/10/10 10:40:59 AM,12,8,4,18,204
Golden Gate Park - Section 1 - Drinking Fountain/Cooler,3665247128755086469,drinking_water,1,0,0,0,37.766333700000004,-122.45492153,501 Stanyan St,San Francisco,CA,94117,Golden Gate Park - Section 1,publicly_accessible,08:00:00,20:00:00,Daily,,rec,POINT (-122.454921529 37.766333702),5,Golden Gate Park,2024/07/23 12:28:50 PM,2024/10/10 10:40:59 AM,9,7,11,12,229
Palega Playground - Drinking Fountain/Cooler,931975547843248600,drinking_water,1,0,0,0,37.72905279,-122.41024196000001,500 Felton St,San Francisco,CA,94134,Palega Playground,publicly_accessible,08:00:00,20:00:00,Daily,,rec,POINT (-122.410241957 37.729052788),9,Portola,2024/07/23 12:28:50 PM,2024/10/10 10:40:59 AM,91,2,2,25,130
Mission Playground - Drinking Fountain/Cooler,5562224045497253564,drinking_water,1,0,0,0,37.759595020000006,-122.42274036,3555 19th St,San Francisco,CA,94110,Mission Playground,publicly_accessible,08:00:00,20:00:00,Daily,,rec,POINT (-122.422740363 37.759595022),9,Mission,2024/07/23 12:28:50 PM,2024/10/10 10:40:59 AM,37,3,5,20,214
Camp Mather - Drinking fountain,2526183219840087529,drinking_water,1,0,0,0,37.88353247,-119.85688926,32560 Mather Road,San Francisco,CA,95321,Camp Mather,publicly_accessible,08:00:00,20:00:00,Daily,,rec,POINT (-119.856897598 37.88353674),,,2024/08/19 09:47:28 AM,2024/10/10 10:40:59 AM,,,,,50
Garfield Pool,1317162167191443388,restroom,0,0,0,0,37.749976574885075,-122.41197072408409,3100 26th St,San Francisco,CA,94110,Garfield Square,publicly_accessible,08:00:00,20:00:00,Daily,,rec,POINT (-122.411970724 37.749976575),9,Mission,2024/08/20 06:25:03 PM,2024/10/10 10:40:59 AM,53,3,2,20,165
Lindley/Spdwy Drinking fountain,5641583082054792019,drinking_water,1,0,0,0,37.76936528,-122.49313418,,San Francisco,CA,,Golden Gate Park - Section 5,publicly_accessible,08:00:00,20:00:00,Daily,,rec,POINT (-122.493134177 37.769365279),4,Golden Gate Park,2024/07/23 12:28:50 PM,2024/10/10 10:40:59 AM,9,8,4,12,233
Marina Branch Library,7187167927732756918,drinking_water,1,0,0,0,37.801373632000036,-122.43413566499999,1890 Chestnut St,San Francisco,CA,94123,Moscone Rec Center,limited_access,,,Daily,"opening_hours = [""Sunday:13:00-17:00"",""Monday:10:00-18:00"",""Tuesday:10:00-18:00"",""Wednesday:13:00-20:00"",""Thursday:10:00-20:00"",""Friday:13:00-18:00"",""Saturday:10:00-18:00"",""Total Weekly Hours:50""]",library,POINT (-122.434135665 37.801373632),2,Marina,2024/10/10 10:24:00 AM,2024/10/10 10:40:59 AM,17,4,6,13,135
Ocean View Branch Library,1426602887386233589,drinking_water,1,0,0,0,37.71413776700007,-122.46597082599999,345 Randolph St,San Francisco,CA,94132,,limited_access,,,Daily,"opening_hours = [""Sunday:13:00-17:00"",""Monday:10:00-18:00"",""Tuesday:10:00-18:00"",""Wednesday:12:00-20:00"",""Thursday:10:00-19:00"",""Friday:13:00-18:00"",""Saturday:10:00-18:00"",""Total Weekly Hours:50""]",library,POINT (-122.465970826 37.714137767),11,Oceanview/Merced/Ingleside,2024/10/10 10:24:00 AM,2024/10/10 10:40:59 AM,65,10,1,24,
Willie Woo Woo Wong Playground - Drinking Fountain/Cooler,4719512120181333693,drinking_water,1,0,0,0,37.79362387,-122.40706236999999,850 Sacramento St,San Francisco,CA,94108,Willie Woo Woo Wong Playground,publicly_accessible,08:00:00,20:00:00,Daily,,rec,POINT (-122.407062369 37.793623871),3,Chinatown,2024/07/23 12:28:50 PM,2024/10/10 10:40:59 AM,104,6,3,6,92
Drinking Fountain,2610894573734021166,drinking_water,1,0,0,0,37.772121420000005,-122.44773409,,San Francisco,CA,,Golden Gate Park - Section 1,limited_access,08:00:00,20:00:00,Daily,,rec,POINT (-122.447734095 37.772121425),5,Golden Gate Park,2024/07/23 12:28:50 PM,2024/10/10 10:40:59 AM,24,7,11,12,229
Restrooms,1329247805289178642,restroom,0,0,0,0,37.71718343500864,-122.38878587677975,993 Gilman Ave,San Francisco,CA,94124,Gilman Playground,publicly_accessible,08:00:00,20:00:00,Daily,,rec,POINT (-122.388785877 37.717183435),10,Bayview Hunters Point,2024/09/05 08:57:17 AM,2024/10/10 10:40:59 AM,88,2,9,1,169
Anza Branch Library,7669133687822072481,drinking_water,1,0,0,0,37.77856950700004,-122.49725809499995,550 37th Ave,San Francisco,CA,94121,,limited_access,,,Daily,"opening_hours = [""Sunday:13:00-17:00"",""Monday:10:00-18:00"",""Tuesday:10:00-20:00"",""Wednesday:13:00-20:00"",""Thursday:10:00-18:00"",""Friday:13:00-18:00"",""Saturday:10:00-18:00"",""Total Weekly Hours:50""]",library,POINT (-122.497258095 37.778569507),1,Outer Richmond,2024/10/10 10:24:00 AM,2024/10/10 10:40:59 AM,8,8,4,29,
Cayuga Playground - Drinking Fountain/Cooler,3263474899544163524,drinking_water,1,0,0,0,37.71432704,-122.44986996,301 Naglee Ave,San Francisco,CA,94112,Cayuga Playground,publicly_accessible,08:00:00,20:00:00,Daily,,rec,POINT (-122.449869964 37.714327039),11,Outer Mission,2024/07/23 12:28:50 PM,2024/10/10 10:40:59 AM,66,9,1,28,205
Palega Playground - Drinking Fountain/Cooler,8565560003515972315,drinking_water,1,1,0,0,37.72937032,-122.40967734,500 Felton St,San Francisco,CA,94134,Palega Playground,publicly_accessible,08:00:00,20:00:00,Daily,,rec,POINT (-122.409677341 37.729370317),9,Portola,2024/07/23 12:28:50 PM,2024/10/10 10:40:59 AM,91,2,2,25,130
China Basin Park Water Fountain #3,5722591289261935719,drinking_water,1,1,0,1,37.776004,-122.388026,1 China Basin Park,San Francisco,CA,94107,,publicly_accessible,,,Daily,By dog park,port,POINT (-122.388026 37.776004),6,Mission Bay,2024/10/04 01:51:23 PM,2024/10/10 10:40:59 AM,34,1,10,4,
St. Mary's Square - Drinking Fountain/Cooler,6764874477716664054,drinking_water,1,0,0,0,37.79172529,-122.40516295,633 California St,San Francisco,CA,94108,St. Mary's Square,publicly_accessible,08:00:00,20:00:00,Daily,,rec,POINT (-122.40516295 37.791725291),3,Financial District/South Beach,2024/07/23 12:28:50 PM,2024/10/10 10:40:59 AM,104,6,3,8,108
Arriba Juntos,6602640275624901656,drinking_water,0,1,1,0,37.76735,-122.420036,1850 Mission St,San Francisco,CA,94103,,publicly_accessible,,,Daily,,puc,POINT (-122.420036 37.76735),9,Mission,2024/06/27 01:43:12 PM,2024/10/10 10:40:59 AM,53,3,2,20,
Drinking Fountain/Cooler,342731955891466352,drinking_water,1,1,0,0,37.78266862,-122.41594619,,San Francisco,CA,,Turk & Hyde Mini Park,publicly_accessible,08:00:00,20:00:00,Daily,,rec,POINT (-122.415946192 37.782668616),5,Tenderloin,2024/07/23 12:28:50 PM,2024/10/10 10:40:59 AM,20,5,10,36,101
Mission Dolores Park - Drinking Fountain/Cooler,5567630140702737764,drinking_water,1,0,0,1,37.75945603,-122.42710373,646 Dolores St,San Francisco,CA,94114,Mission Dolores Park,publicly_accessible,08:00:00,20:00:00,Daily,,rec,POINT (-122.427103727 37.759456031),8,Castro/Upper Market,2024/07/23 12:28:50 PM,2024/10/10 10:40:59 AM,37,3,5,5,213
Southeast Community Center Water Fountain,8220617072435247540,drinking_water,1,0,0,0,37.742691,-122.387441,1550 Evans Ave,San Francisco,CA,94124,,limited_access,07:00:00,19:00:00,Weekdays,,puc,POINT (-122.387441 37.742691),10,Bayview Hunters Point,2024/06/27 01:43:12 PM,2024/10/10 10:40:59 AM,76,2,9,1,
Blue Heron Lake Restrooms,7296636811837914405,restroom,0,0,0,0,37.770982133423345,-122.47687712949113,501 Stanyan St,San Francisco,CA,94118,Golden Gate Park - Section 4,publicly_accessible,08:00:00,20:00:00,Daily,,rec,POINT (-122.476877129 37.770982133),7,Golden Gate Park,2024/08/21 02:15:01 PM,2024/10/10 10:40:59 AM,9,8,4,12,232
Mission Creek Maintenance Bldg,4876547624839491143,restroom,0,0,0,0,37.77135493025545,-122.39873334886664,290 Channel St,San Francisco,CA,94158,Mission Creek Park,publicly_accessible,08:00:00,20:00:00,Daily,,rec,POINT (-122.398733349 37.77135493),6,Mission Bay,2024/08/13 04:58:33 PM,2024/10/10 10:40:59 AM,34,1,10,4,
Silver Tree Clubhouse,2487482746458383229,restroom,0,0,0,0,37.74066815988966,-122.44236800766512,70 Elk St,San Francisco,CA,94131,Glen Canyon Park,publicly_accessible,08:00:00,20:00:00,Daily,,rec,POINT (-122.442368008 37.74066816),8,Glen Park,2024/08/13 04:58:33 PM,2024/10/10 10:40:59 AM,96,9,5,10,239
Restrooms,349221179640314087,restroom,0,0,0,0,37.8035364588777,-122.42122885313788,2745 Larkin St,San Francisco,CA,94109,Francisco Park,publicly_accessible,08:00:00,20:00:00,Daily,,rec,POINT (-122.421228853 37.803536459),2,Russian Hill,2024/08/13 04:58:33 PM,2024/10/10 10:40:59 AM,107,6,6,32,193
John McLaren Park - Drinking Fountain/Cooler,2985206971512742309,drinking_water,1,0,0,0,37.71923962,-122.4128329,,San Francisco,CA,94134,John McLaren Park,publicly_accessible,08:00:00,20:00:00,Daily,,rec,POINT (-122.4128329 37.71923962),9,McLaren Park,2024/07/23 12:28:50 PM,2024/10/10 10:40:59 AM,73,9,2,19,7
Crocker Amazon Playground - Drinking Fountain/Cooler,2289321129029835654,drinking_water,1,0,0,0,37.714400729999994,-122.42886245999999,799 Moscow St,San Francisco,CA,94134,Crocker Amazon Playground,publicly_accessible,08:00:00,20:00:00,Daily,,rec,POINT (-122.428862464 37.714400733),11,Excelsior,2024/07/23 12:28:50 PM,2024/10/10 10:40:59 AM,58,9,1,7,158
Glen Canyon Park - Drinking Fountain/Cooler,5285142657961475424,drinking_water,1,0,0,1,37.73655267,-122.44078843000001,70 Elk St,San Francisco,CA,94131,Glen Canyon Park,publicly_accessible,08:00:00,20:00:00,Daily,,rec,POINT (-122.440788434 37.736552673),8,Glen Park,2024/07/23 12:28:50 PM,2024/10/10 10:40:59 AM,96,9,5,10,239
Ortega Branch Library,1845787657090241694,drinking_water,1,0,0,0,37.75122405800005,-122.49810319699998,3223 Ortega St,San Francisco,CA,94122,West Sunset Playground,limited_access,,,Daily,"opening_hours = [""Sunday:13:00-17:00"",""Monday:10:00-18:00"",""Tuesday:10:00-18:00"",""Wednesday:12:00-20:00"",""Thursday:11:00-20:00"",""Friday:13:00-18:00"",""Saturday:10:00-18:00"",""Total Weekly Hours:50""]",library,POINT (-122.498103197 37.751224058),4,Sunset/Parkside,2024/10/10 10:24:00 AM,2024/10/10 10:40:59 AM,39,10,7,35,93
Alice Chalmers Playground - Drinking Fountain/Cooler,7943212998836172716,drinking_water,1,0,0,0,37.70975592,-122.44678565000001,670 Brunswick St,San Francisco,CA,94112,Alice Chalmers Playground,publicly_accessible,08:00:00,20:00:00,Daily,,rec,POINT (-122.446785654 37.709755918),11,Excelsior,2024/07/23 12:28:50 PM,2024/10/10 10:40:59 AM,58,9,1,7,68
Jerry Garcia Parking Bottle filling station,7130395867181689427,drinking_water,1,1,0,0,37.7209238,-122.41692421,,San Francisco,CA,,John McLaren Park,publicly_accessible,08:00:00,20:00:00,Daily,,rec,POINT (-122.41692421 37.720923801),9,McLaren Park,2024/07/23 12:28:50 PM,2024/10/10 10:40:59 AM,73,9,2,19,7
Restrooms,2097687449800146040,restroom,0,0,0,0,37.79172382012726,-122.42815243343853,2101 Washington St,San Francisco,CA,94109,Lafayette Park,publicly_accessible,08:00:00,20:00:00,Daily,,rec,POINT (-122.428152433 37.79172382),2,Pacific Heights,2024/08/13 04:58:33 PM,2024/10/10 10:40:59 AM,102,4,6,30,212
Mission Dolores North Restrooms,6020738412176969080,restroom,0,0,0,0,37.76079354207481,-122.42768731036253,646 Dolores St,San Francisco,CA,94114,Mission Dolores Park,publicly_accessible,08:00:00,20:00:00,Daily,,rec,POINT (-122.42768731 37.760793542),8,Castro/Upper Market,2024/08/13 04:58:33 PM,2024/10/10 10:40:59 AM,37,3,5,5,213
Mother's Meadow Restroom - Male Restroom,6180309375448842345,restroom,0,0,0,0,37.76638470261748,-122.476697089109,,San Francisco,CA,94122,Golden Gate Park - Section 4,publicly_accessible,08:00:00,20:00:00,Daily,,rec,POINT (-122.476697089 37.766384703),7,Golden Gate Park,2024/08/21 02:15:01 PM,2024/10/10 10:40:59 AM,9,8,4,12,232
Beach Chalet Soccer Fields Restrooms,4047199765492045528,restroom,0,0,0,0,37.767267840268474,-122.50798559173633,501 Stanyan St,San Francisco,CA,94121,Golden Gate Park - Section 6,publicly_accessible,08:00:00,20:00:00,Daily,,rec,POINT (-122.507985592 37.76726784),4,Golden Gate Park,2024/08/21 02:15:01 PM,2024/10/10 10:40:59 AM,9,8,4,12,234
Parkside Branch Library,580239198389475256,drinking_water,1,0,0,0,37.74316235800006,-122.47934506399997,1200 Taraval St,San Francisco,CA,94116,,limited_access,,,Daily,"opening_hours = [""Sunday:13:00-17:00"",""Monday:13:00-18:00"",""Tuesday:10:00-20:00"",""Wednesday:11:00-20:00"",""Thursday:10:00-18:00"",""Friday:13:00-18:00"",""Saturday:10:00-18:00"",""Total Weekly Hours:49""]",library,POINT (-122.479345064 37.743162358),4,Sunset/Parkside,2024/10/10 10:24:00 AM,2024/10/10 10:40:59 AM,40,10,7,35,
Boat Children's Play Area Restroom,7770145530081648003,restroom,0,0,0,0,37.7644801806687,-122.50495827514384,501 Stanyan St,San Francisco,CA,94121,Golden Gate Park - Section 6,publicly_accessible,08:00:00,20:00:00,Daily,,rec,POINT (-122.504958275 37.764480181),4,Golden Gate Park,2024/08/21 02:15:01 PM,2024/10/10 10:40:59 AM,9,8,4,12,234
Mountain Lake Park - Drinking Fountain/Cooler,4678307295294231026,drinking_water,1,0,0,0,37.787493489999996,-122.4684184,1 11th Ave,San Francisco,CA,94118,Mountain Lake Park,publicly_accessible,08:00:00,20:00:00,Daily,,rec,POINT (-122.468418396 37.787493492),1,Inner Richmond,2024/07/23 12:28:50 PM,2024/10/10 10:40:59 AM,4,,6,11,134
Mission Rec Center - Drinking Fountain/Cooler,1239971004455109944,drinking_water,1,0,0,0,37.7581285,-122.413062,2450 Harrison St,San Francisco,CA,94110,Mission Rec Center,limited_access,08:00:00,20:00:00,Daily,,rec,POINT (-122.413062002 37.758128501),9,Mission,2024/07/23 12:28:50 PM,2024/10/10 10:40:59 AM,53,3,2,20,215
J.P. Murphy Playground - Drinking Fountain/Cooler,2433286473376299180,drinking_water,1,0,0,0,37.75209419,-122.46505760000001,1960 9th Ave,San Francisco,CA,94116,J.P. Murphy Playground,publicly_accessible,08:00:00,20:00:00,Daily,,rec,POINT (-122.4650576 37.752094186),7,Inner Sunset,2024/07/23 12:28:50 PM,2024/10/10 10:40:59 AM,45,10,8,14,178
Bayfront Park ##2,812756095121936560,drinking_water,1,1,1,1,37.769266,-122.385705,"Terry A Francois Blvd, Mission Bay",San Francisco,CA,94158,,,,,,,port,POINT (-122.385705 37.769266),6,Mission Bay,2024/10/04 01:51:23 PM,2024/10/10 10:40:59 AM,34,1,10,4,
Walter Haas Playground - Drinking Fountain/Cooler,7979184012007724705,drinking_water,1,1,0,0,37.74064005,-122.43528427999999,300 Addison St,San Francisco,CA,94131,Walter Haas Playground,publicly_accessible,08:00:00,20:00:00,Daily,,rec,POINT (-122.435284284 37.740640052),8,Glen Park,2024/07/23 12:28:50 PM,2024/10/10 10:40:59 AM,59,9,5,10,96
Bayview Picnic AreaBottle filling station,7364067302491079596,drinking_water,1,1,0,0,37.725796290000005,-122.39330733,,San Francisco,CA,,Bayview K.C. Jones Playground,publicly_accessible,08:00:00,20:00:00,Daily,,rec,POINT (-122.393307335 37.725796292),10,Bayview Hunters Point,2024/07/23 12:28:50 PM,2024/10/10 10:40:59 AM,86,2,9,1,77
Fulton Clubhouse,5914464353027580566,restroom,0,0,0,0,37.77354501950078,-122.48663993296265,855 27th Ave,San Francisco,CA,94121,Fulton Playground,publicly_accessible,08:00:00,20:00:00,Daily,,rec,POINT (-122.486639933 37.77354502),1,Outer Richmond,2024/08/13 04:58:33 PM,2024/10/10 10:40:59 AM,8,8,4,29,210
China Basin Park Restroom,3688811934706178804,restroom,0,0,0,0,37.776348,-122.388505,1 China Basin Park,San Francisco,CA,94107,,publicly_accessible,,,Daily,In central plaza,port,POINT (-122.388505 37.776348),6,Mission Bay,2024/10/04 01:51:23 PM,2024/10/10 10:40:59 AM,34,1,10,4,
Restroom,4161973934314613702,restroom,0,0,0,0,37.78422005104755,-122.50182639926257,100 34th Ave,San Francisco,CA,94121,Lincoln Park,publicly_accessible,08:00:00,20:00:00,Daily,,rec,POINT (-122.501826399 37.784220051),1,Lincoln Park,2024/08/21 02:15:01 PM,2024/10/10 10:40:59 AM,7,8,4,17,52
Landscaped Areas,6092931728253938998,restroom,0,0,0,0,37.73921045423949,-122.38573118327052,1398 Hudson Ave,San Francisco,CA,94124,Youngblood-Coleman Playground,publicly_accessible,08:00:00,20:00:00,Daily,,rec,POINT (-122.385731183 37.739210454),10,Bayview Hunters Point,2024/08/20 10:36:57 AM,2024/10/10 10:40:59 AM,86,2,9,1,224
Potrero Hill Rec Center,5068999930283866876,restroom,0,0,0,0,37.756272309679176,-122.39695006335867,801 Arkansas St,San Francisco,CA,94107,Potrero Hill Rec Center,publicly_accessible,08:00:00,20:00:00,Daily,,rec,POINT (-122.396950063 37.75627231),10,Potrero Hill,2024/08/13 05:16:30 PM,2024/10/10 10:40:59 AM,54,2,9,26,64
Shoreview Park - Drinking Fountain/Cooler,8932833623047348452,drinking_water,1,1,0,0,37.73177917,-122.38125781000001,1 Lillian St,San Francisco,CA,94124,Shoreview Park,publicly_accessible,08:00:00,20:00:00,Daily,,rec,POINT (-122.381257806 37.731779173),10,Bayview Hunters Point,2024/07/23 12:28:50 PM,2024/10/10 10:40:59 AM,86,2,9,1,201
Bernal Heights Rec Center,3195322800649596575,restroom,0,0,0,0,37.738312761309125,-122.41599756145315,500 Moultrie St,San Francisco,CA,94110,Bernal Heights Rec Center,publicly_accessible,08:00:00,20:00:00,Daily,,rec,POINT (-122.415997561 37.738312761),9,Bernal Heights,2024/08/13 05:17:47 PM,2024/10/10 10:40:59 AM,83,9,2,2,79
Margaret S. Hayward Clubhouse,9114533137639723370,restroom,0,0,0,0,37.780528059381275,-122.42582423061177,1016 Laguna St,San Francisco,CA,94102,Margaret S.Hayward Playground,publicly_accessible,08:00:00,20:00:00,Daily,,rec,POINT (-122.425824231 37.780528059),5,Western Addition,2024/08/13 04:58:33 PM,2024/10/10 10:40:59 AM,100,4,11,39,140
Margaret S.Hayward Playground - Drinking Fountain/Cooler,6908796306997080587,drinking_water,1,0,0,0,37.78069454,-122.42684637,1016 Laguna St,San Francisco,CA,94102,Margaret S.Hayward Playground,publicly_accessible,08:00:00,20:00:00,Daily,,rec,POINT (-122.426846373 37.78069454),5,Western Addition,2024/07/23 12:28:50 PM,2024/10/10 10:40:59 AM,100,4,11,39,140
Franklin Square - Drinking Fountain/Cooler,2475771779590483117,drinking_water,1,1,0,0,37.764807170000005,-122.40910428,2500 17th St,San Francisco,CA,94110,Franklin Square,publicly_accessible,08:00:00,20:00:00,Daily,,rec,POINT (-122.409104276 37.76480717),9,Mission,2024/07/23 12:28:50 PM,2024/10/10 10:40:59 AM,53,3,9,20,164
Drinking Fountain/Cooler,2200654980049634876,drinking_water,1,0,0,0,37.79583564,-122.41043563,,San Francisco,CA,,Woh Hei Yuen Playground,publicly_accessible,08:00:00,20:00:00,Daily,,rec,POINT (-122.410435626 37.795835644),3,Chinatown,2024/07/23 12:28:50 PM,2024/10/10 10:40:59 AM,16,6,3,6,91
Tenderloin Pit Stop - Turk and Hyde streets,4596080096965280480,restroom,0,0,0,0,37.7825365,-122.4157402,Turk and Hyde streets,San Francisco,CA,,,publicly_accessible,,,,,pit_stop,POINT (-122.4157402 37.7825365),5,Tenderloin,2024/10/10 10:39:51 AM,2024/10/10 10:40:59 AM,20,5,10,36,
TNDC: Candlestick Block A,8119082390481302510,drinking_water,0,1,1,0,37.719071,-122.393147,1001 Ingerson Ave,San Francisco,CA,94124,,publicly_accessible,,,Daily,,puc,POINT (-122.393147 37.719071),10,Bayview Hunters Point,2024/06/27 01:43:12 PM,2024/10/10 10:40:59 AM,88,2,9,1,
Precita Park - Drinking Fountain/Cooler,5177847223855817480,drinking_water,1,0,0,0,37.7468604,-122.41325644,3200 Folsom St,San Francisco,CA,94110,Precita Park,publicly_accessible,08:00:00,20:00:00,Daily,,rec,POINT (-122.413256436 37.746860402),9,Bernal Heights,2024/07/23 12:28:50 PM,2024/10/10 10:40:59 AM,83,9,2,2,6
China Basin Park Water Fountain #5,1815687204750990271,drinking_water,0,1,1,0,37.775948,-122.389857,"3rd St, Mission Bay",San Francisco,CA,94158,,publicly_accessible,,,Daily,On 3rd street,port,POINT (-122.389857 37.775948),6,Mission Bay,2024/10/04 01:51:23 PM,2024/10/10 10:40:59 AM,34,1,10,4,
"Pier 7, J C Decaux",8712865930210385388,restroom,0,0,0,0,37.79897,-122.39703,475 The Embarcadero,San Francisco,CA,94105,,publicly_accessible,,,Daily,J C Decaux,port,POINT (-122.39703 37.79897),3,Financial District/South Beach,2024/10/04 01:51:23 PM,2024/10/10 10:40:59 AM,77,6,3,8,
James Rolph Jr Clubhouse,8648877855879303740,restroom,0,0,0,0,37.75003212278121,-122.40660090433185,1451 Hampshire St,San Francisco,CA,94110,James Rolph Jr. Playground,publicly_accessible,08:00:00,20:00:00,Daily,,rec,POINT (-122.406600904 37.750032123),9,Mission,2024/08/13 04:58:33 PM,2024/10/10 10:40:59 AM,53,3,2,20,226
Glen Park Branch Library,1697779997800312692,drinking_water,1,0,0,0,37.733980204000034,-122.43383315499995,2825 Diamond St,San Francisco,CA,94131,,limited_access,,,Daily,"opening_hours = [""Sunday:13:00-17:00"",""Monday:10:00-18:00"",""Tuesday:10:00-18:00"",""Wednesday:12:00-20:00"",""Thursday:10:00-19:00"",""Friday:13:00-18:00"",""Saturday:10:00-18:00"",""Total Weekly Hours:50""]",library,POINT (-122.433833155 37.733980204),8,Glen Park,2024/10/10 10:24:00 AM,2024/10/10 10:40:59 AM,96,9,5,10,
Lafayette Park - Drinking Fountain/Cooler,7608515600277781600,drinking_water,1,0,0,0,37.791596229999996,-122.42817796,2101 Washington St,San Francisco,CA,94109,Lafayette Park,publicly_accessible,08:00:00,20:00:00,Daily,,rec,POINT (-122.428177959 37.791596231),2,Pacific Heights,2024/07/23 12:28:50 PM,2024/10/10 10:40:59 AM,102,4,6,30,212
Portsmouth Square - Drinking Fountain/Cooler,3034380096241212790,drinking_water,1,0,0,0,37.79460917,-122.40557791,745 Kearny St,San Francisco,CA,94108,Portsmouth Square,publicly_accessible,08:00:00,20:00:00,Daily,,rec,POINT (-122.40557791 37.794609168),3,Chinatown,2024/07/23 12:28:50 PM,2024/10/10 10:40:59 AM,104,6,3,6,127
Chowder Hut,1529365743775458966,restroom,0,0,0,0,37.8087256,-122.4155803,2890 Taylor St,San Francisco,CA,94133,,publicly_accessible,08:00:00,20:00:00,Daily,,port,POINT (-122.4155803 37.8087256),3,North Beach,2024/10/04 01:51:23 PM,2024/10/10 10:40:59 AM,99,6,3,23,
Castro Pit Stop - Market and Castro streets (JCDecaux),3991774780780772696,restroom,0,0,0,0,37.7627732,-122.4348053,Market and Castro streets (JCDecaux),San Francisco,CA,,,publicly_accessible,,,,,pit_stop,POINT (-122.4348053 37.7627732),8,Castro/Upper Market,2024/10/10 10:39:51 AM,2024/10/10 10:40:59 AM,38,3,5,5,
Patricia's Green in Hayes Valley - Drinking Fountain/Cooler,733896691271296364,drinking_water,1,1,0,0,37.77594665,-122.42445427000001,489 Hayes St,San Francisco,CA,94102,Patricia's Green in Hayes Valley,publicly_accessible,08:00:00,20:00:00,Daily,,rec,POINT (-122.424454268 37.775946648),5,Hayes Valley,2024/07/23 12:28:50 PM,2024/10/10 10:40:59 AM,22,4,11,9,189
Laurel Hill Clubhouse,5792798905216035670,restroom,0,0,0,0,37.78369098827751,-122.4511354376156,251 Euclid Ave,San Francisco,CA,94118,Laurel Hill Playground,publicly_accessible,08:00:00,20:00:00,Daily,,rec,POINT (-122.451135438 37.783690988),2,Presidio Heights,2024/08/13 04:58:33 PM,2024/10/10 10:40:59 AM,11,8,6,31,187
Upper Noe Rec Center,2337624681975054897,restroom,0,0,0,0,37.74244647159215,-122.42843387178414,295 Day St,San Francisco,CA,94131,Upper Noe Rec Center,publicly_accessible,08:00:00,20:00:00,Daily,,rec,POINT (-122.428433872 37.742446472),8,Noe Valley,2024/08/13 05:16:30 PM,2024/10/10 10:40:59 AM,84,9,5,22,100
Lower Great Highway Judah Restrooms,472633773455991733,restroom,0,0,0,0,37.760245264681615,-122.50956649424046,,San Francisco,CA,94132,Lower Great Highway,publicly_accessible,08:00:00,20:00:00,Daily,,rec,POINT (-122.509566494 37.760245265),4,Sunset/Parkside,2024/08/21 02:15:01 PM,2024/10/10 10:40:59 AM,39,10,7,35,20
West Portal Branch Library,6503267742886675671,drinking_water,1,0,0,0,37.74137018500005,-122.46614395199998,190 Lenox Way,San Francisco,CA,94127,,limited_access,,,Daily,"opening_hours = [""Sunday:13:00-17:00"",""Monday:13:00-18:00"",""Tuesday:10:00-20:00"",""Wednesday:10:00-20:00"",""Thursday:10:00-20:00"",""Friday:13:00-18:00"",""Saturday:10:00-18:00"",""Total Weekly Hours:52""]",library,POINT (-122.466143952 37.741370185),7,West of Twin Peaks,2024/10/10 10:24:00 AM,2024/10/10 10:40:59 AM,46,10,8,41,
Mountain Lake Park - Drinking Fountain/Cooler,2181519328811148190,drinking_water,1,0,0,0,37.786971650000005,-122.46793154,1 11th Ave,San Francisco,CA,94118,Mountain Lake Park,publicly_accessible,08:00:00,20:00:00,Daily,,rec,POINT (-122.467931543 37.786971652),1,Inner Richmond,2024/07/23 12:28:50 PM,2024/10/10 10:40:59 AM,4,,6,11,134
Golden Gate Park - Section 5 - Drinking Fountain/Cooler,4228604834963822706,drinking_water,1,0,0,0,37.77163402,-122.49513619,501 Stanyan St,San Francisco,CA,94122,Golden Gate Park - Section 5,publicly_accessible,08:00:00,20:00:00,Daily,,rec,POINT (-122.495136192 37.771634022),1,Golden Gate Park,2024/07/23 12:28:50 PM,2024/10/10 10:40:59 AM,9,8,4,12,233
Sunnyside Conservatory,3755932850212164196,restroom,0,0,0,0,37.731975489734644,-122.44079024379074,236 Monterey Blvd,San Francisco,CA,94131,Sunnyside Conservatory,publicly_accessible,08:00:00,20:00:00,Daily,,rec,POINT (-122.440790244 37.73197549),7,West of Twin Peaks,2024/08/20 10:36:57 AM,2024/10/10 10:40:59 AM,95,9,8,41,106
Hayes Valley Clubhouse,1185946669847466623,restroom,0,0,0,0,37.77590945664165,-122.42765945401244,689 Hayes St,San Francisco,CA,94102,Hayes Valley Playground,publicly_accessible,08:00:00,20:00:00,Daily,,rec,POINT (-122.427659454 37.775909457),5,Hayes Valley,2024/08/13 04:58:33 PM,2024/10/10 10:40:59 AM,22,4,11,9,174
Big Rec Restroom,5469953919666759262,restroom,0,0,0,0,37.768518818120874,-122.4655995456185,501 Stanyan St,San Francisco,CA,94122,Golden Gate Park - Section 7,publicly_accessible,08:00:00,20:00:00,Daily,,rec,POINT (-122.465599546 37.768518818),7,Golden Gate Park,2024/08/21 02:15:01 PM,2024/10/10 10:40:59 AM,9,8,11,12,228
Potrero Hill Rec Center - Drinking Fountain/Cooler,1795029580672313430,drinking_water,1,0,0,0,37.75609616,-122.39683774,801 Arkansas St,San Francisco,CA,94107,Potrero Hill Rec Center,publicly_accessible,08:00:00,20:00:00,Daily,,rec,POINT (-122.396837744 37.756096156),10,Potrero Hill,2024/07/23 12:28:50 PM,2024/10/10 10:40:59 AM,54,2,9,26,64
Ocean Beach Pit Stop - Great Highway near Beach Chalet,8978516872808671611,restroom,0,0,0,0,37.7675953,-122.5107794,Great Highway near Beach Chalet,San Francisco,CA,,Lower Great Highway,publicly_accessible,,,,,pit_stop,POINT (-122.5107794 37.7675953),4,Golden Gate Park,2024/10/10 10:39:51 AM,2024/10/10 10:40:59 AM,9,8,4,12,20
SF SPCA,6928189952947179522,drinking_water,0,1,1,0,37.765617,-122.412366,255 Alabama St,San Francisco,CA,94103,,publicly_accessible,,,Daily,,puc,POINT (-122.412366 37.765617),9,Mission,2024/06/27 01:43:12 PM,2024/10/10 10:40:59 AM,53,3,2,20,
Drinking Fountain/Cooler,9217149819497391219,drinking_water,1,0,0,0,37.71454846,-122.4058261,,San Francisco,CA,,Visitacion Valley Greenway,limited_access,08:00:00,20:00:00,Daily,,rec,POINT (-122.4058261 37.714548455),10,Visitacion Valley,2024/07/23 12:28:50 PM,2024/10/10 10:40:59 AM,75,9,9,40,200
Stanyan Edge Courtyard Drinking Fountain,3522301267325413526,drinking_water,1,0,0,0,37.76998542,-122.45421167,,San Francisco,CA,,Golden Gate Park - Section 1,publicly_accessible,08:00:00,20:00:00,Daily,,rec,POINT (-122.454211669 37.76998542),5,Golden Gate Park,2024/07/23 12:28:50 PM,2024/10/10 10:40:59 AM,9,7,11,12,229
Kimball Path Drinking Fountain,3038945258019670538,drinking_water,1,0,0,0,37.783709,-122.43540351,,San Francisco,CA,,Raymond Kimball Playground,publicly_accessible,08:00:00,20:00:00,Daily,,rec,POINT (-122.435403513 37.783708999),5,Western Addition,2024/07/23 12:28:50 PM,2024/10/10 10:40:59 AM,97,4,11,39,123
Father Alfred E. Boeddeker Park - Drinking Fountain/Cooler,1938774094516469000,drinking_water,1,1,0,0,37.78433303,-122.41220835,246 Eddy St,San Francisco,CA,94102,Father Alfred E. Boeddeker Park,publicly_accessible,08:00:00,20:00:00,Daily,,rec,POINT (-122.412208346 37.784333025),5,Tenderloin,2024/07/23 12:28:50 PM,2024/10/10 10:40:59 AM,20,5,10,36,162
Anna E. Waden Branch Library (Bayview),4747163986582751508,drinking_water,1,0,0,0,37.732484671000066,-122.39108620099995,5075 03rd St,San Francisco,CA,94124,,limited_access,,,Daily,"opening_hours = [""Sunday:13:00-17:00"",""Monday:10:00-18:00"",""Tuesday:10:00-20:00"",""Wednesday:10:00-20:00"",""Thursday:10:00-20:00"",""Friday:13:00-18:00"",""Saturday:10:00-18:00"",""Total Weekly Hours:55""]",library,POINT (-122.391086201 37.732484671),10,Bayview Hunters Point,2024/10/10 10:24:00 AM,2024/10/10 10:40:59 AM,86,2,9,1,
19th & Alabama,2447204787546099701,drinking_water,0,1,1,0,37.760315,-122.412135,3001 19th St,San Francisco,CA,94110,,publicly_accessible,,,Daily,,puc,POINT (-122.412135 37.760315),9,Mission,2024/06/27 01:43:12 PM,2024/10/10 10:40:59 AM,53,3,2,20,
Kezar Turf Drinking fountain,9065994624858625759,drinking_water,1,0,0,0,37.76752889,-122.45629948999999,,San Francisco,CA,,Golden Gate Park - Section 1,publicly_accessible,08:00:00,20:00:00,Daily,,rec,POINT (-122.456299492 37.767528892),5,Golden Gate Park,2024/07/23 12:28:50 PM,2024/10/10 10:40:59 AM,9,7,11,12,229
Merced Heights Clubhouse,9220700351671859647,restroom,0,0,0,0,37.71773927452562,-122.4701559768848,801 Shields St,San Francisco,CA,94132,Merced Heights Playground,publicly_accessible,08:00:00,20:00:00,Daily,,rec,POINT (-122.470155977 37.717739275),11,Oceanview/Merced/Ingleside,2024/08/13 04:58:33 PM,2024/10/10 10:40:59 AM,65,10,1,24,138
Administration Building,2762765205893670092,restroom,0,0,0,0,37.782315528202496,-122.4356163934808,1901 Geary Blvd,San Francisco,CA,94115,Raymond Kimball Playground,limited_access,08:00:00,20:00:00,Daily,,rec,POINT (-122.435616393 37.782315528),5,Western Addition,2024/08/13 04:58:33 PM,2024/10/10 10:40:59 AM,97,4,11,39,123
Argonne Clubhouse,5166102027712093118,restroom,0,0,0,0,37.779601550461045,-122.47777275744839,455 18th Ave,San Francisco,CA,94121,Argonne Playground,publicly_accessible,08:00:00,20:00:00,Daily,,rec,POINT (-122.477772757 37.77960155),1,Outer Richmond,2024/08/13 04:58:33 PM,2024/10/10 10:40:59 AM,5,8,4,29,71
Pioneer Park Restroom,598341934004717538,restroom,0,0,0,0,37.80259938123957,-122.40605250572062,1 Telegraph Hill Blvd,San Francisco,CA,94133,Telegraph Hill - Pioneer Park,publicly_accessible,08:00:00,20:00:00,Daily,,rec,POINT (-122.406052506 37.802599381),3,North Beach,2024/08/13 04:58:33 PM,2024/10/10 10:40:59 AM,18,6,3,23,227
Corona Heights Park - Drinking Fountain/Cooler,8683149347626563077,drinking_water,1,0,0,1,37.76530917,-122.44029272,122 States St,San Francisco,CA,94114,Corona Heights Park,publicly_accessible,08:00:00,20:00:00,Daily,,rec,POINT (-122.440292722 37.765309173),8,Castro/Upper Market,2024/07/23 12:28:50 PM,2024/10/10 10:40:59 AM,113,7,5,5,202
Golden Gate Park - Section 5 - Drinking Fountain/Cooler,4292889287259001803,drinking_water,1,1,0,0,37.771330569999996,-122.49904043,501 Stanyan St,San Francisco,CA,94122,Golden Gate Park - Section 5,publicly_accessible,08:00:00,20:00:00,Daily,,rec,POINT (-122.499040432 37.771330568),1,Golden Gate Park,2024/07/23 12:28:50 PM,2024/10/10 10:40:59 AM,9,8,4,12,233
Drinking Fountain/Cooler,5818030437079317619,drinking_water,1,0,0,0,37.71271949,-122.40869125,,San Francisco,CA,,Yik Oi Huang Peace & Friendship Park Picnic Area,publicly_accessible,08:00:00,20:00:00,Daily,,rec,POINT (-122.408691247 37.712719486),10,Visitacion Valley,2024/07/23 12:28:50 PM,2024/10/10 10:40:59 AM,75,9,9,40,97
Mission Dolores Park - Drinking Fountain/Cooler,3577872362230082096,drinking_water,1,0,0,0,37.75947164,-122.42710577,646 Dolores St,San Francisco,CA,94114,Mission Dolores Park,publicly_accessible,08:00:00,20:00:00,Daily,,rec,POINT (-122.427105774 37.759471644),8,Castro/Upper Market,2024/07/23 12:28:50 PM,2024/10/10 10:40:59 AM,37,3,5,5,213
Sunset Rec Center - Drinking Fountain/Cooler,6197377153243867380,drinking_water,1,0,0,0,37.75684011,-122.48690401,2201 Lawton St,San Francisco,CA,94122,Sunset Rec Center,publicly_accessible,08:00:00,20:00:00,Daily,,rec,POINT (-122.486904009 37.756840107),4,Sunset/Parkside,2024/07/23 12:28:50 PM,2024/10/10 10:40:59 AM,39,10,7,35,105
Golden Gate Park - Section 2 - Drinking Fountain/Cooler,194203608777390345,drinking_water,1,1,0,0,37.76828882,-122.45471819000001,501 Stanyan St,San Francisco,CA,94117,Golden Gate Park - Section 2,publicly_accessible,08:00:00,20:00:00,Daily,,rec,POINT (-122.454718189 37.768288825),5,Golden Gate Park,2024/07/23 12:28:50 PM,2024/10/10 10:40:59 AM,9,7,11,12,229
Restroom,3674214510354941802,restroom,0,0,0,0,37.73307159776936,-122.382577828637,2 Willie B Kennedy Dr,San Francisco,CA,94124,Hilltop Park,publicly_accessible,08:00:00,20:00:00,Daily,,rec,POINT (-122.382577829 37.733071598),10,Bayview Hunters Point,2024/08/13 04:58:33 PM,2024/10/10 10:40:59 AM,86,2,9,1,120
North Restrooms,4713862042748605556,restroom,0,0,0,0,37.76888801773871,-122.47084604293474,,San Francisco,CA,94122,Golden Gate Park - Section 3,publicly_accessible,08:00:00,20:00:00,Daily,,rec,POINT (-122.470846043 37.768888018),7,Golden Gate Park,2024/08/21 02:15:01 PM,2024/10/10 10:40:59 AM,9,8,11,12,231
"Heron's Head Park, Eo Center",3577349118403171998,restroom,0,0,0,0,37.740119,-122.37597,32 Jennings Street,San Francisco,CA,94124,,publicly_accessible,08:00:00,17:30:00,Daily,,port,POINT (-122.37597 37.740119),10,Bayview Hunters Point,2024/10/04 01:51:23 PM,2024/10/10 10:40:59 AM,56,2,9,1,
Richmond Branch Library,1970251667032378395,drinking_water,1,0,0,0,37.78184424500006,-122.46809920399994,351 09th Ave,San Francisco,CA,94118,10th Ave & Clement Mini Park,limited_access,,,Daily,"opening_hours = [""Sunday:13:00-17:00"",""Monday:13:00-18:00"",""Tuesday:10:00-20:00"",""Wednesday:10:00-20:00"",""Thursday:10:00-20:00"",""Friday:13:00-18:00"",""Saturday:10:00-18:00"",""Total Weekly Hours:52""]",library,POINT (-122.468099204 37.781844245),1,Inner Richmond,2024/10/10 10:24:00 AM,2024/10/10 10:40:59 AM,5,8,4,11,143
Restrooms,3377980425973688073,restroom,0,0,0,0,37.73088520798447,-122.3837328418327,1215 Quesada Ave,San Francisco,CA,94124,Adam Rodgers Park,publicly_accessible,08:00:00,20:00:00,Daily,,rec,POINT (-122.383732842 37.730885208),10,Bayview Hunters Point,2024/08/13 04:58:33 PM,2024/10/10 10:40:59 AM,86,2,9,1,146
Potrero Rec Path Drinking Fountain,5350223104802396812,drinking_water,1,0,0,0,37.75633916,-122.39705544,,San Francisco,CA,,Potrero Hill Rec Center,publicly_accessible,08:00:00,20:00:00,Daily,,rec,POINT (-122.397055444 37.756339159),10,Potrero Hill,2024/07/23 12:28:50 PM,2024/10/10 10:40:59 AM,54,2,9,26,64
Camp Mather - Drinking fountain,2616757637662769392,drinking_water,1,0,0,0,37.880919889999994,-119.85137888,32560 Mather Road,San Francisco,CA,95321,Camp Mather,publicly_accessible,08:00:00,20:00:00,Daily,,rec,POINT (-119.851381878 37.8809233),,,2024/08/19 09:47:28 AM,2024/10/10 10:40:59 AM,,,,,50
Minnie and Lovie Path,5647375595331832828,drinking_water,1,0,0,0,37.71503451,-122.45754733,,San Francisco,CA,,Minnie and Lovie Rec Center,publicly_accessible,08:00:00,20:00:00,Daily,,rec,POINT (-122.457547327 37.715034507),11,Oceanview/Merced/Ingleside,2024/07/23 12:28:50 PM,2024/10/10 10:40:59 AM,81,10,1,24,89
Mission Pit Stop - Franklin Square Park in the parking lot adjacent to 300 Hampshire St.,7195330164682834754,restroom,0,0,0,0,37.765187,-122.4083365,Franklin Square Park in the parking lot adjacent to 300 Hampshire St.,San Francisco,CA,,,publicly_accessible,,,,,pit_stop,POINT (-122.4083365 37.765187),9,Mission,2024/10/10 10:39:51 AM,2024/10/10 10:40:59 AM,53,3,9,20,
"Little Embarcadero, J C Decaux",2190890175057459878,restroom,0,0,0,0,37.808738,-122.412697,The Embarcadero,San Francisco,CA,94133,,publicly_accessible,,,Daily,J C Decaux,port,POINT (-122.412697 37.808738),3,North Beach,2024/10/04 01:51:23 PM,2024/10/10 10:40:59 AM,99,6,3,23,
Michelangelo Playground - Drinking Fountain/Cooler,2608349350084867732,drinking_water,1,0,0,0,37.80117848,-122.41699364,1055 Greenwich St,San Francisco,CA,94133,Michelangelo Playground,publicly_accessible,08:00:00,20:00:00,Daily,,rec,POINT (-122.416993642 37.801178476),3,Russian Hill,2024/07/23 12:28:50 PM,2024/10/10 10:40:59 AM,107,6,6,32,137
South Sunset Playground - Drinking Fountain/Cooler,1391506963519494259,drinking_water,1,1,0,0,37.73800239,-122.4983337,2601 40th Ave,San Francisco,CA,94116,South Sunset Playground,publicly_accessible,08:00:00,20:00:00,Daily,,rec,POINT (-122.498333705 37.738002386),4,Sunset/Parkside,2024/07/23 12:28:50 PM,2024/10/10 10:40:59 AM,40,10,7,35,110
Lessing & Sears Mini Park - Drinking Fountain/Cooler,659746649913065072,drinking_water,1,0,0,0,37.70863362,-122.45545233,10 Lessing St,San Francisco,CA,94112,Lessing & Sears Mini Park,publicly_accessible,08:00:00,20:00:00,Daily,,rec,POINT (-122.455452331 37.708633618),11,Outer Mission,2024/07/23 12:28:50 PM,2024/10/10 10:40:59 AM,66,9,1,28,35
Washington & Hyde Mini Park - Drinking Fountain/Cooler,7829856307567203886,drinking_water,1,0,0,0,37.794032439999995,-122.41743068,1470 Washington St,San Francisco,CA,94109,Washington & Hyde Mini Park,limited_access,08:00:00,20:00:00,Daily,,rec,POINT (-122.417430683 37.79403244),3,Russian Hill,2024/07/23 12:28:50 PM,2024/10/10 10:40:59 AM,16,6,3,32,95
525 Golden Gate,956935023348360657,drinking_water,0,1,0,0,37.7809272,-122.419371,525 Golden Gate,San Francisco,CA,94102,,limited_access,08:00:00,17:00:00,Weekdays,,puc,POINT (-122.419371 37.7809272),5,Tenderloin,2024/06/27 01:43:12 PM,2024/10/10 10:40:59 AM,21,4,10,36,
Trocadero Clubhouse,1272777018282717854,restroom,0,0,0,0,37.73617234504192,-122.4779173153289,2899 19th Ave,San Francisco,CA,94132,Sigmund Stern Recreation Grove,publicly_accessible,08:00:00,20:00:00,Daily,,rec,POINT (-122.477917315 37.736172345),4,Sunset/Parkside,2024/08/13 05:11:19 PM,2024/10/10 10:40:59 AM,40,10,7,35,112
Beach Chalet Soccer Bleacher,8001368927711937934,drinking_water,1,0,0,0,37.767421230000004,-122.5083298,,San Francisco,CA,,Golden Gate Park - Section 6,publicly_accessible,08:00:00,20:00:00,Daily,,rec,POINT (-122.508329799 37.767421233),4,Golden Gate Park,2024/07/23 12:28:50 PM,2024/10/10 10:40:59 AM,9,8,4,12,234
Polo Field Restroom,4197991394385184674,restroom,0,0,0,0,37.76678653672746,-122.49279315540966,501 Stanyan St,San Francisco,CA,94122,Golden Gate Park - Section 5,publicly_accessible,08:00:00,20:00:00,Daily,,rec,POINT (-122.492793155 37.766786537),4,Golden Gate Park,2024/08/21 02:15:01 PM,2024/10/10 10:40:59 AM,9,8,4,12,233
Model Yacht Clubhouse,6056527472595272594,restroom,0,0,0,0,37.770201047462926,-122.49559211434625,501 Stanyan St,San Francisco,CA,94122,Golden Gate Park - Section 5,publicly_accessible,08:00:00,20:00:00,Daily,,rec,POINT (-122.495592114 37.770201047),1,Golden Gate Park,2024/09/04 01:18:59 PM,2024/10/10 10:40:59 AM,9,8,4,12,233
Joseph L. Alioto Performing Arts Piazza - Drinking Fountain/Cooler,6099826318662567743,drinking_water,1,0,0,0,37.77990302,-122.41730591,355 McAllister St,San Francisco,CA,94102,Joseph L. Alioto Performing Arts Piazza,limited_access,08:00:00,20:00:00,Daily,,rec,POINT (-122.417305906 37.779903017),5,Tenderloin,2024/07/23 12:28:50 PM,2024/10/10 10:40:59 AM,21,4,10,36,57
Golden Gate Park - Section 1 - Drinking Fountain/Cooler,3834875212721181925,drinking_water,1,0,0,0,37.77269576,-122.45520271000001,501 Stanyan St,San Francisco,CA,94117,Golden Gate Park - Section 1,publicly_accessible,08:00:00,20:00:00,Daily,,rec,POINT (-122.455202712 37.772695757),1,Golden Gate Park,2024/07/23 12:28:50 PM,2024/10/10 10:40:59 AM,9,7,4,12,229
Portola Library,7171405751874216522,drinking_water,1,0,0,0,37.727114209000035,-122.40636172399996,380 Bacon St,San Francisco,CA,94112,,limited_access,,,Daily,"opening_hours = [""Sunday:13:00-17:00"",""Monday:10:00-18:00"",""Tuesday:10:00-18:00"",""Wednesday:12:00-20:00"",""Thursday:10:00-19:00"",""Friday:13:00-18:00"",""Saturday:10:00-18:00"",""Total Weekly Hours:50""]",library,POINT (-122.406361724 37.727114209),9,Portola,2024/10/10 10:24:00 AM,2024/10/10 10:40:59 AM,91,2,2,25,
Minnie and Lovie Rec Center - Drinking Fountain/Cooler,6322833292705963901,drinking_water,1,0,0,0,37.71604517,-122.45732735,650 Capitol Ave,San Francisco,CA,94112,Minnie and Lovie Rec Center,publicly_accessible,08:00:00,20:00:00,Daily,,rec,POINT (-122.457327353 37.716045167),11,Oceanview/Merced/Ingleside,2024/07/23 12:28:50 PM,2024/10/10 10:40:59 AM,81,10,1,24,89
Restrooms,4096326676840378758,restroom,0,0,0,0,37.77662044551919,-122.43391065502786,1081 Fulton St,San Francisco,CA,94117,Alamo Square,publicly_accessible,08:00:00,20:00:00,Daily,,rec,POINT (-122.433910655 37.776620446),5,Hayes Valley,2024/08/13 04:58:33 PM,2024/10/10 10:40:59 AM,23,4,11,9,67
Tenderloin Pit Stop - Taylor and Turk streets,7460298997726487520,restroom,0,0,0,0,37.7832058,-122.4108252,Taylor and Turk streets,San Francisco,CA,,,publicly_accessible,,,,,pit_stop,POINT (-122.4108252 37.7832058),5,Tenderloin,2024/10/10 10:39:51 AM,2024/10/10 10:40:59 AM,20,5,10,36,
Nursery Restrooms,4544891072889627791,restroom,0,0,0,0,37.76823041384297,-122.46214572877334,501 Stanyan St,San Francisco,CA,94122,Golden Gate Park - Section 7,publicly_accessible,08:00:00,20:00:00,Daily,,rec,POINT (-122.462145729 37.768230414),7,Golden Gate Park,2024/08/21 02:15:01 PM,2024/10/10 10:40:59 AM,9,8,11,12,228
McLaren Redwood Grove Drinking Fountain,4399969836773872047,drinking_water,1,1,0,0,37.72209603,-122.42064776,,San Francisco,CA,,John McLaren Park,publicly_accessible,08:00:00,20:00:00,Daily,,rec,POINT (-122.42064776 37.722096027),9,McLaren Park,2024/07/23 12:28:50 PM,2024/10/10 10:40:59 AM,73,9,2,19,7
Jose Coronado Playground - Drinking Fountain/Cooler,7760444378261616515,drinking_water,1,0,0,0,37.757676929999995,-122.4150985,2498 Folsom St,San Francisco,CA,94110,Jose Coronado Playground,publicly_accessible,08:00:00,20:00:00,Daily,,rec,POINT (-122.415098501 37.757676934),9,Mission,2024/07/23 12:28:50 PM,2024/10/10 10:40:59 AM,53,3,2,20,181
Coffman Pool,5843567458386880828,restroom,0,0,0,0,37.71335158908368,-122.41572366681596,1701 Visitacion Ave,San Francisco,CA,94134,Herz Playground,publicly_accessible,08:00:00,20:00:00,Daily,,rec,POINT (-122.415723667 37.713351589),10,McLaren Park,2024/08/13 04:58:33 PM,2024/10/10 10:40:59 AM,73,9,9,19,15
Golden Gate Park - Section 6 - Drinking Fountain/Cooler,8339516961627853963,drinking_water,1,1,0,0,37.77082793,-122.50299987999999,501 Stanyan St,San Francisco,CA,94121,Golden Gate Park - Section 6,publicly_accessible,08:00:00,20:00:00,Daily,,rec,POINT (-122.502999879 37.770827933),1,Golden Gate Park,2024/07/23 12:28:50 PM,2024/10/10 10:40:59 AM,9,8,4,12,234
Presidio Branch Library,3848458598906265461,drinking_water,1,0,0,0,37.788910970000074,-122.44485234499996,3150 Sacramento St,San Francisco,CA,94115,,limited_access,,,Daily,"opening_hours = [""Sunday:13:00-17:00"",""Monday:13:00-18:00"",""Tuesday:10:00-20:00"",""Wednesday:11:00-20:00"",""Thursday:10:00-18:00"",""Friday:13:00-18:00"",""Saturday:10:00-18:00"",""Total Weekly Hours:49""]",library,POINT (-122.444852345 37.78891097),2,Pacific Heights,2024/10/10 10:24:00 AM,2024/10/10 10:40:59 AM,102,8,6,30,
Polo Field North Restrooms,269078503715118193,restroom,0,0,0,0,37.7694207259486,-122.49309991733551,501 Stanyan St,San Francisco,CA,94122,Golden Gate Park - Section 5,publicly_accessible,08:00:00,20:00:00,Daily,,rec,POINT (-122.493099917 37.769420726),4,Golden Gate Park,2024/08/21 02:15:01 PM,2024/10/10 10:40:59 AM,9,8,4,12,233
Jerry Garcia Amphitheatre Restroom,4378564667613058963,restroom,0,0,0,0,37.720862536175844,-122.41692045488232,,San Francisco,CA,94134,John McLaren Park,publicly_accessible,08:00:00,20:00:00,Daily,,rec,POINT (-122.416920455 37.720862536),9,McLaren Park,2024/08/21 02:15:01 PM,2024/10/10 10:40:59 AM,73,9,2,19,7
Mission Pit Stop - 16th and Mission streets (JCDecaux),1226175465277442641,restroom,0,0,0,0,37.7649465,-122.4200173,16th and Mission streets (JCDecaux),San Francisco,CA,,,publicly_accessible,,,,,pit_stop,POINT (-122.4200173 37.7649465),9,Mission,2024/10/10 10:39:51 AM,2024/10/10 10:40:59 AM,53,3,2,20,
Tennis Center,2379230863305544113,restroom,0,0,0,0,37.77005238094658,-122.4595633246121,501 Stanyan St,San Francisco,CA,94122,Golden Gate Park - Section 7,publicly_accessible,08:00:00,20:00:00,Daily,,rec,POINT (-122.459563325 37.770052381),7,Golden Gate Park,2024/08/21 02:15:01 PM,2024/10/10 10:40:59 AM,9,7,11,12,228
"Mission Pit Stop - SFGH, near SE corner of Building 25",731874903109434684,restroom,0,0,0,0,37.7552601,-122.4051895,"SFGH, near SE corner of Building 25",San Francisco,CA,,,publicly_accessible,,,,,pit_stop,POINT (-122.4051895 37.7552601),10,Mission,2024/10/10 10:39:51 AM,2024/10/10 10:40:59 AM,54,3,9,20,
St. Mary's Rec Center - Drinking Fountain/Cooler,5930777443157926915,drinking_water,1,0,0,0,37.7329474,-122.42105235000001,95 Justin Dr,San Francisco,CA,94110,St. Mary's Rec Center,publicly_accessible,08:00:00,20:00:00,Daily,,rec,POINT (-122.421052354 37.732947405),9,Bernal Heights,2024/07/23 12:28:50 PM,2024/10/10 10:40:59 AM,93,9,2,2,109
Drinking Fountain,6267855007928022137,drinking_water,1,1,0,0,37.73811065,-122.38409679,,San Francisco,CA,,Youngblood-Coleman Playground,publicly_accessible,08:00:00,20:00:00,Daily,,rec,POINT (-122.384096787 37.73811065),10,Bayview Hunters Point,2024/07/23 12:28:50 PM,2024/10/10 10:40:59 AM,86,2,9,1,224
Mariposa Drinking fountain,7617614737577761120,drinking_water,1,0,0,0,37.76473968,-122.39131883,,San Francisco,CA,,Mariposa Park,publicly_accessible,08:00:00,20:00:00,Daily,,rec,POINT (-122.391318829 37.764739678),6,Potrero Hill,2024/07/23 12:28:50 PM,2024/10/10 10:40:59 AM,34,1,10,26,
Mountain Lake Restrooms,7662904050712720207,restroom,0,0,0,0,37.78702293940326,-122.47178156987887,1 11th Ave,San Francisco,CA,94118,Mountain Lake Park,publicly_accessible,08:00:00,20:00:00,Daily,,rec,POINT (-122.47178157 37.787022939),1,Inner Richmond,2024/08/21 02:15:01 PM,2024/10/10 10:40:59 AM,4,,6,11,134
Bayview Gateway Park,6601007062272325826,drinking_water,1,1,0,0,37.74671,-122.38634,3rd & Cargo Way,San Francisco,CA,94124,,publicly_accessible,,,Daily,Near benches,port,POINT (-122.38634 37.74671),10,Bayview Hunters Point,2024/10/04 01:51:23 PM,2024/10/10 10:40:59 AM,56,2,9,1,
Holly Park - Drinking Fountain/Cooler,5591212446335776069,drinking_water,1,0,0,0,37.73711521,-122.42056083,,San Francisco,CA,94110,Holly Park,publicly_accessible,08:00:00,20:00:00,Daily,,rec,POINT (-122.420560828 37.737115206),9,Bernal Heights,2024/07/23 12:28:50 PM,2024/10/10 10:40:59 AM,61,9,2,2,47
Alley of Humanitarian Drinking fountain,7473669793539039856,drinking_water,1,1,0,0,37.77256942,-122.46434065,,San Francisco,CA,,Golden Gate Park - Section 2,publicly_accessible,08:00:00,20:00:00,Daily,,rec,POINT (-122.46434065 37.772569421),1,Golden Gate Park,2024/07/23 12:28:50 PM,2024/10/10 10:40:59 AM,9,8,4,12,235
24th & Mission,2599759550272697651,drinking_water,0,1,1,0,37.752333,-122.418141,3278 24th Street,San Francisco,CA,94110,,publicly_accessible,,,Daily,,puc,POINT (-122.418141 37.752333),9,Mission,2024/06/27 01:43:12 PM,2024/10/10 10:40:59 AM,53,3,2,20,
Minnie and Lovie Children's Play Area Drinking Fountain,7068182829816722451,drinking_water,1,0,0,0,37.716382689999996,-122.45820802,,San Francisco,CA,,Minnie and Lovie Rec Center,limited_access,08:00:00,20:00:00,Daily,,rec,POINT (-122.458208022 37.716382687),11,Oceanview/Merced/Ingleside,2024/07/23 12:28:50 PM,2024/10/10 10:40:59 AM,81,10,1,24,89
Tenderloin Rec Center,6002601376018621454,restroom,0,0,0,0,37.78474133539745,-122.41569209429984,570 Ellis St,San Francisco,CA,94109,Tenderloin Rec Center,publicly_accessible,08:00:00,20:00:00,Daily,,rec,POINT (-122.415692094 37.784741335),5,Tenderloin,2024/08/13 05:17:47 PM,2024/10/10 10:40:59 AM,20,5,10,36,103
Chinatown Branch Library,1048105456630639138,drinking_water,1,0,0,0,37.79523887500005,-122.41008249499998,1135 Powell St,San Francisco,CA,94108,,limited_access,,,Daily,"opening_hours = [""Sunday:13:00-17:00"",""Monday:13:00-18:00"",""Tuesday:10:00-20:00"",""Wednesday:10:00-20:00"",""Thursday:10:00-20:00"",""Friday:13:00-18:00"",""Saturday:10:00-18:00"",""Total Weekly Hours:52""]",library,POINT (-122.410082495 37.795238875),3,Chinatown,2024/10/10 10:24:00 AM,2024/10/10 10:40:59 AM,16,6,3,6,
China Basin Park Water Fountain #2,4702083147431539233,drinking_water,1,1,0,0,37.776332,-122.388487,1 China Basin Park,San Francisco,CA,94107,,publicly_accessible,,,Daily,By bathroom,port,POINT (-122.388487 37.776332),6,Mission Bay,2024/10/04 01:51:23 PM,2024/10/10 10:40:59 AM,34,1,10,4,
Kimball Path Bottle filling station,529716560955422763,drinking_water,1,1,0,0,37.78286559,-122.43452279,,San Francisco,CA,,Raymond Kimball Playground,publicly_accessible,08:00:00,20:00:00,Daily,,rec,POINT (-122.434522791 37.782865586),5,Western Addition,2024/07/23 12:28:50 PM,2024/10/10 10:40:59 AM,97,4,11,39,123
McLaren Park Oxford St Restroom,5813049252582342808,restroom,0,0,0,0,37.722952321382685,-122.41856158698465,,San Francisco,CA,94134,John McLaren Park,publicly_accessible,08:00:00,20:00:00,Daily,,rec,POINT (-122.418561587 37.722952321),11,McLaren Park,2024/08/21 02:15:01 PM,2024/10/10 10:40:59 AM,73,9,2,19,7
Hamilton Rec Center,8369580577400438332,restroom,0,0,0,0,37.78453259984285,-122.43517781586444,1900 Geary Blvd,San Francisco,CA,94115,Hamilton Rec Center,publicly_accessible,08:00:00,20:00:00,Daily,,rec,POINT (-122.435177816 37.7845326),5,Japantown,2024/08/13 05:16:30 PM,2024/10/10 10:40:59 AM,103,4,11,15,173
P24 - Mariposa Bay Park,368974553398901364,drinking_water,1,1,0,1,37.765245,-122.388254,"Illinois St, Mission Bay",San Francisco,CA,94158,,publicly_accessible,,,Daily,,port,POINT (-122.388254 37.765245),6,Potrero Hill,2024/10/04 01:51:23 PM,2024/10/10 10:40:59 AM,34,1,10,26,
Boeddeker Clubhouse,6509048567539336556,restroom,0,0,0,0,37.784313315771854,-122.41181377502643,246 Eddy St,San Francisco,CA,94102,Father Alfred E. Boeddeker Park,publicly_accessible,08:00:00,20:00:00,Daily,,rec,POINT (-122.411813775 37.784313316),5,Tenderloin,2024/08/13 04:58:33 PM,2024/10/10 10:40:59 AM,20,5,10,36,162
Balboa Pool,1446985645225844523,restroom,0,0,0,0,37.72640027156061,-122.44323590203872,51 Havelock St,San Francisco,CA,94112,Balboa Park,publicly_accessible,08:00:00,20:00:00,Daily,,rec,POINT (-122.443235902 37.726400272),11,Outer Mission,2024/08/13 04:58:33 PM,2024/10/10 10:40:59 AM,94,9,1,28,76
Peixotto Clubhouse,3794976240319233035,restroom,0,0,0,0,37.765610267944155,-122.43757489547629,2475 15th St,San Francisco,CA,94114,Peixotto Playground,publicly_accessible,08:00:00,20:00:00,Daily,,rec,POINT (-122.437574895 37.765610268),8,Castro/Upper Market,2024/08/13 04:58:33 PM,2024/10/10 10:40:59 AM,113,7,5,5,128
Fitness Area,6365072145220374259,restroom,0,0,0,0,37.772364842642396,-122.44768725681776,501 Stanyan St,San Francisco,CA,94117,Golden Gate Park - Section 1,publicly_accessible,08:00:00,20:00:00,Daily,,rec,POINT (-122.447687257 37.772364843),5,Golden Gate Park,2024/08/21 02:15:01 PM,2024/10/10 10:40:59 AM,24,7,11,12,229
Drinking Fountain,8922378020857135669,drinking_water,1,0,0,0,37.77239048,-122.46012938999999,,San Francisco,CA,,Golden Gate Park - Section 1,publicly_accessible,08:00:00,20:00:00,Daily,,rec,POINT (-122.46012939 37.772390478),1,Golden Gate Park,2024/07/23 12:28:50 PM,2024/10/10 10:40:59 AM,9,7,4,12,229
Mission Branch Library,1848497342151395742,drinking_water,1,0,0,0,37.75196896600005,-122.41982646399998,300 Bartlett St,San Francisco,CA,94110,,limited_access,,,Daily,"opening_hours = [""Sunday:13:00-17:00"",""Monday:10:00-18:00"",""Tuesday:10:00-20:00"",""Wednesday:10:00-20:00"",""Thursday:10:00-20:00"",""Friday:13:00-18:00"",""Saturday:10:00-18:00"",""Total Weekly Hours:55""]",library,POINT (-122.419826464 37.751968966),9,Mission,2024/10/10 10:24:00 AM,2024/10/10 10:40:59 AM,53,3,2,20,
Drinking Fountain,3335364782281558438,drinking_water,1,1,0,0,37.71392505,-122.41632703,,San Francisco,CA,,Herz Playground,publicly_accessible,08:00:00,20:00:00,Daily,,rec,POINT (-122.416327035 37.713925052),10,McLaren Park,2024/07/23 12:28:50 PM,2024/10/10 10:40:59 AM,73,9,9,19,15
Sunnyside Conservatory - Drinking Fountain/Cooler,4452349754323437789,drinking_water,1,0,0,0,37.731938230000004,-122.44074054000001,236 Monterey Blvd,San Francisco,CA,94131,Sunnyside Conservatory,publicly_accessible,08:00:00,20:00:00,Daily,,rec,POINT (-122.440740543 37.731938228),7,West of Twin Peaks,2024/07/23 12:28:50 PM,2024/10/10 10:40:59 AM,95,9,8,41,106
Garfield Square Clubhouse,2120452437850770345,restroom,0,0,0,0,37.74990573838061,-122.41234394466201,3100 26th St,San Francisco,CA,94110,Garfield Square,publicly_accessible,08:00:00,20:00:00,Daily,,rec,POINT (-122.412343945 37.749905738),9,Mission,2024/08/13 04:58:33 PM,2024/10/10 10:40:59 AM,53,3,2,20,165
"SFFD, J C Decaux",4912770129684159724,restroom,0,0,0,0,37.790166,-122.388767,389 The Embarcadero S,San Francisco,CA,94105,,publicly_accessible,,,Daily,J C Decaux,port,POINT (-122.388767 37.790166),6,Financial District/South Beach,2024/10/04 01:51:23 PM,2024/10/10 10:40:59 AM,30,1,10,8,
Mechanics Plaza at Battery/Market,4010859251661602629,drinking_water,0,1,0,0,37.79129,-122.399052,456 Market St,San Francisco,CA,94104,,publicly_accessible,,,Daily,,puc,POINT (-122.399052 37.79129),3,Financial District/South Beach,2024/06/27 01:43:12 PM,2024/10/10 10:40:59 AM,108,6,3,8,
Golden Gate Park - Section 6 - Drinking Fountain/Cooler,2327959151564343363,drinking_water,1,0,0,0,37.76792759,-122.50184765,501 Stanyan St,San Francisco,CA,94121,Golden Gate Park - Section 6,publicly_accessible,08:00:00,20:00:00,Daily,,rec,POINT (-122.501847649 37.767927592),1,Golden Gate Park,2024/07/23 12:28:50 PM,2024/10/10 10:40:59 AM,9,8,4,12,234
Kezar Turf Drinking fountain,799043886554953021,drinking_water,1,0,0,0,37.767506579999996,-122.45566956,,San Francisco,CA,,Golden Gate Park - Section 1,publicly_accessible,08:00:00,20:00:00,Daily,,rec,POINT (-122.455669562 37.767506578),5,Golden Gate Park,2024/07/23 12:28:50 PM,2024/10/10 10:40:59 AM,9,7,11,12,229
Presidio Heights Clubhouse,4289748452748884379,restroom,0,0,0,0,37.788483152167615,-122.44983022083373,3437 Clay St,San Francisco,CA,94118,Presidio Heights Playground,publicly_accessible,08:00:00,20:00:00,Daily,,rec,POINT (-122.449830221 37.788483152),2,Presidio Heights,2024/08/13 04:58:33 PM,2024/10/10 10:40:59 AM,10,8,6,31,125
Dog Bowl,5519579475023676434,drinking_water,1,0,0,0,37.77240059,-122.44772931,,San Francisco,CA,,Golden Gate Park - Section 1,publicly_accessible,08:00:00,20:00:00,Daily,,rec,POINT (-122.447729315 37.772400595),5,Golden Gate Park,2024/07/23 12:28:50 PM,2024/10/10 10:40:59 AM,24,7,11,12,229
Pier 70,2941591578252748830,restroom,0,0,0,0,37.76059,-122.38563,525 20th St,San Francisco,CA,94107,,limited_access,09:00:00,17:00:00,Daily,Inside building,port,POINT (-122.38563 37.76059),10,Potrero Hill,2024/10/04 01:51:23 PM,2024/10/10 10:40:59 AM,56,2,9,26,
Miraloma Playground - Drinking Fountain/Cooler,7354663311810959560,drinking_water,1,0,0,0,37.73910454,-122.44949348,25 Omar Way,San Francisco,CA,94127,Miraloma Playground,publicly_accessible,08:00:00,20:00:00,Daily,,rec,POINT (-122.449493478 37.73910454),7,West of Twin Peaks,2024/07/23 12:28:50 PM,2024/10/10 10:40:59 AM,72,9,8,41,136
Presidio Wall Clubhouse,1155075361421330535,restroom,0,0,0,0,37.79126963424543,-122.45371329325805,3550 Pacific Ave,San Francisco,CA,94118,Presidio Wall Playground,publicly_accessible,08:00:00,20:00:00,Daily,,rec,POINT (-122.453713293 37.791269634),2,Presidio,2024/08/13 04:58:33 PM,2024/10/10 10:40:59 AM,3,,6,27,19
Senior Center,4787786767222939973,restroom,0,0,0,0,37.771649128845645,-122.4970396391326,501 Stanyan St,San Francisco,CA,94122,Golden Gate Park - Section 5,publicly_accessible,08:00:00,20:00:00,Daily,,rec,POINT (-122.497039639 37.771649129),1,Golden Gate Park,2024/08/21 02:15:01 PM,2024/10/10 10:40:59 AM,9,8,4,12,233
Merced Heights Playground - Drinking Fountain/Cooler,273571002168803164,drinking_water,1,0,0,0,37.71748144,-122.47038418999999,801 Shields St,San Francisco,CA,94132,Merced Heights Playground,publicly_accessible,08:00:00,20:00:00,Daily,,rec,POINT (-122.470384188 37.717481445),11,Oceanview/Merced/Ingleside,2024/07/23 12:28:50 PM,2024/10/10 10:40:59 AM,65,10,1,24,138
Douglass Clubhouse,3198698486750945158,restroom,0,0,0,0,37.747814884292936,-122.4384316905048,1098 Douglass St,San Francisco,CA,94131,Douglass Playground,publicly_accessible,08:00:00,20:00:00,Daily,,rec,POINT (-122.438431691 37.747814884),8,Noe Valley,2024/08/13 04:58:33 PM,2024/10/10 10:40:59 AM,57,3,5,22,206
East Restroom,2202206770714678822,restroom,0,0,0,0,37.72518013090619,-122.44422317580951,51 Havelock St,San Francisco,CA,94112,Balboa Park,publicly_accessible,08:00:00,20:00:00,Daily,,rec,POINT (-122.444223176 37.725180131),11,Outer Mission,2024/08/13 04:58:33 PM,2024/10/10 10:40:59 AM,94,9,1,28,76
Restrooms,8500089597454184419,restroom,0,0,0,0,37.79124662417517,-122.43816772732552,2501 Jackson St,San Francisco,CA,94115,Alta Plaza Park,publicly_accessible,08:00:00,20:00:00,Daily,,rec,POINT (-122.438167727 37.791246624),2,Pacific Heights,2024/08/13 04:58:33 PM,2024/10/10 10:40:59 AM,102,4,6,30,149
Joseph Lee Rec Center,4732333100158243303,restroom,0,0,0,0,37.734686763218136,-122.38948264733973,1551 Newcomb Ave,San Francisco,CA,94124,Joseph Lee Rec Center,publicly_accessible,08:00:00,20:00:00,Daily,,rec,POINT (-122.389482647 37.734686763),10,Bayview Hunters Point,2024/08/13 05:16:30 PM,2024/10/10 10:40:59 AM,86,2,9,1,88
Golden Gate Park - Section 7 - Drinking Fountain/Cooler,5726650048499033048,drinking_water,1,0,0,0,37.76917435,-122.45878341999999,Golden Gate Park,San Francisco,CA,94122,Golden Gate Park - Section 7,limited_access,08:00:00,20:00:00,Daily,,rec,POINT (-122.458783423 37.769174355),7,Golden Gate Park,2024/07/23 12:28:50 PM,2024/10/10 10:40:59 AM,9,7,11,12,228
Bandstand Public Restrooms,6733522781301890668,restroom,0,0,0,0,37.76980555864644,-122.46865196284016,,San Francisco,CA,94118,Golden Gate Park - Section 2,publicly_accessible,08:00:00,20:00:00,Daily,,rec,POINT (-122.468651963 37.769805559),7,Golden Gate Park,2024/08/21 02:15:01 PM,2024/10/10 10:40:59 AM,9,8,4,12,235
Golden Gate Park - Section 6 - Drinking Fountain/Cooler,1532798181122981291,drinking_water,1,1,0,0,37.7679981,-122.5082134,501 Stanyan St,San Francisco,CA,94121,Golden Gate Park - Section 6,publicly_accessible,08:00:00,20:00:00,Daily,,rec,POINT (-122.508213397 37.767998097),4,Golden Gate Park,2024/07/23 12:28:50 PM,2024/10/10 10:40:59 AM,9,8,4,12,234
McLaren Redwood Grove Restroom,6184195055326141339,restroom,0,0,0,0,37.72211732283109,-122.42063421731622,,San Francisco,CA,94134,John McLaren Park,publicly_accessible,08:00:00,20:00:00,Daily,,rec,POINT (-122.420634217 37.722117323),9,McLaren Park,2024/08/21 02:15:01 PM,2024/10/10 10:40:59 AM,73,9,2,19,7
Harding Clubhouse (Sandy Tatum),8116024243392034060,restroom,0,0,0,0,37.72466408783124,-122.49365476427315,1 Harding Rd,San Francisco,CA,94132,Lake Merced Park,limited_access,08:00:00,20:00:00,Daily,,rec,POINT (-122.493654764 37.724664088),7,Lakeshore,2024/08/21 02:15:01 PM,2024/10/10 10:40:59 AM,43,10,8,16,2
Noe Valley Courts - Drinking Fountain/Cooler,5185613767339241930,drinking_water,1,0,0,0,37.75124298,-122.43900086,780 Douglass St,San Francisco,CA,94114,Noe Valley Courts,publicly_accessible,08:00:00,20:00:00,Daily,,rec,POINT (-122.439000859 37.751242977),8,Noe Valley,2024/07/23 12:28:50 PM,2024/10/10 10:40:59 AM,51,3,5,22,132
Western Addition Branch Library,7958442617977442450,drinking_water,1,0,0,0,37.784118524000064,-122.43748930299995,1550 Scott St,San Francisco,CA,94115,,limited_access,,,Daily,"opening_hours = [""Sunday:13:00-17:00"",""Monday:10:00-18:00"",""Tuesday:10:00-18:00"",""Wednesday:13:00-20:00"",""Thursday:10:00-19:00"",""Friday:13:00-18:00"",""Saturday:10:00-18:00"",""Total Weekly Hours:49""]",library,POINT (-122.437489303 37.784118524),5,Japantown,2024/10/10 10:24:00 AM,2024/10/10 10:40:59 AM,103,4,11,15,36
Merced Branch Library,7302849541184780251,drinking_water,1,0,0,0,37.72659366900007,-122.47449376899999,155 Winston Dr,San Francisco,CA,94132,,limited_access,,,Daily,"opening_hours = [""Sunday:13:00-17:00"",""Monday:10:00-18:00"",""Tuesday:10:00-20:00"",""Wednesday:12:00-20:00"",""Thursday:10:00-20:00"",""Friday:13:00-18:00"",""Saturday:10:00-18:00"",""Total Weekly Hours:53""]",library,POINT (-122.474493769 37.726593669),7,West of Twin Peaks,2024/10/10 10:24:00 AM,2024/10/10 10:40:59 AM,41,10,8,41,44
Jose Coronado Clubhouse,2650616189117355099,restroom,0,0,0,0,37.75774134081306,-122.41510303771898,2498 Folsom St,San Francisco,CA,94110,Jose Coronado Playground,publicly_accessible,08:00:00,20:00:00,Daily,,rec,POINT (-122.415103038 37.757741341),9,Mission,2024/08/13 04:58:33 PM,2024/10/10 10:40:59 AM,53,3,2,20,181
Golden Gate Park - Section 5 - Drinking Fountain/Cooler,9079348554096902607,drinking_water,1,1,0,0,37.769489289999996,-122.48477771,501 Stanyan St,San Francisco,CA,94122,Golden Gate Park - Section 5,publicly_accessible,08:00:00,20:00:00,Daily,,rec,POINT (-122.484777711 37.76948929),4,Golden Gate Park,2024/07/23 12:28:50 PM,2024/10/10 10:40:59 AM,9,8,4,12,233
Douglass Playground - Drinking Fountain/Cooler,445055920395407513,drinking_water,1,0,0,0,37.74791785,-122.43840181,1098 Douglass St,San Francisco,CA,94131,Douglass Playground,limited_access,08:00:00,20:00:00,Daily,,rec,POINT (-122.438401814 37.747917851),8,Noe Valley,2024/07/23 12:28:50 PM,2024/10/10 10:40:59 AM,57,3,5,22,206
Parkside Square - Drinking Fountain/Cooler,1985980605508514993,drinking_water,1,0,0,0,37.73787938,-122.48463807,2680 28th Ave,San Francisco,CA,94132,Parkside Square,limited_access,08:00:00,20:00:00,Daily,,rec,POINT (-122.484638069 37.737879379),4,Sunset/Parkside,2024/07/23 12:28:50 PM,2024/10/10 10:40:59 AM,40,10,7,35,217
Camp Mather - Ball field bath house Drinking Fountain,1391828046050193443,drinking_water,1,0,0,0,37.88091866,-119.85141229999999,32560 Mather Road,San Francisco,CA,95321,Camp Mather,publicly_accessible,08:00:00,20:00:00,Daily,,rec,POINT (-119.851415301 37.880927262),,,2024/08/16 02:37:58 PM,2024/10/10 10:40:59 AM,,,,,50
J. P. Murphy Clubhouse,5312098977276546560,restroom,0,0,0,0,37.75156403315574,-122.4652225507296,1960 9th Ave,San Francisco,CA,94116,J.P. Murphy Playground,publicly_accessible,08:00:00,20:00:00,Daily,,rec,POINT (-122.465222551 37.751564033),7,Inner Sunset,2024/08/13 04:58:33 PM,2024/10/10 10:40:59 AM,45,10,8,14,178
Mission Creek Pavilion,1697454832649394634,restroom,0,0,0,0,37.77313632980181,-122.39368445415782,290 Channel St,San Francisco,CA,94158,Mission Creek Park,publicly_accessible,08:00:00,20:00:00,Daily,,rec,POINT (-122.393684454 37.77313633),6,Mission Bay,2024/08/20 10:36:57 AM,2024/10/10 10:40:59 AM,34,1,10,4,
Millwright's Cottage,3742847005091253649,restroom,0,0,0,0,37.76519674067003,-122.5084366106694,501 Stanyan St,San Francisco,CA,94121,Golden Gate Park - Section 6,limited_access,08:00:00,20:00:00,Daily,,rec,POINT (-122.508436611 37.765196741),4,Golden Gate Park,2024/08/21 02:15:01 PM,2024/10/10 10:40:59 AM,9,8,4,12,234
Parkside Square - Drinking Fountain/Cooler,2771871483613440808,drinking_water,1,0,0,0,37.73778064,-122.48449475999999,2680 28th Ave,San Francisco,CA,94132,Parkside Square,limited_access,08:00:00,20:00:00,Daily,,rec,POINT (-122.484494758 37.737780643),4,Sunset/Parkside,2024/07/23 12:28:50 PM,2024/10/10 10:40:59 AM,40,10,7,35,217
North Beach Pit Stop - Washington Square at Union St. (JCDecaux),5044111039446243996,restroom,0,0,0,0,37.8004679,-122.4097323,Washington Square at Union St. (JCDecaux),San Francisco,CA,,Washington Square,publicly_accessible,,,,,pit_stop,POINT (-122.4097323 37.8004679),3,North Beach,2024/10/10 10:39:51 AM,2024/10/10 10:40:59 AM,106,6,3,23,94
Buena Vista Park - Drinking Fountain/Cooler,9110820734024268991,drinking_water,1,0,0,0,37.76985323,-122.43960654,1293 Haight St,San Francisco,CA,94117,Buena Vista Park,publicly_accessible,08:00:00,20:00:00,Daily,,rec,POINT (-122.439606537 37.769853232),8,Haight Ashbury,2024/07/23 12:28:50 PM,2024/10/10 10:40:59 AM,112,7,5,3,152
Sgt. John Macaulay Park - Drinking Fountain/Cooler,4627038945983935730,drinking_water,1,0,0,0,37.785387039999996,-122.4182481,800 O'Farrell St,San Francisco,CA,94109,Sgt. John Macaulay Park,limited_access,08:00:00,20:00:00,Daily,,rec,POINT (-122.418248098 37.785387038),5,Tenderloin,2024/07/23 12:28:50 PM,2024/10/10 10:40:59 AM,20,5,10,36,113
Moscone Rec Center - Drinking Fountain/Cooler,3455732999251252810,drinking_water,1,1,0,0,37.80149195,-122.43324,1800 Chestnut St,San Francisco,CA,94123,Moscone Rec Center,publicly_accessible,08:00:00,20:00:00,Daily,,rec,POINT (-122.433240005 37.801491949),2,Marina,2024/07/23 12:28:50 PM,2024/10/10 10:40:59 AM,17,4,6,13,135
Mission Playground - Drinking Fountain/Cooler,6807450615319451858,drinking_water,1,1,0,0,37.75944302,-122.42240856,3555 19th St,San Francisco,CA,94110,Mission Playground,publicly_accessible,08:00:00,20:00:00,Daily,,rec,POINT (-122.42240856 37.759443017),9,Mission,2024/07/23 12:28:50 PM,2024/10/10 10:40:59 AM,37,3,5,20,214
Bowling Green Clubhouse,3966811820932894444,restroom,0,0,0,0,37.76854971802402,-122.45898101337505,501 Stanyan St,San Francisco,CA,94122,Golden Gate Park - Section 7,publicly_accessible,08:00:00,20:00:00,Daily,,rec,POINT (-122.458981013 37.768549718),7,Golden Gate Park,2024/08/21 02:15:01 PM,2024/10/10 10:40:59 AM,9,7,11,12,228
Minnie and Lovie Rec Center - Drinking Fountain/Cooler,2476013206564579208,drinking_water,1,0,0,0,37.71511351,-122.45624228,650 Capitol Ave,San Francisco,CA,94112,Minnie and Lovie Rec Center,publicly_accessible,08:00:00,20:00:00,Daily,,rec,POINT (-122.456242276 37.715113509),11,Oceanview/Merced/Ingleside,2024/07/23 12:28:50 PM,2024/10/10 10:40:59 AM,81,10,1,24,89
Visitacion Valley Branch Library,5445528273876891131,drinking_water,1,0,0,0,37.71245320600008,-122.40788422599996,201 Leland Ave,San Francisco,CA,94134,,limited_access,,,Daily,"opening_hours = [""Sunday:13:00-17:00"",""Monday:10:00-18:00"",""Tuesday:10:00-20:00"",""Wednesday:10:00-20:00"",""Thursday:10:00-20:00"",""Friday:13:00-18:00"",""Saturday:10:00-18:00"",""Total Weekly Hours:55""]",library,POINT (-122.407884226 37.712453206),10,Visitacion Valley,2024/10/10 10:24:00 AM,2024/10/10 10:40:59 AM,75,9,9,40,
Tenderloin Pit Stop - Eddy St. and Jones St.,1822039486289552148,restroom,0,0,0,0,37.7841238,-122.4122697,Eddy St. and Jones St.,San Francisco,CA,,Father Alfred E. Boeddeker Park,publicly_accessible,,,,,pit_stop,POINT (-122.4122697 37.7841238),5,Tenderloin,2024/10/10 10:39:51 AM,2024/10/10 10:40:59 AM,20,5,10,36,162
Dual Fountain,8818167520978821495,drinking_water,1,0,0,0,37.77239131,-122.4476662,,San Francisco,CA,,Golden Gate Park - Section 1,publicly_accessible,08:00:00,20:00:00,Daily,,rec,POINT (-122.447666195 37.77239131),5,Golden Gate Park,2024/07/23 12:28:50 PM,2024/10/10 10:40:59 AM,24,7,11,12,229
Beach Chalet Soccer Fields Maintenance Building,3608940722084040331,restroom,0,0,0,0,37.76689068128529,-122.50766568323402,501 Stanyan St,San Francisco,CA,94121,Golden Gate Park - Section 6,publicly_accessible,08:00:00,20:00:00,Daily,,rec,POINT (-122.507665683 37.766890681),4,Golden Gate Park,2024/08/21 02:15:01 PM,2024/10/10 10:40:59 AM,9,8,4,12,234
China Basin Park Water Fountain #1,676616995420367919,drinking_water,1,1,0,0,37.776548,-122.389769,1 China Basin Park,San Francisco,CA,94107,,publicly_accessible,,,Daily,By the bridge,port,POINT (-122.389769 37.776548),6,Mission Bay,2024/10/04 01:51:23 PM,2024/10/10 10:40:59 AM,34,1,10,4,
Annex Restrooms,7379273592667316545,restroom,0,0,0,0,37.777987531028245,-122.45767116556969,600 Arguello Blvd,San Francisco,CA,94118,Angelo J. Rossi Playground,publicly_accessible,08:00:00,20:00:00,Daily,,rec,POINT (-122.457671166 37.777987531),1,Lone Mountain/USF,2024/08/13 04:58:33 PM,2024/10/10 10:40:59 AM,12,8,4,18,204
China Basin Park Water Fountain #4,8637574682344270148,drinking_water,0,1,1,0,37.775397,-122.388882,"China Basin st, Mission Bay",San Francisco,CA,94158,,publicly_accessible,,,Daily,In the Toni Stone crossing,port,POINT (-122.388882 37.775397),6,Mission Bay,2024/10/04 01:51:23 PM,2024/10/10 10:40:59 AM,34,1,10,4,
Tenderloin Pit Stop - 388 Ellis St.,3030523878267059460,restroom,0,0,0,0,37.7850978,-122.4125547,388 Ellis St.,San Francisco,CA,,,publicly_accessible,,,,,pit_stop,POINT (-122.4125547 37.7850978),5,Tenderloin,2024/10/10 10:39:51 AM,2024/10/10 10:40:59 AM,20,5,10,36,
Golden Gate Park - Section 6 - Drinking Fountain/Cooler,628197441678563301,drinking_water,1,1,0,0,37.767355349999995,-122.50800821,501 Stanyan St,San Francisco,CA,94121,Golden Gate Park - Section 6,publicly_accessible,08:00:00,20:00:00,Daily,,rec,POINT (-122.508008213 37.767355354),4,Golden Gate Park,2024/07/23 12:28:50 PM,2024/10/10 10:40:59 AM,9,8,4,12,234
John McLaren Park - Drinking Fountain/Cooler,1327710262483953289,drinking_water,1,0,0,1,37.722146679999994,-122.42056918,,San Francisco,CA,94134,John McLaren Park,publicly_accessible,08:00:00,20:00:00,Daily,,rec,POINT (-122.420569176 37.722146679),9,McLaren Park,2024/07/23 12:28:50 PM,2024/10/10 10:40:59 AM,73,9,2,19,7
Noe Valley Courts - Drinking Fountain/Cooler,3686054069719958044,drinking_water,1,0,0,1,37.75145345999999,-122.43894561,780 Douglass St,San Francisco,CA,94114,Noe Valley Courts,publicly_accessible,08:00:00,20:00:00,Daily,,rec,POINT (-122.43894561 37.751453464),8,Noe Valley,2024/07/23 12:28:50 PM,2024/10/10 10:40:59 AM,51,3,5,22,132
GGP 5 Dog Play Area Drinking Fountain,7834043859251726930,drinking_water,1,0,0,0,37.77074543,-122.49897684000001,,San Francisco,CA,,Golden Gate Park - Section 5,publicly_accessible,08:00:00,20:00:00,Daily,,rec,POINT (-122.498976839 37.770745435),1,Golden Gate Park,2024/07/23 12:28:50 PM,2024/10/10 10:40:59 AM,9,8,4,12,233
Park Branch Library,3072352331007374856,drinking_water,1,0,0,0,37.770135518000075,-122.45100115999998,1833 Page St,San Francisco,CA,94117,,limited_access,,,Daily,"opening_hours = [""Sunday:13:00-17:00"",""Monday:12:00-18:00"",""Tuesday:10:00-20:00"",""Wednesday:12:00-20:00"",""Thursday:10:00-18:00"",""Friday:13:00-18:00"",""Saturday:10:00-18:00"",""Total Weekly Hours:49""]",library,POINT (-122.45100116 37.770135518),5,Haight Ashbury,2024/10/10 10:24:00 AM,2024/10/10 10:40:59 AM,25,7,11,3,
Golden Gate Park - Section 1 - Drinking Fountain/Cooler,5648724289261303461,drinking_water,1,0,0,0,37.7662457,-122.45578886,501 Stanyan St,San Francisco,CA,94117,Golden Gate Park - Section 1,publicly_accessible,08:00:00,20:00:00,Daily,,rec,POINT (-122.455788858 37.766245704),5,Golden Gate Park,2024/07/23 12:28:50 PM,2024/10/10 10:40:59 AM,9,7,11,12,229
Embarcadero Pit Stop - Embarcadero Plaza (JCDecaux),7227832692528728198,restroom,0,0,0,0,37.7946278,-122.394598,Embarcadero Plaza (JCDecaux),San Francisco,CA,,Embarcadero Plaza,publicly_accessible,,,,,pit_stop,POINT (-122.394598 37.7946278),3,Financial District/South Beach,2024/10/10 10:39:51 AM,2024/10/10 10:40:59 AM,108,6,3,8,58
Heron's Head Eco Center,8218204447177500715,restroom,0,0,0,0,37.739739593729915,-122.37539271248393,32 Jennings St,San Francisco,CA,94124,Heron's Head Park,publicly_accessible,08:00:00,20:00:00,Daily,,rec,POINT (-122.375392712 37.739739594),10,Bayview Hunters Point,2024/08/13 04:58:33 PM,2024/10/10 10:40:59 AM,56,2,9,1,238
Alamo Square - Alamo Path Drinking Fountain,8002383730389010013,drinking_water,1,1,0,0,37.77667455,-122.43390500999999,1081 Fulton St,San Francisco,CA,94117,Alamo Square,publicly_accessible,08:00:00,20:00:00,Daily,,rec,POINT (-122.433905006 37.776674548),5,Hayes Valley,2024/07/23 12:28:50 PM,2024/10/10 10:40:59 AM,23,4,11,9,67
Mid-Market Pit Stop - Hallidie Plaza (JCDecaux),3464628251007818350,restroom,0,0,0,0,37.7844142,-122.4077797,Hallidie Plaza (JCDecaux),San Francisco,CA,,,publicly_accessible,,,,,pit_stop,POINT (-122.4077797 37.7844142),3,Tenderloin,2024/10/10 10:39:51 AM,2024/10/10 10:40:59 AM,19,5,3,36,
Ball Diamond 1 Grandstand,4785327987590003465,restroom,0,0,0,0,37.71497368960945,-122.43183192135574,799 Moscow St,San Francisco,CA,94134,Crocker Amazon Playground,publicly_accessible,08:00:00,20:00:00,Daily,,rec,POINT (-122.431831921 37.71497369),11,Excelsior,2024/08/13 04:58:33 PM,2024/10/10 10:40:59 AM,58,9,1,7,158
Drinking Fountain,4210387750721334992,drinking_water,1,0,0,0,37.76807813,-122.45792483999999,,San Francisco,CA,,Golden Gate Park - Section 7,publicly_accessible,08:00:00,20:00:00,Daily,,rec,POINT (-122.45792484 37.768078131),7,Golden Gate Park,2024/07/23 12:28:50 PM,2024/10/10 10:40:59 AM,9,7,11,12,228
Palega Playground - Drinking Fountain/Cooler,6120701658645366153,drinking_water,1,0,0,0,37.729253729999996,-122.40981944,500 Felton St,San Francisco,CA,94134,Palega Playground,publicly_accessible,08:00:00,20:00:00,Daily,,rec,POINT (-122.409819441 37.729253728),9,Portola,2024/07/23 12:28:50 PM,2024/10/10 10:40:59 AM,91,2,2,25,130
Drinking Fountain,8991236859993836476,drinking_water,1,1,0,0,37.712428020000004,-122.48940364,,San Francisco,CA,,Lake Merced Park,publicly_accessible,08:00:00,20:00:00,Daily,,rec,POINT (-122.489403641 37.712428023),7,Lakeshore,2024/07/23 12:28:50 PM,2024/10/10 10:40:59 AM,43,10,8,16,2
Harbormasters Office (Old),7962380904655295790,restroom,0,0,0,0,37.806636336844214,-122.44262145562115,1 Marina Green Dr,San Francisco,CA,94123,Yacht Harbor and Marina Green,limited_access,08:00:00,20:00:00,Daily,,rec,POINT (-122.442621456 37.806636337),,Marina,2024/08/13 04:58:33 PM,2024/10/10 10:40:59 AM,17,4,6,13,90
Grattan Playground - Drinking Fountain/Cooler,1279635630899268022,drinking_water,1,0,0,0,37.76261998,-122.4517025,1180 Stanyan St,San Francisco,CA,94117,Grattan Playground,publicly_accessible,08:00:00,20:00:00,Daily,,rec,POINT (-122.451702496 37.762619979),8,Haight Ashbury,2024/07/23 12:28:50 PM,2024/10/10 10:40:59 AM,114,7,11,3,172
Margaret S.Hayward Playground - Drinking Fountain/Cooler,4100181385703833687,drinking_water,1,0,0,0,37.78126338,-122.42519371,1016 Laguna St,San Francisco,CA,94102,Margaret S.Hayward Playground,publicly_accessible,08:00:00,20:00:00,Daily,,rec,POINT (-122.425193707 37.781263381),5,Western Addition,2024/07/23 12:28:50 PM,2024/10/10 10:40:59 AM,100,4,11,39,140
Excelsior Playground - Drinking Fountain/Cooler,269054845253547416,drinking_water,1,1,0,0,37.72008416,-122.43381225,579 Madrid St,San Francisco,CA,94112,Excelsior Playground,limited_access,08:00:00,20:00:00,Daily,,rec,POINT (-122.43381225 37.720084158),11,Excelsior,2024/07/23 12:28:50 PM,2024/10/10 10:40:59 AM,90,9,1,7,161
"Pier 45, Shed A",6920006118133311026,restroom,0,0,0,0,37.809195,-122.416145,43 The Embarcadero,San Francisco,CA,94107,,limited_access,08:00:00,20:00:00,Daily,Inside Shed A,port,POINT (-122.416145 37.809195),3,North Beach,2024/10/04 01:51:23 PM,2024/10/10 10:40:59 AM,99,6,3,23,
Drinking Fountain,2678105753102733774,drinking_water,1,0,0,0,37.76845382,-122.45704846,,San Francisco,CA,,Golden Gate Park - Section 7,limited_access,08:00:00,20:00:00,Daily,,rec,POINT (-122.457048464 37.768453819),7,Golden Gate Park,2024/07/23 12:28:50 PM,2024/10/10 10:40:59 AM,9,7,11,12,228
Kimball Children's Play Area Drinking Fountain,9212190466133808116,drinking_water,1,0,0,0,37.78370469,-122.43508311000001,,San Francisco,CA,,Raymond Kimball Playground,publicly_accessible,08:00:00,20:00:00,Daily,,rec,POINT (-122.435083107 37.783704692),5,Western Addition,2024/07/23 12:28:50 PM,2024/10/10 10:40:59 AM,97,4,11,39,123
Restrooms,5508388075150035682,restroom,0,0,0,0,37.794611401480445,-122.40563810471431,745 Kearny St,San Francisco,CA,94108,Portsmouth Square,publicly_accessible,08:00:00,20:00:00,Daily,,rec,POINT (-122.405638105 37.794611401),3,Chinatown,2024/08/13 04:58:33 PM,2024/10/10 10:40:59 AM,104,6,3,6,127
John McLaren Park - Drinking Fountain/Cooler,1954850550025343093,drinking_water,1,0,0,0,37.72368986,-122.42308908,,San Francisco,CA,94134,John McLaren Park,publicly_accessible,08:00:00,20:00:00,Daily,,rec,POINT (-122.423089082 37.723689856),11,McLaren Park,2024/07/23 12:28:50 PM,2024/10/10 10:40:59 AM,73,9,2,19,7
Joseph L. Alioto Performing Arts Piazza - Drinking Fountain/Cooler,3510826272327774456,drinking_water,1,0,0,0,37.77916554,-122.41722141999999,355 McAllister St,San Francisco,CA,94102,Joseph L. Alioto Performing Arts Piazza,limited_access,08:00:00,20:00:00,Daily,,rec,POINT (-122.417221416 37.779165536),5,Tenderloin,2024/07/23 12:28:50 PM,2024/10/10 10:40:59 AM,21,4,10,36,57
Mountain Lake Park - Drinking Fountain/Cooler,2178033583573966877,drinking_water,1,0,0,0,37.78685501,-122.47042907,1 11th Ave,San Francisco,CA,94118,Mountain Lake Park,publicly_accessible,08:00:00,20:00:00,Daily,,rec,POINT (-122.470429066 37.786855006),1,Inner Richmond,2024/07/23 12:28:50 PM,2024/10/10 10:40:59 AM,4,,6,11,134
Rec Center,8684433271334846443,restroom,0,0,0,0,37.71630766055233,-122.4574613171202,650 Capitol Ave,San Francisco,CA,94112,Minnie and Lovie Rec Center,publicly_accessible,08:00:00,20:00:00,Daily,,rec,POINT (-122.457461317 37.716307661),11,Oceanview/Merced/Ingleside,2024/09/06 03:41:57 PM,2024/10/10 10:40:59 AM,81,10,1,24,89
Mission Pit Stop - 344 14th St.,2466058572733021801,restroom,0,0,0,0,37.7682576,-122.4210014,344 14th St.,San Francisco,CA,,,publicly_accessible,,,,,pit_stop,POINT (-122.4210014 37.7682576),9,Mission,2024/10/10 10:39:51 AM,2024/10/10 10:40:59 AM,53,3,2,20,
Margaret S.Hayward Playground - Drinking Fountain/Cooler,3801181406155987241,drinking_water,1,0,0,0,37.780785470000005,-122.42681556,1016 Laguna St,San Francisco,CA,94102,Margaret S.Hayward Playground,publicly_accessible,08:00:00,20:00:00,Daily,,rec,POINT (-122.426815562 37.780785467),5,Western Addition,2024/07/23 12:28:50 PM,2024/10/10 10:40:59 AM,100,4,11,39,140
Richmond Playground Clubhouse,6357395550513127096,restroom,0,0,0,0,37.78532679622686,-122.47796162062481,149 18th Ave,San Francisco,CA,94121,Richmond Playground,publicly_accessible,08:00:00,20:00:00,Daily,,rec,POINT (-122.477961621 37.785326796),1,Outer Richmond,2024/08/13 04:58:33 PM,2024/10/10 10:40:59 AM,2,8,4,29,122
Kid Power Park - Drinking Fountain/Cooler,4490862356891797241,drinking_water,1,0,0,0,37.76416757,-122.42024527999999,45 Hoff Street,San Francisco,CA,94110,Kid Power Park,publicly_accessible,08:00:00,20:00:00,Daily,,rec,POINT (-122.420245278 37.764167571),9,Mission,2024/07/23 12:28:50 PM,2024/10/10 10:40:59 AM,53,3,2,20,185
Bottle filler,7738573487906612324,drinking_water,1,1,0,0,37.769184296810465,-122.50650309613326,,San Francisco,CA,,Golden Gate Park - Section 6,publicly_accessible,08:00:00,20:00:00,Daily,,rec,POINT (-122.506503096 37.769184297),1,Golden Gate Park,2024/08/05 11:36:41 AM,2024/10/10 10:40:59 AM,9,8,4,12,234
Betty Ann Ong Chinese Rec Center - Drinking Fountain/Cooler,5857657940836077521,drinking_water,1,0,0,0,37.7942912,-122.41169416000001,1101 Washington St,San Francisco,CA,94108,Betty Ann Ong Chinese Rec Center,publicly_accessible,08:00:00,20:00:00,Daily,,rec,POINT (-122.411694162 37.794291195),3,Nob Hill,2024/07/23 12:28:50 PM,2024/10/10 10:40:59 AM,16,6,3,21,155
Crocker Amazon Clubhouse,7495279004308334249,restroom,0,0,0,0,37.71521921017252,-122.43182548843647,799 Moscow St,San Francisco,CA,94134,Crocker Amazon Playground,publicly_accessible,08:00:00,20:00:00,Daily,,rec,POINT (-122.431825488 37.71521921),11,Excelsior,2024/08/13 04:58:33 PM,2024/10/10 10:40:59 AM,58,9,1,7,158
Crane Cove Park,3854442721173284396,out_of_service,0,0,0,0,37.76302,-122.38734,701 Illinois St,San Francisco,CA,94107,,limited_access,,,Daily,,port,POINT (-122.38734 37.76302),10,Potrero Hill,2024/10/04 01:51:23 PM,2024/10/10 10:40:59 AM,56,2,9,26,
Hellman Hollow Restrooms,1104549236511730505,restroom,0,0,0,0,37.76953475824801,-122.48470587714614,501 Stanyan St,San Francisco,CA,94122,Golden Gate Park - Section 5,publicly_accessible,08:00:00,20:00:00,Daily,,rec,POINT (-122.484705877 37.769534758),4,Golden Gate Park,2024/08/21 02:15:01 PM,2024/10/10 10:40:59 AM,9,8,4,12,233
Fulton Playground - Drinking Fountain/Cooler,5158768580997503181,drinking_water,1,0,0,0,37.773527879999996,-122.48698761,855 27th Ave,San Francisco,CA,94121,Fulton Playground,publicly_accessible,08:00:00,20:00:00,Daily,,rec,POINT (-122.48698761 37.773527876),1,Outer Richmond,2024/07/23 12:28:50 PM,2024/10/10 10:40:59 AM,8,8,4,29,210
Tennis Center Bottle filling station,1763700038536299144,drinking_water,1,1,0,0,37.770577689999996,-122.45868065,,San Francisco,CA,,Golden Gate Park - Section 7,publicly_accessible,08:00:00,20:00:00,Daily,,rec,POINT (-122.458680654 37.770577685),7,Golden Gate Park,2024/07/23 12:28:50 PM,2024/10/10 10:40:59 AM,9,7,11,12,228
Willie Woo Woo Wong Clubhouse,833784527962744172,restroom,0,0,0,0,37.793628709866944,-122.40704782153728,850 Sacramento St,San Francisco,CA,94108,Willie Woo Woo Wong Playground,publicly_accessible,08:00:00,20:00:00,Daily,,rec,POINT (-122.407047822 37.79362871),3,Chinatown,2024/08/13 04:58:33 PM,2024/10/10 10:40:59 AM,104,6,3,6,92
South Sunset Clubhouse,7164518970109990344,restroom,0,0,0,0,37.73806926327971,-122.49828821730263,2601 40th Ave,San Francisco,CA,94116,South Sunset Playground,publicly_accessible,08:00:00,20:00:00,Daily,,rec,POINT (-122.498288217 37.738069263),4,Sunset/Parkside,2024/08/13 04:58:33 PM,2024/10/10 10:40:59 AM,40,10,7,35,110
Palega Rec Center,1380573470462414493,restroom,0,0,0,0,37.729207014099,-122.4097418452673,500 Felton St,San Francisco,CA,94134,Palega Playground,publicly_accessible,08:00:00,20:00:00,Daily,,rec,POINT (-122.409741845 37.729207014),9,Portola,2024/08/13 05:16:30 PM,2024/10/10 10:40:59 AM,91,2,2,25,130
SoMa Pit Stop - 6th and Natoma streets,6442859660123884493,restroom,0,0,0,0,37.780182,-122.4077046,6th and Natoma streets,San Francisco,CA,,,publicly_accessible,,,,,pit_stop,POINT (-122.4077046 37.780182),6,South of Market,2024/10/10 10:39:51 AM,2024/10/10 10:40:59 AM,32,1,10,34,
Gilman Playground - Drinking Fountain/Cooler,4640748991048917971,drinking_water,1,0,0,0,37.71732522,-122.38717890000001,993 Gilman Ave,San Francisco,CA,94124,Gilman Playground,publicly_accessible,08:00:00,20:00:00,Daily,,rec,POINT (-122.387178896 37.717325224),10,Bayview Hunters Point,2024/07/23 12:28:50 PM,2024/10/10 10:40:59 AM,88,2,9,1,169
Port of San Francisco,2480114164880190808,restroom,0,0,0,0,37.79689,-122.39505,Pier 1 on the Embarcadero,San Francisco,CA,94111,,limited_access,08:00:00,17:30:00,Daily,Inside Pier 1,port,POINT (-122.39505 37.79689),3,Financial District/South Beach,2024/10/04 01:51:23 PM,2024/10/10 10:40:59 AM,77,6,3,8,
Noe Square Restrooms,4386513455603161526,restroom,0,0,0,0,37.7512702164513,-122.42884463564263,3861 24th St,San Francisco,CA,94114,Noe Valley Town Square,publicly_accessible,08:00:00,20:00:00,Daily,,rec,POINT (-122.428844636 37.751270216),8,Noe Valley,2024/10/09 03:33:11 PM,2024/10/10 10:40:59 AM,84,3,5,22,191
Grattan Clubhouse,4454891534355363438,restroom,0,0,0,0,37.76275999979258,-122.45197359512166,1180 Stanyan St,San Francisco,CA,94117,Grattan Playground,publicly_accessible,08:00:00,20:00:00,Daily,,rec,POINT (-122.451973595 37.76276),8,Haight Ashbury,2024/08/13 04:58:33 PM,2024/10/10 10:40:59 AM,114,7,11,3,172
Richmond Playground - Drinking Fountain/Cooler,1826105761785423873,drinking_water,1,0,0,0,37.78521182,-122.47790053,149 18th Ave,San Francisco,CA,94121,Richmond Playground,publicly_accessible,08:00:00,20:00:00,Daily,,rec,POINT (-122.477900525 37.785211819),1,Outer Richmond,2024/07/23 12:28:50 PM,2024/10/10 10:40:59 AM,2,8,4,29,122
Golden Gate Park - Section 6 - Drinking Fountain/Cooler,8316744123133191422,drinking_water,1,1,0,0,37.76718375,-122.50799350000001,501 Stanyan St,San Francisco,CA,94121,Golden Gate Park - Section 6,publicly_accessible,08:00:00,20:00:00,Daily,,rec,POINT (-122.5079935 37.767183752),4,Golden Gate Park,2024/07/23 12:28:50 PM,2024/10/10 10:40:59 AM,9,8,4,12,234
Pier 41,5833182095630630815,restroom,0,0,0,0,37.810489,-122.410821,Fishermans's Wharf,San Francisco,CA,94133,,publicly_accessible,07:00:00,22:00:00,Daily,Level 2 behind Swiss Louis,port,POINT (-122.410821 37.810489),3,North Beach,2024/10/04 01:51:23 PM,2024/10/10 10:40:59 AM,99,6,3,23,
Collis P. Huntington Park - Drinking Fountain/Cooler,186250953213713241,drinking_water,1,0,0,0,37.79207822,-122.41238227,1000 Taylor St,San Francisco,CA,94108,Collis P. Huntington Park,publicly_accessible,08:00:00,20:00:00,Daily,,rec,POINT (-122.412382269 37.792078223),3,Nob Hill,2024/07/23 12:28:50 PM,2024/10/10 10:40:59 AM,16,6,3,21,83
Exposition Space,8854434094038501850,restroom,0,0,0,0,37.80215891886645,-122.448793308729,3601 Lyon St,San Francisco,CA,94123,Palace of Fine Arts,publicly_accessible,08:00:00,20:00:00,Daily,,rec,POINT (-122.448793309 37.802158919),2,Marina,2024/08/13 04:58:33 PM,2024/10/10 10:40:59 AM,17,4,6,13,21
Rochambeau Clubhouse,3542277325770407957,restroom,0,0,0,0,37.78501370787081,-122.4845445288129,250 25th Ave,San Francisco,CA,94121,Rochambeau Playground,publicly_accessible,08:00:00,20:00:00,Daily,,rec,POINT (-122.484544529 37.785013708),1,Outer Richmond,2024/08/13 04:58:33 PM,2024/10/10 10:40:59 AM,2,8,4,29,25
Eureka Valley Rec Center - Drinking Fountain/Cooler,1867991016691673483,drinking_water,1,0,0,0,37.75991576,-122.43629271,100 Collingwood St,San Francisco,CA,94114,Eureka Valley Rec Center,publicly_accessible,08:00:00,20:00:00,Daily,,rec,POINT (-122.436292709 37.759915763),8,Castro/Upper Market,2024/07/23 12:28:50 PM,2024/10/10 10:40:59 AM,38,3,5,5,208
J.P. Murphy Playground - Drinking Fountain/Cooler,8972167931162373613,drinking_water,1,0,0,0,37.7515454,-122.46518978,1960 9th Ave,San Francisco,CA,94116,J.P. Murphy Playground,publicly_accessible,08:00:00,20:00:00,Daily,,rec,POINT (-122.465189783 37.751545398),7,Inner Sunset,2024/07/23 12:28:50 PM,2024/10/10 10:40:59 AM,45,10,8,14,178
Marina Green West Restroom,2186057952105917473,restroom,0,0,0,0,37.80567366353541,-122.44826248305823,1 Marina Green Dr,San Francisco,CA,94123,Yacht Harbor and Marina Green,publicly_accessible,08:00:00,20:00:00,Daily,,rec,POINT (-122.448262483 37.805673664),2,Marina,2024/08/13 04:58:33 PM,2024/10/10 10:40:59 AM,17,4,6,13,90
Restroom,6039249465726437224,restroom,0,0,0,0,37.738337578210796,-122.48372258791242,2680 28th Ave,San Francisco,CA,94132,Parkside Square,publicly_accessible,08:00:00,20:00:00,Daily,,rec,POINT (-122.483722588 37.738337578),4,Sunset/Parkside,2024/08/13 04:58:33 PM,2024/10/10 10:40:59 AM,40,10,7,35,217
Conservatory Restrooms,1863141825000065385,restroom,0,0,0,0,37.772607110210295,-122.46078915493447,501 Stanyan St,San Francisco,CA,94122,Golden Gate Park - Section 3,publicly_accessible,08:00:00,20:00:00,Daily,,rec,POINT (-122.460789155 37.77260711),1,Golden Gate Park,2024/08/21 02:15:01 PM,2024/10/10 10:40:59 AM,9,7,4,12,231
Booker T Washington Community Center,3961536016987241368,drinking_water,0,1,0,0,37.78413,-122.446083,820 Presidio Ave,San Francisco,CA,94115,,publicly_accessible,,,Daily,,puc,POINT (-122.446083 37.78413),5,Presidio Heights,2024/06/27 01:43:12 PM,2024/10/10 10:40:59 AM,103,8,11,31,
Ferry Buiding #2,5810037219590600417,restroom,0,0,0,0,37.79542,-122.39363,1 Ferry Building,San Francisco,CA,94111,,limited_access,07:00:00,22:00:00,Daily,On each end of the building,port,POINT (-122.39363 37.79542),3,Financial District/South Beach,2024/10/04 01:51:23 PM,2024/10/10 10:40:59 AM,108,6,3,8,
Restrooms,4704538265672570801,restroom,0,0,0,0,37.77236922545648,-122.44763869311575,501 Stanyan St,San Francisco,CA,94117,Golden Gate Park - Section 1,publicly_accessible,08:00:00,20:00:00,Daily,,rec,POINT (-122.447638693 37.772369225),5,Golden Gate Park,2024/08/21 02:15:01 PM,2024/10/10 10:40:59 AM,24,7,11,12,229
DiMaggio Path Drinking Fountain,4373518007282885684,drinking_water,1,0,0,0,37.802613,-122.41204768,,San Francisco,CA,,Joe DiMaggio Playground,publicly_accessible,08:00:00,20:00:00,Daily,,rec,POINT (-122.412047678 37.802612999),3,North Beach,2024/07/23 12:28:50 PM,2024/10/10 10:40:59 AM,106,6,3,23,195
Mission Pit Stop - 24th and Mission (JCDecaux),428360424932887128,restroom,0,0,0,0,37.7521752,-122.4185771,24th and Mission (JCDecaux),San Francisco,CA,,,publicly_accessible,,,,,pit_stop,POINT (-122.4185771 37.7521752),9,Mission,2024/10/10 10:39:51 AM,2024/10/10 10:40:59 AM,53,3,2,20,
Alioto Mini Park - Drinking Fountain/Cooler,1454139694767243355,drinking_water,1,0,0,0,37.758993849999996,-122.41823059,3460 20th St,San Francisco,CA,94110,Alioto Mini Park,limited_access,08:00:00,20:00:00,Daily,,rec,POINT (-122.41823059 37.758993853),9,Mission,2024/07/23 12:28:50 PM,2024/10/10 10:40:59 AM,53,3,2,20,147
Earl's Organic,8380650283006083838,drinking_water,0,1,1,0,37.744233,-122.398524,2102 Jerrold Ave,San Francisco,CA,94124,,publicly_accessible,,,Daily,,puc,POINT (-122.398524 37.744233),10,Bayview Hunters Point,2024/06/27 01:43:12 PM,2024/10/10 10:40:59 AM,85,2,9,1,
Drinking Fountain,3771773153208297311,drinking_water,1,1,0,0,37.71770229,-122.47036815,,San Francisco,CA,,Merced Heights Playground,publicly_accessible,08:00:00,20:00:00,Daily,,rec,POINT (-122.470368154 37.717702294),11,Oceanview/Merced/Ingleside,2024/07/23 12:28:50 PM,2024/10/10 10:40:59 AM,65,10,1,24,138
Golden Gate Heights Park - Drinking Fountain/Cooler,6254290286384879348,drinking_water,1,0,0,1,37.75014593,-122.46853687000001,2041 12th Ave,San Francisco,CA,94116,Golden Gate Heights Park,publicly_accessible,08:00:00,20:00:00,Daily,,rec,POINT (-122.468536867 37.750145934),7,Inner Sunset,2024/07/23 12:28:50 PM,2024/10/10 10:40:59 AM,44,10,8,14,48
Sava Pool,6788309698376928324,restroom,0,0,0,0,37.738477671991625,-122.47587521123421,2695 19th Ave,San Francisco,CA,94116,Carl Larsen Park,publicly_accessible,08:00:00,20:00:00,Daily,,rec,POINT (-122.475875211 37.738477672),4,Sunset/Parkside,2024/08/20 12:09:34 PM,2024/10/10 10:40:59 AM,40,10,7,35,154
Matthew Boxer Stadium,8899937437357167847,restroom,0,0,0,0,37.72617621720311,-122.44515610209349,51 Havelock St,San Francisco,CA,94112,Balboa Park,publicly_accessible,08:00:00,20:00:00,Daily,,rec,POINT (-122.445156102 37.726176217),11,Outer Mission,2024/08/20 12:09:34 PM,2024/10/10 10:40:59 AM,94,9,1,28,76
Pier 39,3249569504867891889,restroom,0,0,0,0,37.80914,-122.409882,2 Beach st,San Francisco,CA,94133,,publicly_accessible,07:00:00,22:00:00,Daily,Level 1 by Lids,port,POINT (-122.409882 37.80914),3,North Beach,2024/10/04 01:51:23 PM,2024/10/10 10:40:59 AM,99,6,3,23,
Drinking Fountain/Cooler,8488095972755365435,drinking_water,1,1,0,0,37.75150115,-122.42887883,,San Francisco,CA,,Noe Valley Town Square,publicly_accessible,08:00:00,20:00:00,Daily,,rec,POINT (-122.428878831 37.751501145),8,Noe Valley,2024/07/23 12:28:50 PM,2024/10/10 10:40:59 AM,84,3,5,22,191
Palega Playground - Drinking Fountain/Cooler,5191082697044474360,drinking_water,1,0,0,0,37.72890703,-122.40968717,500 Felton St,San Francisco,CA,94134,Palega Playground,limited_access,08:00:00,20:00:00,Daily,,rec,POINT (-122.40968717 37.728907033),9,Portola,2024/07/23 12:28:50 PM,2024/10/10 10:40:59 AM,91,2,2,25,130
Pine Lake Park Clubhouse,2223355946498313310,restroom,0,0,0,0,37.735993787219805,-122.48720705541815,200 Crestlake Dr,San Francisco,CA,94132,Pine Lake Park,publicly_accessible,08:00:00,20:00:00,Daily,,rec,POINT (-122.487207055 37.735993787),4,Sunset/Parkside,2024/08/13 04:58:33 PM,2024/10/10 10:40:59 AM,40,10,7,35,218
Oracle Park,4973141222634535716,restroom,1,0,0,0,37.778694,-122.387639,"Giants Promenade, 24 Willie Mays Plaza",San Francisco,CA,94107,,publicly_accessible,,,Special Events,Outside Seal Plaza,port,POINT (-122.387639 37.778694),6,Mission Bay,2024/10/04 01:51:23 PM,2024/10/10 10:40:59 AM,31,1,10,4,
Drinking Fountain/Cooler,9108482967987892516,drinking_water,1,0,0,0,37.7773695,-122.40646208000001,,San Francisco,CA,,Victoria Manalo Draves Park,publicly_accessible,08:00:00,20:00:00,Daily,,rec,POINT (-122.406462083 37.777369503),6,South of Market,2024/07/23 12:28:50 PM,2024/10/10 10:40:59 AM,32,1,10,34,98
Merced Heights Playground - Drinking Fountain/Cooler,2599167559774870578,drinking_water,1,0,0,0,37.717670209999994,-122.47010351,801 Shields St,San Francisco,CA,94132,Merced Heights Playground,publicly_accessible,08:00:00,20:00:00,Daily,,rec,POINT (-122.470103507 37.717670212),11,Oceanview/Merced/Ingleside,2024/07/23 12:28:50 PM,2024/10/10 10:40:59 AM,65,10,1,24,138
Washington Square - Drinking Fountain/Cooler,2932039806164345859,drinking_water,1,1,0,0,37.80103016,-122.41062974,600 Columbus Ave,San Francisco,CA,94133,Washington Square,publicly_accessible,08:00:00,20:00:00,Daily,,rec,POINT (-122.410629743 37.801030161),3,North Beach,2024/07/23 12:28:50 PM,2024/10/10 10:40:59 AM,106,6,3,23,94
Mens Bathroom,5336850396317708804,restroom,0,0,0,0,37.770445860001146,-122.46944607610232,,San Francisco,CA,94118,Golden Gate Park - Section 2,publicly_accessible,08:00:00,20:00:00,Daily,,rec,POINT (-122.469446076 37.77044586),7,Golden Gate Park,2024/08/21 02:15:01 PM,2024/10/10 10:40:59 AM,9,8,4,12,235
Youngblood Coleman Restrooms,19246328287066793,restroom,0,0,0,0,37.73921038144877,-122.3857311173451,1398 Hudson Ave,San Francisco,CA,94124,Youngblood-Coleman Playground,publicly_accessible,08:00:00,20:00:00,Daily,,rec,POINT (-122.385731117 37.739210381),10,Bayview Hunters Point,2024/08/13 04:58:33 PM,2024/10/10 10:40:59 AM,86,2,9,1,224
Douglass Dog Play Area Drinking Fountain,1554883251294046215,drinking_water,1,0,0,0,37.74642884,-122.43829271999999,,San Francisco,CA,,Douglass Playground,publicly_accessible,08:00:00,20:00:00,Daily,,rec,POINT (-122.438292718 37.746428844),8,Noe Valley,2024/07/23 12:28:50 PM,2024/10/10 10:40:59 AM,57,3,5,22,206
Adam Rodgers Park - Drinking fountain,6195742171510388323,drinking_water,1,0,0,0,37.73083874,-122.38377727000001,1215 Quesada Ave,San Francisco,CA,94124,Adam Rodgers Park,publicly_accessible,08:00:00,20:00:00,Daily,,rec,POINT (-122.383777267 37.730838741),10,Bayview Hunters Point,2024/10/01 05:06:30 PM,2024/10/10 10:40:59 AM,86,2,9,1,146
Camp Mather - Drinking fountain,6895561022529716640,drinking_water,1,0,0,0,37.879441379999996,-119.8540079,32560 Mather Road,San Francisco,CA,95321,Camp Mather,publicly_accessible,08:00:00,20:00:00,Daily,,rec,POINT (-119.854007906 37.879441332),,,2024/08/19 09:47:28 AM,2024/10/10 10:40:59 AM,,,,,50
Goldman Restrooms,5975078172278772254,restroom,0,0,0,0,37.73559816229882,-122.478895784974,2899 19th Ave,San Francisco,CA,94132,Sigmund Stern Recreation Grove,publicly_accessible,08:00:00,20:00:00,Daily,,rec,POINT (-122.478895785 37.735598162),4,Sunset/Parkside,2024/08/13 04:58:33 PM,2024/10/10 10:40:59 AM,40,10,7,35,112
Ferry Building,7030273931982775170,drinking_water,1,1,0,0,37.79542,-122.39363,1 Ferry Building,San Francisco,CA,94111,,limited_access,07:00:00,22:00:00,Daily,2 by the public bathrooms,port,POINT (-122.39363 37.79542),3,Financial District/South Beach,2024/10/04 01:51:23 PM,2024/10/10 10:40:59 AM,108,6,3,8,
Lake Merced Boathouse,4000040349104825380,restroom,0,0,0,0,37.72547563901899,-122.49936477572166,1 Harding Rd,San Francisco,CA,94132,Lake Merced Park,limited_access,08:00:00,20:00:00,Daily,,rec,POINT (-122.499364776 37.725475639),7,Lakeshore,2024/08/21 02:15:01 PM,2024/10/10 10:40:59 AM,43,10,8,16,2
Park Aid Station,2135114861101079118,restroom,0,0,0,0,37.76698914381392,-122.45335127496453,501 Stanyan St,San Francisco,CA,94117,Golden Gate Park - Section 1,limited_access,08:00:00,20:00:00,Daily,,rec,POINT (-122.453351275 37.766989144),5,Golden Gate Park,2024/08/21 02:15:01 PM,2024/10/10 10:40:59 AM,9,7,11,12,229
Silver Terrace Clubhouse,502295565233411923,restroom,0,0,0,0,37.732517086819065,-122.40239900743153,1700 Silver Ave,San Francisco,CA,94124,Silver Terrace Playground,publicly_accessible,08:00:00,20:00:00,Daily,,rec,POINT (-122.402399007 37.732517087),10,Bayview Hunters Point,2024/08/13 04:58:33 PM,2024/10/10 10:40:59 AM,87,2,9,1,111
Duboce Park - Drinking Fountain/Cooler,2327016124138374279,drinking_water,1,0,0,0,37.76940612,-122.43356965999999,50 Scott St,San Francisco,CA,94117,Duboce Park,limited_access,08:00:00,20:00:00,Daily,,rec,POINT (-122.433569661 37.769406116),8,Haight Ashbury,2024/07/23 12:28:50 PM,2024/10/10 10:40:59 AM,28,7,5,3,159
McCoppin Square - Drinking Fountain/Cooler,6559692620526371061,drinking_water,1,0,0,0,37.743363849999994,-122.48072332,2354 24th Ave,San Francisco,CA,94116,McCoppin Square,publicly_accessible,08:00:00,20:00:00,Daily,,rec,POINT (-122.480723318 37.74336385),4,Sunset/Parkside,2024/07/23 12:28:50 PM,2024/10/10 10:40:59 AM,40,10,7,35,139
Betty Ann Ong Rec Center,5531017763005755967,restroom,0,0,0,0,37.79427381465304,-122.41169060223633,1101 Washington St,San Francisco,CA,94108,Betty Ann Ong Chinese Rec Center,publicly_accessible,08:00:00,20:00:00,Daily,,rec,POINT (-122.411690602 37.794273815),3,Nob Hill,2024/08/13 05:16:30 PM,2024/10/10 10:40:59 AM,16,6,3,21,155
John McLaren Park - Drinking Fountain/Cooler,711898152290323530,drinking_water,1,0,0,0,37.723254839999996,-122.42086563,,San Francisco,CA,94134,John McLaren Park,publicly_accessible,08:00:00,20:00:00,Daily,,rec,POINT (-122.420865626 37.723254836),11,McLaren Park,2024/07/23 12:28:50 PM,2024/10/10 10:40:59 AM,73,9,2,19,7
Kezar Turf Drinking fountain,4253351926956032222,drinking_water,1,1,0,0,37.7672486,-122.45680307,,San Francisco,CA,,Golden Gate Park - Section 1,publicly_accessible,08:00:00,20:00:00,Daily,,rec,POINT (-122.456803067 37.767248599),5,Golden Gate Park,2024/07/23 12:28:50 PM,2024/10/10 10:40:59 AM,9,7,11,12,229
Restrooms,3716887207824175655,restroom,0,0,0,0,37.72556145806361,-122.39303328506477,5701 3rd St,San Francisco,CA,94124,Bayview K.C. Jones Playground,publicly_accessible,08:00:00,20:00:00,Daily,,rec,POINT (-122.393033285 37.725561458),10,Bayview Hunters Point,2024/08/13 04:58:33 PM,2024/10/10 10:40:59 AM,86,2,9,1,77
West Portal Clubhouse,1152567663852889285,restroom,0,0,0,0,37.74168341043762,-122.4653079501994,131 Lenox Way,San Francisco,CA,94127,West Portal Playground,publicly_accessible,08:00:00,20:00:00,Daily,,rec,POINT (-122.46530795 37.74168341),7,West of Twin Peaks,2024/08/13 04:58:33 PM,2024/10/10 10:40:59 AM,46,10,8,41,223
Drinking Fountain,5931616453319089424,drinking_water,1,0,0,0,37.76632514,-122.4665871,,San Francisco,CA,,Golden Gate Park - Section 3,publicly_accessible,08:00:00,20:00:00,Daily,,rec,POINT (-122.466587099 37.76632514),7,Golden Gate Park,2024/07/23 12:28:50 PM,2024/10/10 10:40:59 AM,9,8,11,12,231
Kezar Turf Drinking fountain,5784826082152239973,drinking_water,1,0,0,0,37.7669947,-122.45742194,,San Francisco,CA,,Golden Gate Park - Section 1,publicly_accessible,08:00:00,20:00:00,Daily,,rec,POINT (-122.457421938 37.766994701),5,Golden Gate Park,2024/07/23 12:28:50 PM,2024/10/10 10:40:59 AM,9,7,11,12,229
George Christopher Playground - Drinking Fountain/Cooler,4729792874879832224,drinking_water,1,0,0,0,37.744249249999996,-122.44036075,5210 Diamond Heights Blvd,San Francisco,CA,94131,George Christopher Playground,publicly_accessible,08:00:00,20:00:00,Daily,,rec,POINT (-122.440360749 37.744249255),8,Glen Park,2024/07/23 12:28:50 PM,2024/10/10 10:40:59 AM,57,9,5,10,168
Tenderloin Pit Stop - Eddy St. and Larkin St.,3686216189405644604,restroom,0,0,0,0,37.783353,-122.41769,Eddy St. and Larkin St.,San Francisco,CA,,,publicly_accessible,,,,,pit_stop,POINT (-122.41769 37.783353),5,Tenderloin,2024/10/10 10:39:51 AM,2024/10/10 10:40:59 AM,20,5,10,36,
North Beach Branch Library,7646533082011852694,drinking_water,1,0,0,0,37.80253081500007,-122.41313485899997,850 Columbus Ave,San Francisco,CA,94133,Joe DiMaggio Playground,limited_access,,,Daily,"opening_hours = [""Sunday:13:00-17:00"",""Monday:10:00-18:00"",""Tuesday:10:00-20:00"",""Wednesday:13:00-20:00"",""Thursday:10:00-18:00"",""Friday:13:00-18:00"",""Saturday:10:00-18:00"",""Total Weekly Hours:50""]",library,POINT (-122.413134859 37.802530815),3,North Beach,2024/10/10 10:24:00 AM,2024/10/10 10:40:59 AM,106,6,3,23,195
Golden Gate Park - Section 6 - Drinking Fountain/Cooler,5634100326179697879,drinking_water,1,1,0,0,37.76453532,-122.50499565000001,501 Stanyan St,San Francisco,CA,94121,Golden Gate Park - Section 6,publicly_accessible,08:00:00,20:00:00,Daily,,rec,POINT (-122.504995646 37.764535322),4,Golden Gate Park,2024/07/23 12:28:50 PM,2024/10/10 10:40:59 AM,9,8,4,12,234
Helen Wills Playground - Drinking Fountain/Cooler,6597428905192677987,drinking_water,1,0,0,0,37.79571824999999,-122.42048044,1401 Broadway,San Francisco,CA,94109,Helen Wills Playground,publicly_accessible,08:00:00,20:00:00,Daily,,rec,POINT (-122.420480438 37.795718247),3,Russian Hill,2024/07/23 12:28:50 PM,2024/10/10 10:40:59 AM,105,4,3,32,175
Restrooms,320724989229576998,restroom,0,0,0,0,37.73959728403332,-122.47617042256441,2695 19th Ave,San Francisco,CA,94116,Carl Larsen Park,publicly_accessible,08:00:00,20:00:00,Daily,,rec,POINT (-122.476170423 37.739597284),4,Sunset/Parkside,2024/08/13 04:58:33 PM,2024/10/10 10:40:59 AM,40,10,7,35,154
Tenderloin Pit Stop - 474 O'Farrell Street,3273606294984689376,restroom,0,0,0,0,37.7858991,-122.4119361,474 O'Farrell Street,San Francisco,CA,,,publicly_accessible,,,,,pit_stop,POINT (-122.4119361 37.7858991),5,Tenderloin,2024/10/10 10:39:51 AM,2024/10/10 10:40:59 AM,20,5,10,36,
Youngblood-Coleman Playground - Drinking Fountain/Cooler,6746984766898090342,drinking_water,1,0,0,0,37.73918599,-122.38562641,1398 Hudson Ave,San Francisco,CA,94124,Youngblood-Coleman Playground,publicly_accessible,08:00:00,20:00:00,Daily,,rec,POINT (-122.385626413 37.73918599),10,Bayview Hunters Point,2024/07/23 12:28:50 PM,2024/10/10 10:40:59 AM,86,2,9,1,224
Golden Gate Park - Section 5 - Drinking Fountain/Cooler,8101432552027504605,drinking_water,1,0,0,0,37.770232410000006,-122.49551831000001,501 Stanyan St,San Francisco,CA,94122,Golden Gate Park - Section 5,publicly_accessible,08:00:00,20:00:00,Daily,,rec,POINT (-122.495518309 37.770232413),1,Golden Gate Park,2024/07/23 12:28:50 PM,2024/10/10 10:40:59 AM,9,8,4,12,233
Southeast Community Center Restroom,2641768654156405405,restroom,0,0,0,0,37.7428,-122.387319,1550 Evans Ave,San Francisco,CA,94124,,limited_access,07:00:00,19:00:00,Weekdays,,puc,POINT (-122.387319 37.7428),10,Bayview Hunters Point,2024/06/27 01:43:12 PM,2024/10/10 10:40:59 AM,76,2,9,1,
Lafayette Park - Drinking Fountain/Cooler,9079833556995053721,drinking_water,1,0,0,0,37.791014219999994,-122.4273439,2101 Washington St,San Francisco,CA,94109,Lafayette Park,publicly_accessible,08:00:00,20:00:00,Daily,,rec,POINT (-122.4273439 37.791014216),2,Pacific Heights,2024/07/23 12:28:50 PM,2024/10/10 10:40:59 AM,102,4,6,30,212
Sharon Arts Studio,7349537812584707784,restroom,0,0,0,0,37.768251658039155,-122.4582606346775,501 Stanyan St,San Francisco,CA,94122,Golden Gate Park - Section 7,publicly_accessible,08:00:00,20:00:00,Daily,,rec,POINT (-122.458260635 37.768251658),7,Golden Gate Park,2024/08/21 02:15:01 PM,2024/10/10 10:40:59 AM,9,7,11,12,228
Margaret S.Hayward Playground - Drinking Fountain/Cooler,393590892851225671,drinking_water,1,0,0,0,37.78087932,-122.42537904,1016 Laguna St,San Francisco,CA,94102,Margaret S.Hayward Playground,publicly_accessible,08:00:00,20:00:00,Daily,,rec,POINT (-122.425379042 37.780879324),5,Western Addition,2024/07/23 12:28:50 PM,2024/10/10 10:40:59 AM,100,4,11,39,140
McLaren Bike Restroom,1992537512030673501,restroom,0,0,0,0,37.71413459070176,-122.42329114112185,,San Francisco,CA,94134,John McLaren Park,publicly_accessible,08:00:00,20:00:00,Daily,,rec,POINT (-122.423291141 37.714134591),10,McLaren Park,2024/08/21 02:15:01 PM,2024/10/10 10:40:59 AM,73,9,9,19,7
Alice Chalmers Clubhouse,4826729406713278563,restroom,0,0,0,0,37.70950402468936,-122.44706570405378,670 Brunswick St,San Francisco,CA,94112,Alice Chalmers Playground,publicly_accessible,08:00:00,20:00:00,Daily,,rec,POINT (-122.447065704 37.709504025),11,Excelsior,2024/08/13 04:58:33 PM,2024/10/10 10:40:59 AM,58,9,1,7,68
Christopher Clubhouse,2811668174124739375,restroom,0,0,0,0,37.74402066778578,-122.44026812980984,5210 Diamond Heights Blvd,San Francisco,CA,94131,George Christopher Playground,publicly_accessible,08:00:00,20:00:00,Daily,,rec,POINT (-122.44026813 37.744020668),8,Glen Park,2024/08/13 04:58:33 PM,2024/10/10 10:40:59 AM,57,9,5,10,168
Excelsior Clubhouse,7624069768620183306,restroom,0,0,0,0,37.720234550340486,-122.43358551158578,579 Madrid St,San Francisco,CA,94112,Excelsior Playground,publicly_accessible,08:00:00,20:00:00,Daily,,rec,POINT (-122.433585512 37.72023455),11,Excelsior,2024/08/13 04:58:33 PM,2024/10/10 10:40:59 AM,90,9,1,7,161
Presidio Heights Playground - Drinking Fountain/Cooler,3897957390348168831,drinking_water,1,0,0,0,37.78853175,-122.44979583000001,3437 Clay St,San Francisco,CA,94118,Presidio Heights Playground,publicly_accessible,08:00:00,20:00:00,Daily,,rec,POINT (-122.449795825 37.788531752),2,Presidio Heights,2024/07/23 12:28:50 PM,2024/10/10 10:40:59 AM,10,8,6,31,125
Alamo Square - Drinking Fountain/Cooler,7862019912939293880,drinking_water,1,1,0,0,37.77571844,-122.43461825,1081 Fulton St,San Francisco,CA,94117,Alamo Square,publicly_accessible,08:00:00,20:00:00,Daily,,rec,POINT (-122.434618252 37.77571844),5,Hayes Valley,2024/07/23 12:28:50 PM,2024/10/10 10:40:59 AM,23,4,11,9,67
Mountain Lake Park - Drinking Fountain/Cooler,8458342360154617310,drinking_water,1,0,0,1,37.786971920000006,-122.46779968999999,1 11th Ave,San Francisco,CA,94118,Mountain Lake Park,publicly_accessible,08:00:00,20:00:00,Daily,,rec,POINT (-122.467799694 37.786971919),1,Inner Richmond,2024/07/23 12:28:50 PM,2024/10/10 10:40:59 AM,4,,6,11,134
Eureka Rec Center,1493804388340657669,restroom,0,0,0,0,37.76025855824598,-122.43646112984024,100 Collingwood St,San Francisco,CA,94114,Eureka Valley Rec Center,publicly_accessible,08:00:00,20:00:00,Daily,,rec,POINT (-122.43646113 37.760258558),8,Castro/Upper Market,2024/08/13 05:16:30 PM,2024/10/10 10:40:59 AM,38,3,5,5,208
Pier 7,8096256367090940691,drinking_water,1,1,0,0,37.79897,-122.39703,Pier 7 on the Embarcadero,San Francisco,CA,94105,,publicly_accessible,,,Daily,Next to decaux toilet,port,POINT (-122.39703 37.79897),3,Financial District/South Beach,2024/10/04 01:51:23 PM,2024/10/10 10:40:59 AM,77,6,3,8,
Crocker Amazon Fieldhouse,903276712678038185,restroom,0,0,0,0,37.713562701693014,-122.43000619846528,799 Moscow St,San Francisco,CA,94134,Crocker Amazon Playground,publicly_accessible,08:00:00,20:00:00,Daily,,rec,POINT (-122.430006198 37.713562702),11,Excelsior,2024/08/13 04:58:33 PM,2024/10/10 10:40:59 AM,58,9,1,7,158
Washington Square - Drinking Fountain/Cooler,6124733483710797113,drinking_water,1,1,0,0,37.80052342,-122.40978818,600 Columbus Ave,San Francisco,CA,94133,Washington Square,publicly_accessible,08:00:00,20:00:00,Daily,,rec,POINT (-122.409788177 37.800523424),3,North Beach,2024/07/23 12:28:50 PM,2024/10/10 10:40:59 AM,106,6,3,23,94
Restrooms,4224576772754543358,restroom,0,0,0,0,37.73712250106413,-122.42058678323947,,San Francisco,CA,94110,Holly Park,publicly_accessible,08:00:00,20:00:00,Daily,,rec,POINT (-122.420586783 37.737122501),9,Bernal Heights,2024/08/13 04:58:33 PM,2024/10/10 10:40:59 AM,61,9,2,2,47
Haight Ashbury Pit Stop - Stanyan and Waller streets (JCDecaux),7142556760707795661,restroom,0,0,0,0,37.7682426,-122.4534175,Stanyan and Waller streets (JCDecaux),San Francisco,CA,,,publicly_accessible,,,,,pit_stop,POINT (-122.4534175 37.7682426),5,Golden Gate Park,2024/10/10 10:39:51 AM,2024/10/10 10:40:59 AM,9,7,11,12,
Mid-Market Pit Stop - U.N. Plaza (JCDecaux),3807932607898650381,restroom,0,0,0,0,37.7801432,-122.4130822,U.N. Plaza (JCDecaux),San Francisco,CA,,,publicly_accessible,,,,,pit_stop,POINT (-122.4130822 37.7801432),5,Tenderloin,2024/10/10 10:39:51 AM,2024/10/10 10:40:59 AM,21,5,10,36,
Restroom,6037412297407470953,restroom,0,0,0,0,37.728526970911986,-122.46602410190815,139 Aptos Ave,San Francisco,CA,94127,Aptos Playground,publicly_accessible,08:00:00,20:00:00,Daily,,rec,POINT (-122.466024102 37.728526971),7,West of Twin Peaks,2024/08/13 04:58:33 PM,2024/10/10 10:40:59 AM,63,10,8,41,70
Richmond Rec Center,6492148637033534034,restroom,0,0,0,0,37.78340553001032,-122.47809345349741,251 18th Ave,San Francisco,CA,94121,Richmond Rec Center,publicly_accessible,08:00:00,20:00:00,Daily,,rec,POINT (-122.478093453 37.78340553),1,Outer Richmond,2024/08/13 05:16:30 PM,2024/10/10 10:40:59 AM,5,8,4,29,121
Pier 14,760719995364998060,drinking_water,1,1,0,0,37.793789,-122.392106,Embarcadero and Broadway,San Francisco,CA,94105,,publicly_accessible,,,Daily,On sidewalk,port,POINT (-122.392106 37.793789),6,Financial District/South Beach,2024/10/04 01:51:23 PM,2024/10/10 10:40:59 AM,108,1,10,8,
Drinking Fountain/Cooler,2353514024471933827,drinking_water,1,1,0,0,37.76398713,-122.39912816,,San Francisco,CA,,Jackson Playground,publicly_accessible,08:00:00,20:00:00,Daily,,rec,POINT (-122.399128158 37.763987133),10,Potrero Hill,2024/07/23 12:28:50 PM,2024/10/10 10:40:59 AM,54,1,9,26,179
Restrooms,4461746632244599738,restroom,0,0,0,0,37.782884097867246,-122.49085411307503,336 31st Ave,San Francisco,CA,94121,DuPont Tennis Courts,publicly_accessible,08:00:00,20:00:00,Daily,,rec,POINT (-122.490854113 37.782884098),1,Outer Richmond,2024/08/13 04:58:33 PM,2024/10/10 10:40:59 AM,8,8,4,29,207
Sunset Rec Center,5857790688088800410,restroom,0,0,0,0,37.75706028122408,-122.4869080712594,2201 Lawton St,San Francisco,CA,94122,Sunset Rec Center,publicly_accessible,08:00:00,20:00:00,Daily,,rec,POINT (-122.486908071 37.757060281),4,Sunset/Parkside,2024/08/13 05:16:30 PM,2024/10/10 10:40:59 AM,39,10,7,35,105
Youngblood Coleman Clubhouse,1204923542090208152,restroom,0,0,0,0,37.73797742460086,-122.38413496380761,1398 Hudson Ave,San Francisco,CA,94124,Youngblood-Coleman Playground,publicly_accessible,08:00:00,20:00:00,Daily,,rec,POINT (-122.384134964 37.737977425),10,Bayview Hunters Point,2024/08/13 04:58:33 PM,2024/10/10 10:40:59 AM,86,2,9,1,224
Noe Valley Courts - Drinking Fountain/Cooler,7353953180170706382,drinking_water,1,0,0,0,37.751456729999994,-122.43894594000001,780 Douglass St,San Francisco,CA,94114,Noe Valley Courts,publicly_accessible,08:00:00,20:00:00,Daily,,rec,POINT (-122.438945938 37.751456734),8,Noe Valley,2024/07/23 12:28:50 PM,2024/10/10 10:40:59 AM,51,3,5,22,132
Cow Hollow Clubhouse,268193261574787356,restroom,0,0,0,0,37.79738737216096,-122.44467421677261,1 Miley St,San Francisco,CA,94123,Cow Hollow Playground,publicly_accessible,08:00:00,20:00:00,Daily,,rec,POINT (-122.444674217 37.797387372),2,Marina,2024/08/13 04:58:33 PM,2024/10/10 10:40:59 AM,14,4,6,13,13
Camp Mather - Drinking fountain,7681299302405400975,drinking_water,1,0,0,0,37.88292918,-119.85583474,32560 Mather Road,San Francisco,CA,95321,Camp Mather,publicly_accessible,08:00:00,20:00:00,Daily,,rec,POINT (-119.855843076 37.882933447),,,2024/08/19 10:00:34 AM,2024/10/10 10:40:59 AM,,,,,50
Union Square - Drinking Fountain/Cooler,2714186578769913329,drinking_water,1,0,0,0,37.787879229999994,-122.40697736,333 Post St,San Francisco,CA,94108,Union Square,publicly_accessible,08:00:00,20:00:00,Daily,,rec,POINT (-122.406977362 37.787879232),3,Financial District/South Beach,2024/07/23 12:28:50 PM,2024/10/10 10:40:59 AM,19,6,3,8,5
Drinking Fountain/Cooler,1707604202756524197,drinking_water,1,0,0,1,37.736636360000006,-122.44061655,,San Francisco,CA,,Glen Canyon Park,limited_access,08:00:00,20:00:00,Daily,,rec,POINT (-122.440616551 37.736636359),8,Glen Park,2024/07/23 12:28:50 PM,2024/10/10 10:40:59 AM,96,9,5,10,239
Noe Valley Branch Library,5439257887640776803,drinking_water,1,0,0,0,37.75022804200006,-122.43509024199994,451 Jersey St,San Francisco,CA,94114,,limited_access,,,Daily,"opening_hours = [""Sunday:13:00-17:00"",""Monday:12:00-18:00"",""Tuesday:10:00-20:00"",""Wednesday:12:00-20:00"",""Thursday:10:00-18:00"",""Friday:13:00-18:00"",""Saturday:10:00-18:00"",""Total Weekly Hours:49""]",library,POINT (-122.435090242 37.750228042),8,Noe Valley,2024/10/10 10:24:00 AM,2024/10/10 10:40:59 AM,84,3,5,22,
St Mary's Rec Center,3427043505677543567,restroom,0,0,0,0,37.734068492410614,-122.42170662551818,95 Justin Dr,San Francisco,CA,94110,St. Mary's Rec Center,publicly_accessible,08:00:00,20:00:00,Daily,,rec,POINT (-122.421706626 37.734068492),9,Bernal Heights,2024/09/05 02:26:25 PM,2024/10/10 10:40:59 AM,93,9,2,2,109
Yacht Harbor and Marina Green - Toilet,3334911520292618057,restroom,0,0,0,0,37.80665433,-122.44255446,1 Marina Green Dr,San Francisco,CA,94123,Yacht Harbor and Marina Green,limited_access,08:00:00,20:00:00,Daily,,rec,POINT (-122.442554463 37.806654329),,Marina,2024/07/23 12:28:50 PM,2024/10/10 10:40:59 AM,17,4,6,13,90
Argonne Playground - Drinking Fountain/Cooler,5656170251697479208,drinking_water,1,0,0,0,37.77958072,-122.47777183,455 18th Ave,San Francisco,CA,94121,Argonne Playground,publicly_accessible,08:00:00,20:00:00,Daily,,rec,POINT (-122.477771833 37.779580721),1,Outer Richmond,2024/07/23 12:28:50 PM,2024/10/10 10:40:59 AM,5,8,4,29,71
Tenderloin Recreation Center - Drinking Fountain/Cooler,7703224656766165468,drinking_water,1,0,0,0,37.78479959,-122.41547704,570 Ellis St,San Francisco,CA,94109,Tenderloin Rec Center,publicly_accessible,08:00:00,20:00:00,Daily,,rec,POINT (-122.415477044 37.784799593),5,Tenderloin,2024/07/23 12:28:50 PM,2024/10/10 10:40:59 AM,20,5,10,36,103
Balboa Park - Drinking Fountain/Cooler,3524619958457802624,drinking_water,1,1,0,0,37.72582314,-122.44334099999999,51 Havelock St,San Francisco,CA,94112,Balboa Park,publicly_accessible,08:00:00,20:00:00,Daily,,rec,POINT (-122.443340996 37.725823137),11,Outer Mission,2024/07/23 12:28:50 PM,2024/10/10 10:40:59 AM,94,9,1,28,76
Rose Garden Bathroom,1943296452659879033,restroom,0,0,0,0,37.77152256950022,-122.47202101051468,501 Stanyan St,San Francisco,CA,94118,Golden Gate Park - Section 4,publicly_accessible,08:00:00,20:00:00,Daily,,rec,POINT (-122.472021011 37.77152257),1,Golden Gate Park,2024/08/21 02:15:01 PM,2024/10/10 10:40:59 AM,9,8,4,12,232
Bayview Pit Stop - Mendell Plaza,7277902948722723318,restroom,0,0,0,0,37.7340389,-122.3908134,Mendell Plaza,San Francisco,CA,,,publicly_accessible,,,,,pit_stop,POINT (-122.3908134 37.7340389),10,Bayview Hunters Point,2024/10/10 10:39:51 AM,2024/10/10 10:40:59 AM,86,2,9,1,
Helen Wills Clubhouse,2185961860176799854,restroom,0,0,0,0,37.79573314221017,-122.42054753311785,1401 Broadway,San Francisco,CA,94109,Helen Wills Playground,publicly_accessible,08:00:00,20:00:00,Daily,,rec,POINT (-122.420547533 37.795733142),3,Russian Hill,2024/08/13 04:58:33 PM,2024/10/10 10:40:59 AM,105,4,3,32,175
Potrero Branch Library,4782384906586179379,drinking_water,1,0,0,0,37.760135940000055,-122.39766410099998,1616 20th St,San Francisco,CA,94107,,limited_access,,,Daily,"opening_hours = [""Sunday:13:00-17:00"",""Monday:13:00-18:00"",""Tuesday:10:00-20:00"",""Wednesday:13:00-20:00"",""Thursday:10:00-20:00"",""Friday:13:00-18:00"",""Saturday:10:00-18:00"",""Total Weekly Hours:49""]",library,POINT (-122.397664101 37.76013594),10,Potrero Hill,2024/10/10 10:24:00 AM,2024/10/10 10:40:59 AM,54,2,9,26,
Golden Gate Park - Section 1 - Drinking Fountain/Cooler,2471524683602976434,drinking_water,1,0,0,0,37.76699483,-122.45332847,501 Stanyan St,San Francisco,CA,94117,Golden Gate Park - Section 1,limited_access,08:00:00,20:00:00,Daily,,rec,POINT (-122.453328467 37.766994833),5,Golden Gate Park,2024/07/23 12:28:50 PM,2024/10/10 10:40:59 AM,9,7,11,12,229
Eureka Valley Branch Library/ Harvey Milk Memorial Branch Library,8214720885853823779,drinking_water,1,0,0,0,37.76406037000004,-122.43188171699995,1 Jose Sarria Ct,San Francisco,CA,94114,,limited_access,,,Daily,"opening_hours = [""Sunday:13:00-17:00"",""Monday:10:00-18:00"",""Tuesday:10:00-20:00"",""Wednesday:10:00-20:00"",""Thursday:10:00-18:00"",""Friday:13:00-18:00"",""Saturday:10:00-18:00"",""Total Weekly Hours:53""]",library,POINT (-122.431881717 37.76406037),8,Castro/Upper Market,2024/10/10 10:24:00 AM,2024/10/10 10:40:59 AM,38,3,5,5,49
Betty Ann Ong Chinese Rec Center - Drinking Fountain/Cooler,9052984559591546723,drinking_water,1,0,0,0,37.79437392,-122.41185105,1101 Washington St,San Francisco,CA,94108,Betty Ann Ong Chinese Rec Center,publicly_accessible,08:00:00,20:00:00,Daily,,rec,POINT (-122.411851051 37.794373922),3,Nob Hill,2024/07/23 12:28:50 PM,2024/10/10 10:40:59 AM,16,6,3,21,155
South Restrooms,709146778819532938,restroom,0,0,0,0,37.766805148049556,-122.4683584852519,501 Stanyan St,San Francisco,CA,94122,Golden Gate Park - Section 3,publicly_accessible,08:00:00,20:00:00,Daily,,rec,POINT (-122.468358485 37.766805148),7,Golden Gate Park,2024/08/21 02:15:01 PM,2024/10/10 10:40:59 AM,9,8,11,12,231
Pier 42,5131556297665840105,restroom,0,0,0,0,37.810759,-122.410441,Fishermans's Wharf,San Francisco,CA,94133,,publicly_accessible,07:00:00,22:00:00,Daily,Level 2 by Amici's Pizza,port,POINT (-122.410441 37.810759),3,North Beach,2024/10/04 01:51:23 PM,2024/10/10 10:40:59 AM,99,6,3,23,
In Chan Kaajal Park - Drinking Fountain/Cooler,7563868324743124979,drinking_water,1,1,0,0,37.76379713,-122.41555595,2080 Folsom St,San Francisco,CA,94110,In Chan Kaajal Park,publicly_accessible,08:00:00,20:00:00,Daily,,rec,POINT (-122.415555951 37.763797128),9,Mission,2024/07/23 12:28:50 PM,2024/10/10 10:40:59 AM,53,3,2,20,203
Restroom,1106131345370136236,restroom,0,0,0,0,37.74353236081232,-122.48092128937846,2354 24th Ave,San Francisco,CA,94116,McCoppin Square,publicly_accessible,08:00:00,20:00:00,Daily,,rec,POINT (-122.480921289 37.743532361),4,Sunset/Parkside,2024/08/13 04:58:33 PM,2024/10/10 10:40:59 AM,40,10,7,35,139
Junipero Serra Clubhouse,639104613465753824,restroom,0,0,0,0,37.72509664467659,-122.4740986263154,300 Stonecrest Dr,San Francisco,CA,94132,Junipero Serra Playground,publicly_accessible,08:00:00,20:00:00,Daily,,rec,POINT (-122.474098626 37.725096645),7,West of Twin Peaks,2024/08/13 04:58:33 PM,2024/10/10 10:40:59 AM,41,10,8,41,182
Palace of Fine Arts - Drinking Fountain/Cooler,8888903453669224957,drinking_water,1,0,0,0,37.80168735,-122.44791247,3601 Lyon St,San Francisco,CA,94123,Palace of Fine Arts,publicly_accessible,08:00:00,20:00:00,Daily,,rec,POINT (-122.447912465 37.801687354),2,Marina,2024/07/23 12:28:50 PM,2024/10/10 10:40:59 AM,17,4,6,13,21
Bocce Ball Courts,1839771427095320611,restroom,0,0,0,0,37.71489675900471,-122.43204290963838,799 Moscow St,San Francisco,CA,94134,Crocker Amazon Playground,publicly_accessible,08:00:00,20:00:00,Daily,,rec,POINT (-122.43204291 37.714896759),11,Excelsior,2024/08/20 10:36:57 AM,2024/10/10 10:40:59 AM,58,9,1,7,158
Coit Tower,1300996872573206948,restroom,0,0,0,0,37.80244444556374,-122.40586285398844,1 Telegraph Hill Blvd,San Francisco,CA,94133,Telegraph Hill - Pioneer Park,publicly_accessible,08:00:00,20:00:00,Daily,,rec,POINT (-122.405862854 37.802444446),3,North Beach,2024/08/20 10:36:57 AM,2024/10/10 10:40:59 AM,18,6,3,23,227
GGP 5 Dog Play Area Drinking Fountain,8699271607945034092,drinking_water,1,1,0,0,37.770941119999996,-122.49901861,,San Francisco,CA,,Golden Gate Park - Section 5,publicly_accessible,08:00:00,20:00:00,Daily,,rec,POINT (-122.499018608 37.770941124),1,Golden Gate Park,2024/07/23 12:28:50 PM,2024/10/10 10:40:59 AM,9,8,4,12,233
Restrooms,3659454021908060856,restroom,0,0,0,0,37.77608607438947,-122.43432885373569,1081 Fulton St,San Francisco,CA,94117,Alamo Square,publicly_accessible,08:00:00,20:00:00,Daily,,rec,POINT (-122.434328854 37.776086074),5,Hayes Valley,2024/08/13 04:58:33 PM,2024/10/10 10:40:59 AM,23,4,11,9,67
Woh Hei Yuen Clubhouse,6335645547559891312,restroom,0,0,0,0,37.79566305898598,-122.41036014811358,922 Jackson St,San Francisco,CA,94133,Woh Hei Yuen Playground,publicly_accessible,08:00:00,20:00:00,Daily,,rec,POINT (-122.410360148 37.795663059),3,Chinatown,2024/08/13 04:58:33 PM,2024/10/10 10:40:59 AM,16,6,3,6,91
West Portal Playground - Drinking Fountain/Cooler,5827982610537190352,drinking_water,1,0,0,0,37.74173871,-122.46518014,131 Lenox Way,San Francisco,CA,94127,West Portal Playground,publicly_accessible,08:00:00,20:00:00,Daily,,rec,POINT (-122.465180141 37.74173871),7,West of Twin Peaks,2024/07/23 12:28:50 PM,2024/10/10 10:40:59 AM,46,10,8,41,223
McKinley Square - Drinking Fountain/Cooler,4129870739143454943,drinking_water,1,0,0,0,37.75910871999999,-122.40447578,2311 20th St,San Francisco,CA,94107,McKinley Square,publicly_accessible,08:00:00,20:00:00,Daily,,rec,POINT (-122.404475785 37.759108722),10,Potrero Hill,2024/07/23 12:28:50 PM,2024/10/10 10:40:59 AM,54,2,9,26,60
Golden Gate Park - Section 1 - Drinking Fountain/Cooler,2486624640236419123,drinking_water,1,0,0,0,37.77273826,-122.45794473,501 Stanyan St,San Francisco,CA,94117,Golden Gate Park - Section 1,publicly_accessible,08:00:00,20:00:00,Daily,,rec,POINT (-122.457944731 37.772738257),1,Golden Gate Park,2024/07/23 12:28:50 PM,2024/10/10 10:40:59 AM,9,7,4,12,229
McLaren Mansell Clubhouse,4653891988982245606,restroom,0,0,0,0,37.719149523186175,-122.4126962340035,,San Francisco,CA,94134,John McLaren Park,publicly_accessible,08:00:00,20:00:00,Daily,,rec,POINT (-122.412696234 37.719149523),9,McLaren Park,2024/08/21 02:15:01 PM,2024/10/10 10:40:59 AM,73,9,2,19,7
Louis Sutter Playground - Drinking Fountain,4485946366151460896,drinking_water,1,1,0,0,37.72247854,-122.41423995,599 Yale St,San Francisco,CA,94134,Louis Sutter Playground,publicly_accessible,08:00:00,20:00:00,Daily,,rec,POINT (-122.414239954 37.722478535),9,McLaren Park,2024/07/23 12:28:50 PM,2024/10/10 10:40:59 AM,73,2,2,19,10
Restrooms,4390283377851479502,restroom,0,0,0,0,37.73389881070508,-122.44827786620233,233 Melrose Avenue,San Francisco,CA,94127,Sunnyside Playground,publicly_accessible,08:00:00,20:00:00,Daily,,rec,POINT (-122.448277866 37.733898811),7,West of Twin Peaks,2024/08/13 04:58:33 PM,2024/10/10 10:40:59 AM,95,9,8,41,222
Salvation Army Headquarters,7376495296883677357,drinking_water,0,1,0,0,37.7814174,-122.4020001,832 Folsom Ave,San Francisco,CA,94107,,publicly_accessible,,,Daily,,puc,POINT (-122.4020001 37.7814174),6,South of Market,2024/06/27 01:43:12 PM,2024/10/10 10:40:59 AM,32,1,10,34,
Pine Lake Dog Play Area Drinking Fountain,8319170725055303474,drinking_water,1,0,0,0,37.73679292,-122.48263593,,San Francisco,CA,,Pine Lake Park,publicly_accessible,08:00:00,20:00:00,Daily,,rec,POINT (-122.482635932 37.736792924),4,Sunset/Parkside,2024/07/23 12:28:50 PM,2024/10/10 10:40:59 AM,40,10,7,35,218
Mission Pit Stop - SFGH Building 80/90 COVID 19 Pit Stop,175034497487408157,restroom,0,0,0,0,37.7571167,-122.4056906,SFGH Building 80/90 COVID 19 Pit Stop,San Francisco,CA,,,publicly_accessible,,,,,pit_stop,POINT (-122.4056906 37.7571167),10,Mission,2024/10/10 10:39:51 AM,2024/10/10 10:40:59 AM,54,3,9,20,
Gilman Clubhouse,5040493411167008693,restroom,0,0,0,0,37.7168010634532,-122.38835499090985,993 Gilman Ave,San Francisco,CA,94124,Gilman Playground,publicly_accessible,08:00:00,20:00:00,Daily,,rec,POINT (-122.388354991 37.716801063),10,Bayview Hunters Point,2024/08/13 04:58:33 PM,2024/10/10 10:40:59 AM,88,2,9,1,169
Bernal Heights Branch Library,5507692796941224450,drinking_water,1,0,0,0,37.73885128400008,-122.41610523099996,500 Cortland Ave,San Francisco,CA,94110,,limited_access,,,Daily,"opening_hours = [""Sunday:13:00-17:00"",""Monday:10:00-18:00"",""Tuesday:10:00-19:00"",""Wednesday:12:00-20:00"",""Thursday:10:00-18:00"",""Friday:13:00-18:00"",""Saturday:10:00-18:00"",""Total Weekly Hours:50""]",library,POINT (-122.416105231 37.738851284),9,Bernal Heights,2024/10/10 10:24:00 AM,2024/10/10 10:40:59 AM,83,9,2,2,80
Chain of Lakes Restroom,6919291330605723233,restroom,0,0,0,0,37.767975489668096,-122.50181865801785,501 Stanyan St,San Francisco,CA,94121,Golden Gate Park - Section 6,publicly_accessible,08:00:00,20:00:00,Daily,,rec,POINT (-122.501818658 37.76797549),1,Golden Gate Park,2024/09/04 01:18:59 PM,2024/10/10 10:40:59 AM,9,8,4,12,234
Drinking Fountain,3110329447527087005,drinking_water,1,0,0,0,37.71360476,-122.43296599,,San Francisco,CA,,Crocker Amazon Playground,limited_access,08:00:00,20:00:00,Daily,,rec,POINT (-122.432965988 37.713604757),11,Excelsior,2024/07/23 12:28:50 PM,2024/10/10 10:40:59 AM,58,9,1,7,158
Glen Park Rec Center,1653814492978563231,restroom,0,0,0,0,37.7370245859576,-122.44076950422266,70 Elk St,San Francisco,CA,94131,Glen Canyon Park,publicly_accessible,08:00:00,20:00:00,Daily,,rec,POINT (-122.440769504 37.737024586),8,Glen Park,2024/08/13 05:16:30 PM,2024/10/10 10:40:59 AM,96,9,5,10,239
Cabrillo Playground - Drinking Fountain/Cooler,9115975056274292658,drinking_water,1,0,0,0,37.77297404,-122.49900828,851 38th Ave,San Francisco,CA,94121,Cabrillo Playground,publicly_accessible,08:00:00,20:00:00,Daily,,rec,POINT (-122.499008277 37.772974039),1,Outer Richmond,2024/07/23 12:28:50 PM,2024/10/10 10:40:59 AM,8,8,4,29,81
Crocker Amazon Playground - Drinking Fountain/Cooler,1867864060672035884,drinking_water,1,1,0,0,37.71379099,-122.42993906000001,799 Moscow St,San Francisco,CA,94134,Crocker Amazon Playground,publicly_accessible,08:00:00,20:00:00,Daily,,rec,POINT (-122.42993906 37.713790993),11,Excelsior,2024/07/23 12:28:50 PM,2024/10/10 10:40:59 AM,58,9,1,7,158
Camp Mather - Drinking fountain,5264800034032263896,drinking_water,1,0,0,0,37.88344952,-119.85691668,32560 Mather Road,San Francisco,CA,95321,Camp Mather,publicly_accessible,08:00:00,20:00:00,Daily,,rec,POINT (-119.856916694 37.883449467),,,2024/08/19 10:00:34 AM,2024/10/10 10:40:59 AM,,,,,50
Youngblood Colman Park,8953154863104910777,drinking_water,0,1,1,0,37.739575,-122.385795,615 Mendell St,San Francisco,CA,94124,Youngblood-Coleman Playground,publicly_accessible,,,Daily,,puc,POINT (-122.385795 37.739575),10,Bayview Hunters Point,2024/06/27 01:43:12 PM,2024/10/10 10:40:59 AM,86,2,9,1,
Hayward Path Drinking Fountain,2166612845956990226,drinking_water,1,1,0,0,37.78074053,-122.42663067,,San Francisco,CA,,Margaret S.Hayward Playground,publicly_accessible,08:00:00,20:00:00,Daily,,rec,POINT (-122.426630672 37.780740531),5,Western Addition,2024/07/23 12:28:50 PM,2024/10/10 10:40:59 AM,100,4,11,39,140
Lake Merced Park - Drinking Fountain/Cooler,4843891343408355453,drinking_water,1,1,0,0,37.72594388,-122.49985018999999,1 Harding Rd,San Francisco,CA,94132,Lake Merced Park,publicly_accessible,08:00:00,20:00:00,Daily,,rec,POINT (-122.499850186 37.725943881),7,Lakeshore,2024/07/23 12:28:50 PM,2024/10/10 10:40:59 AM,43,10,8,16,2
Coleridge Mini Park - Drinking Fountain/Cooler,1364794861201751412,drinking_water,1,0,0,0,37.74428394,-122.41949464999999,90 Coleridge St,San Francisco,CA,94110,Coleridge Mini Park,publicly_accessible,08:00:00,20:00:00,Daily,,rec,POINT (-122.419494652 37.74428394),9,Bernal Heights,2024/07/23 12:28:50 PM,2024/10/10 10:40:59 AM,83,9,2,2,156
Bayfront Park #1,2819301328891327176,drinking_water,1,1,1,1,37.767503,-122.386062,"Terry A Francois Blvd, Mission Bay",San Francisco,CA,94158,,,,,,,port,POINT (-122.386062 37.767503),6,Mission Bay,2024/10/04 01:51:23 PM,2024/10/10 10:40:59 AM,34,1,10,4,
"Heron's Head Park, Eco Center",3013277213648008590,drinking_water,1,1,0,1,37.740119,-122.37597,32 Jennings Street,San Francisco,CA,94124,,publicly_accessible,,,Daily,Near entrance/on park path,port,POINT (-122.37597 37.740119),10,Bayview Hunters Point,2024/10/04 01:51:23 PM,2024/10/10 10:40:59 AM,56,2,9,1,
West Restroom,8593550973827787120,restroom,0,0,0,0,37.72515055880462,-122.44552972539844,51 Havelock St,San Francisco,CA,94112,Balboa Park,publicly_accessible,08:00:00,20:00:00,Daily,,rec,POINT (-122.445529725 37.725150559),11,Outer Mission,2024/08/13 04:58:33 PM,2024/10/10 10:40:59 AM,94,9,1,28,76
Minnie and Lovie Rec Center - Drinking Fountain/Cooler,2256536259997880441,drinking_water,1,1,0,0,37.71509077,-122.45890729,650 Capitol Ave,San Francisco,CA,94112,Minnie and Lovie Rec Center,publicly_accessible,08:00:00,20:00:00,Daily,,rec,POINT (-122.458907294 37.715090767),11,Oceanview/Merced/Ingleside,2024/07/23 12:28:50 PM,2024/10/10 10:40:59 AM,81,10,1,24,89
DuPont Tennis Courts - Drinking Fountain/Cooler,3262834533380929173,drinking_water,1,0,0,0,37.78286232,-122.49084131,336 31st Ave,San Francisco,CA,94121,DuPont Tennis Courts,publicly_accessible,08:00:00,20:00:00,Daily,,rec,POINT (-122.490841311 37.782862319),1,Outer Richmond,2024/07/23 12:28:50 PM,2024/10/10 10:40:59 AM,8,8,4,29,207
Cabrillo Clubhouse,5261161722080981663,restroom,0,0,0,0,37.77310559016735,-122.49848816074777,851 38th Ave,San Francisco,CA,94121,Cabrillo Playground,publicly_accessible,08:00:00,20:00:00,Daily,,rec,POINT (-122.498488161 37.77310559),1,Outer Richmond,2024/08/13 04:58:33 PM,2024/10/10 10:40:59 AM,8,8,4,29,81
